"locator_domain","page_url","location_name","street_address","city","state","zip","country_code","store_number","phone","location_type","latitude","longitude","hours_of_operation"
"https://www.wingstop.com","https://www.wingstop.com/order","Wingstop Brooklyn Livingston Street","289 Livingston St","Brooklyn","NY","11217","US","9271","(718) 260-9464","Wingstop","40.688395","-73.981985","Fri 11:00-23:45 Sat 11:00-22:00 Sun 11:15-22:00 Mon 12:00-22:00 Tue 11:00-23:45 Wed 11:00-23:45 Thu 11:00-23:45 Fri 11:00-23:45"
"https://www.wingstop.com","https://www.wingstop.com/order","Wingstop Brooklyn 284 Broadway","284 Broadway","Brooklyn","NY","11211","US","70386","(929) 207-9464","Wingstop","40.708468","-73.958668","Fri 11:00-midnight Sat 11:00-midnight Sun 11:00-midnight Mon 11:00-midnight Tue 11:00-midnight Wed 11:00-midnight Thu 11:00-midnight Fri 11:00-midnight"
"https://www.wingstop.com","https://www.wingstop.com/order","Wingstop Brooklyn Fulton St","1270 Fulton St","Brooklyn","NY","11216","US","9215","(646) 787-9464","Wingstop","40.6802316","-73.950007","Fri 11:00-midnight Sat 11:00-midnight Sun 11:00-midnight Mon 11:00-midnight Tue 11:00-midnight Wed 11:00-midnight Thu 11:00-midnight Fri 11:00-midnight"
"https://www.wingstop.com","https://www.wingstop.com/order","Wingstop Bushwick","935 Broadway","Brooklyn","NY","11206","US","26509","(347) 507-9464","Wingstop","40.697334","-73.935548","Fri 11:00-midnight Sat 11:00-midnight Sun 11:00-midnight Mon 11:00-midnight Tue 11:00-midnight Wed 11:00-midnight Thu 11:00-midnight Fri 11:00-midnight"
"https://www.wingstop.com","https://www.wingstop.com/order","Wingstop Brooklyn 946 Flatbush Ave","946 Flatbush Ave","Brooklyn","NY","11226","US","70360","(929) 209-9464","Wingstop","40.6484024","-73.9584797","Fri 11:00-midnight Sat 11:00-midnight Sun 11:00-midnight Mon 11:00-midnight Tue 11:00-midnight Wed 11:00-midnight Thu 11:00-midnight Fri 11:00-midnight"
"https://www.wingstop.com","https://www.wingstop.com/order","Wingstop Brooklyn Utica Ave","700 Utica Ave","Brooklyn","NY","11203","US","70218","(718) 245-9464","Wingstop","40.6562345","-73.9312557","Fri 11:00-midnight Sat 11:00-midnight Sun 11:00-23:00 Mon 11:00-23:00 Tue 11:00-23:00 Wed 11:00-23:00 Thu 11:00-midnight Fri 11:00-midnight"
"https://www.wingstop.com","https://www.wingstop.com/order","Wingstop Astoria","31-14 Steinway Street","Astoria","NY","11103","US","9123","(718) 777-9464","Wingstop","40.7610205","-73.9176345","Fri 11:00-midnight Sat 11:00-midnight Sun 11:00-midnight Mon 11:00-midnight Tue 11:00-midnight Wed 11:00-midnight Thu 11:00-midnight Fri 11:00-midnight"
"https://www.wingstop.com","https://www.wingstop.com/order","Wingstop North Bergen Tonnelle","9100 Tonnelle Ave","North Bergen","NJ","07047","US","18236","(201) 766-9464","Wingstop","40.8135822","-74.0099521","Fri 11:00-23:30 Sat 11:00-23:30 Sun 11:00-23:30 Mon 11:00-23:30 Tue 11:00-23:30 Wed 11:00-23:30 Thu 11:00-23:30 Fri 11:00-23:30"
"https://www.wingstop.com","https://www.wingstop.com/order","Wingstop New York 125th St","63 W. 125th St.","New York","NY","10027","US","15578","(212) 987-9464","Wingstop","40.8076516","-73.944455","Fri 11:00-midnight Sat 11:00-midnight Sun 11:00-midnight Mon 11:00-midnight Tue 11:00-midnight Wed 11:00-midnight Thu 11:00-midnight Fri 11:00-midnight"
"https://www.wingstop.com","https://www.wingstop.com/order","Wingstop Newark McCarter Hwy","1244 McCarter Hwy","Newark","NJ","07014","US","17664","(908) 469-9464","Wingstop","40.7511756","-74.1672549","Fri 11:00-23:45 Sat 11:00-23:45 Sun 11:00-23:45 Mon 11:00-23:30 Tue 11:00-23:30 Wed 11:00-23:30 Thu 11:00-23:30 Fri 11:00-23:45"
"https://www.wingstop.com","https://www.wingstop.com/order","Wingstop Staten Island Forest Ave.","1756 Forest Ave","Staten Island","NY","10303","US","26505","(718) 524-6564","Wingstop","40.624674","-74.1473569","Fri 11:00-23:45 Sat 11:00-23:45 Sun 11:00-23:00 Mon 11:00-23:00 Tue 11:00-23:00 Wed 11:00-23:00 Thu 11:00-23:00 Fri 11:00-23:45"
"https://www.wingstop.com","https://www.wingstop.com/order","Wingstop Bronx E. Burnside Ave.","88 E. Burnside Ave #4","Bronx","NY","10453","US","27019","(917) 737-7000","Wingstop","40.8531391","-73.9061057","Fri 11:00-midnight Sat 11:00-midnight Sun 11:00-midnight Mon 11:00-midnight Tue 11:00-midnight Wed 11:00-midnight Thu 11:00-midnight Fri 11:00-midnight"
"https://www.wingstop.com","https://www.wingstop.com/order","Wingstop Bronx E. Fordham Rd","305 E. Fordham Rd","Bronx","NY","10458","US","75573","(917) 737-8600","Wingstop","40.8624184","-73.8946277","Fri 11:00-midnight Sat 11:00-midnight Sun 11:00-midnight Mon 11:00-midnight Tue 11:00-midnight Wed 11:00-midnight Thu 11:00-midnight Fri 11:00-midnight"
"https://www.wingstop.com","https://www.wingstop.com/order","Wingstop Hillside Liberty Ave","1104 Liberty Ave","Hillside","NJ","07205","US","73146","(908) 248-8554","Wingstop","40.6920306","-74.2371222","Fri 11:00-midnight Sat 11:00-midnight Sun 11:00-midnight Mon 11:00-midnight Tue 11:00-midnight Wed 11:00-midnight Thu 11:00-midnight Fri 11:00-midnight"
"https://www.wingstop.com","https://www.wingstop.com/order","Wingstop Elizabeth Elmora Ave","178 - B Elmora Ave","Elizabeth","NJ","07202","US","9467","(908) 558-9464","Wingstop","40.6634006","-74.2342794","Fri 11:00-23:30 Sat 11:00-23:30 Sun 11:00-23:30 Mon 11:00-23:30 Tue 11:00-23:30 Wed 11:00-23:30 Thu 11:00-23:30 Fri 11:00-23:30"
"https://www.wingstop.com","https://www.wingstop.com/order","Wingstop Garfield Outwater Ln.","11 Outwater Ln #5","Garfield","NJ","07026","US","31057","(973) 546-9464","Wingstop","40.8807127","-74.1186051","Fri 11:00-midnight Sat 11:00-midnight Sun 11:00-midnight Mon 11:00-midnight Tue 11:00-midnight Wed 11:00-midnight Thu 11:00-midnight Fri 11:00-midnight"
"https://www.wingstop.com","https://www.wingstop.com/order","Wingstop Bergenfield S. Washington Ave","415 S. Washington Ave","Bergenfield","NJ","07621","US","49753","(201) 771-7771","Wingstop","40.9137232","-73.9965009","Fri 11:00-midnight Sat 11:00-midnight Sun 11:00-midnight Mon 11:00-midnight Tue 11:00-midnight Wed 11:00-midnight Thu 11:00-midnight Fri 11:00-midnight"
"https://www.wingstop.com","https://www.wingstop.com/order","Wingstop Clifton New Jersey Main Ave","1578 Main Ave","Clifton","NJ","07011","US","20663","(862) 225-9464","Wingstop","40.8881838","-74.1517951","Fri 11:00-midnight Sat 11:00-midnight Sun 11:00-midnight Mon 11:00-midnight Tue 11:00-midnight Wed 11:00-midnight Thu 11:00-midnight Fri 11:00-midnight"
"https://www.wingstop.com","https://www.wingstop.com/order","Wingstop Union US Highway 22 E","2290 Route 22 East","Union","NJ","07083","US","31223","(908) 378-9464","Wingstop","40.6902313","-74.2904163","Fri 11:00-midnight Sat 11:00-midnight Sun 11:00-23:30 Mon 11:00-23:30 Tue 11:00-23:30 Wed 11:00-23:30 Thu 11:00-23:30 Fri 11:00-midnight"
"https://www.wingstop.com","https://www.wingstop.com/order","Wingstop Pelham Boston Post Rd.","4326 Boston Post Rd","Pelham","NY","10803","US","36510","(914) 633-7100","Wingstop","40.8900373","-73.8191624","Fri 11:00-23:45 Sat 11:00-23:45 Sun 11:00-midnight Mon 11:00-midnight Tue 11:00-midnight Wed 11:00-midnight Thu 11:00-midnight Fri 11:00-23:45"
"https://www.wingstop.com","https://www.wingstop.com/order","Wingstop Woodbridge US Hwy 9 N.","306 Us Highway 9 N.","Woodbridge","NJ","07095","US","72007","(732) 826-9000","Wingstop","40.5352307","-74.2942437","Fri 11:00-midnight Sat 11:00-midnight Sun 11:00-midnight Mon 11:00-midnight Tue 11:00-midnight Wed 11:00-midnight Thu 11:00-midnight Fri 11:00-midnight"
"https://www.wingstop.com","https://www.wingstop.com/order","Wingstop Yonkers Central Park Ave","2250 Central Park Ave","Yonkers","NY","10710","US","44017","(914) 961-6600","Wingstop","40.9746312","-73.832711","Fri 11:00-23:45 Sat 11:00-23:45 Sun 11:00-23:45 Mon 11:00-23:45 Tue 11:00-23:45 Wed 11:00-23:45 Thu 11:00-23:45 Fri 11:00-23:45"
"https://www.wingstop.com","https://www.wingstop.com/order","Wingstop Watchung US Highway 22","1680 Route 22 East","Watchung","NJ","07069","US","62101","(908) 668-9464","Wingstop","40.647237","-74.407614","Fri 11:00-23:45 Sat 11:00-23:45 Sun 11:00-23:30 Mon 11:00-23:45 Tue 11:00-23:45 Wed 11:00-23:45 Thu 11:00-23:45 Fri 11:00-23:45"
"https://www.wingstop.com","https://www.wingstop.com/order","Wingstop Freeport W. Sunrise Hwy","129 W. Sunrise HWY","Freeport","NY","11520","US","75180","(516) 962-3572","Wingstop","40.6560498","-73.5872211","Fri 11:00-midnight Sat 11:00-midnight Sun 11:00-midnight Mon 11:00-midnight Tue 11:00-midnight Wed 11:00-midnight Thu 11:00-midnight Fri 11:00-midnight"
"https://www.wingstop.com","https://www.wingstop.com/order","Wingstop Edison Lincoln Highway","2132 Lincoln Hwy","Edison","NJ","08817","US","59531","(732) 902-2000","Wingstop","40.5276135","-74.385164","Fri 11:00-midnight Sat 11:00-midnight Sun 11:00-midnight Mon 11:00-midnight Tue 11:00-midnight Wed 11:00-midnight Thu 11:00-midnight Fri 11:00-midnight"
"https://www.wingstop.com","https://www.wingstop.com/order","Wingstop Port Chester Abendroth Ave","110 Abendroth Ave","Port Chester","NY","10573","US","31209","(914) 939-0200","Wingstop","41.0005343","-73.6627956","Fri 11:00-midnight Sat 11:00-midnight Sun 11:00-midnight Mon 11:00-midnight Tue 11:00-midnight Wed 11:00-midnight Thu 11:00-midnight Fri 11:00-midnight"
"https://www.wingstop.com","https://www.wingstop.com/order","Wingstop North Brunswick Shoppes Blvd.","789 Shoppes Blvd","North Brunswick","NJ","08902","US","17203","(732) 640-2000","Wingstop","40.4600811","-74.4567425","Fri 11:00-midnight Sat 11:00-midnight Sun 11:00-23:00 Mon 11:00-23:00 Tue 11:00-23:00 Wed 11:00-23:00 Thu 11:00-23:00 Fri 11:00-midnight"
"https://www.wingstop.com","https://www.wingstop.com/order","Wingstop Wharton State Route 15","321 NJ Route 15,","Wharton","NJ","07885","US","34478","(973) 282-9464","Wingstop","40.9062687","-74.569417","Fri 11:00-23:00 Sat 11:00-23:00 Sun 11:00-23:00 Mon 11:00-23:00 Tue 11:00-23:00 Wed 11:00-23:00 Thu 11:00-23:00 Fri 11:00-23:00"
"https://www.wingstop.com","https://www.wingstop.com/order","Wingstop North Babylon Deer Park Ave","1209 Deer Park Ave","North Babylon","NY","11703","US","65656","(631) 940-7693","Wingstop","40.7370273","-73.3197697","Fri 11:00-midnight Sat 11:00-midnight Sun 11:00-midnight Mon 11:00-midnight Tue 11:00-midnight Wed 11:00-midnight Thu 11:00-midnight Fri 11:00-midnight"
"https://www.wingstop.com","https://www.wingstop.com/order","Wingstop Middletown Route 211 E","400 Route 211 E Ste 21","Middletown","NY","10940","US","75518","(845) 789-2319","Wingstop","41.454431","-74.3870392","Fri 11:00-23:00 Sat 11:00-23:00 Sun 11:00-22:00 Mon 11:00-22:00 Tue 11:00-22:00 Wed 11:00-22:00 Thu 11:00-22:00 Fri 11:00-23:00"
"https://www.wingstop.com","https://www.wingstop.com/order","Wingstop Los Angeles [USC] Exposition Blvd & Figueroa St.","3584 S. Figueroa St.","Los Angeles","CA","90007","US","36187","(213) 745-9464","Wingstop","34.0185693","-118.2816684","Fri 10:30-midnight Sat 10:30-midnight Sun 10:30-midnight Mon 10:30-midnight Tue 10:30-midnight Wed 10:30-midnight Thu 10:30-midnight Fri 10:30-midnight"
"https://www.wingstop.com","https://www.wingstop.com/order","Wingstop Los Angeles Central Ave","5857 S Central Ave Ste 170","Los Angeles","CA","90011","US","9182","(323) 846-9464","Wingstop","33.9881308","-118.2575274","Fri 10:30-midnight Sat 10:30-midnight Sun 10:30-midnight Mon 10:30-midnight Tue 10:30-midnight Wed 10:30-midnight Thu 10:30-midnight Fri 10:30-midnight"
"https://www.wingstop.com","https://www.wingstop.com/order","Wingstop Los Angeles Western Ave","1075 N Western Ave Ste 107","Los Angeles","CA","90029","US","9152","(323) 464-9464","Wingstop","34.0903911","-118.3097105","Fri 10:30-midnight Sat 10:30-midnight Sun 10:30-midnight Mon 10:30-midnight Tue 10:30-midnight Wed 10:30-midnight Thu 10:30-midnight Fri 10:30-midnight"
"https://www.wingstop.com","https://www.wingstop.com/order","Wingstop Los Angeles Whittier Blvd","5049 Whittier Blvd","Los Angeles","CA","90022","US","8898","(323) 264-9464","Wingstop","34.0213081","-118.1605751","Fri 10:00-midnight Sat 10:00-midnight Sun 10:00-midnight Mon 10:00-midnight Tue 10:00-midnight Wed 10:00-midnight Thu 10:00-midnight Fri 10:00-midnight"
"https://www.wingstop.com","https://www.wingstop.com/order","Wingstop Walnut Park","2124 E Florence Ave","Walnut Park","CA","90255","US","8958","(323) 581-9466","Wingstop","33.9740002","-118.2328261","Fri 10:00-midnight Sat 10:00-midnight Sun 10:00-midnight Mon 10:00-midnight Tue 10:00-midnight Wed 10:00-midnight Thu 10:00-midnight Fri 10:00-midnight"
"https://www.wingstop.com","https://www.wingstop.com/order","Wingstop Los Angeles Venice Blvd","4725 Venice Blvd","Los Angeles","CA","90019","US","9268","(323) 634-9460","Wingstop","34.0471431","-118.3399196","Fri 10:00-midnight Sat 10:00-midnight Sun 10:00-midnight Mon 10:00-midnight Tue 10:00-midnight Wed 10:00-midnight Thu 10:00-midnight Fri 10:00-midnight"
"https://www.wingstop.com","https://www.wingstop.com/order","Wingstop Maywood Slauson Ave","4442 Slauson Ave","Maywood","CA","90270","US","65109","(323) 773-9464","Wingstop","33.9872025","-118.18645","Fri 10:30-midnight Sat 10:30-midnight Sun 10:30-midnight Mon 10:30-midnight Tue 10:30-midnight Wed 10:30-midnight Thu 10:30-midnight Fri 10:30-midnight"
"https://www.wingstop.com","https://www.wingstop.com/order","Wingstop Los Angeles W. Slauson","1754 W Slauson Ave Ste A","Los Angeles","CA","90047","US","8991","(323) 293-9464","Wingstop","33.9887498","-118.3084318","Fri 10:30-22:30 Sat 10:30-22:30 Sun 10:30-22:30 Mon 10:30-22:30 Tue 10:30-22:30 Wed 10:30-22:30 Thu 10:30-22:30 Fri 10:30-22:30"
"https://www.wingstop.com","https://www.wingstop.com/order","Wingstop Los Angeles Crenshaw Blvd","3825 Crenshaw Blvd Ste 104","Los Angeles","CA","90008","US","8914","(323) 296-9464","Wingstop","34.0170144","-118.3356476","Fri 11:00-23:30 Sat 11:00-23:30 Sun 11:00-22:30 Mon 11:00-22:30 Tue 11:00-22:30 Wed 11:00-22:30 Thu 11:00-22:30 Fri 11:00-23:30"
"https://www.wingstop.com","https://www.wingstop.com/order","Wingstop Glendale Glendale Ave.","245 S Glendale Ave Unit B","Glendale","CA","91205","US","9300","(818) 265-9464","Wingstop","34.1431813","-118.2495102","Fri 11:00-midnight Sat 11:00-midnight Sun 11:00-midnight Mon 11:00-midnight Tue 11:00-midnight Wed 11:00-midnight Thu 11:00-midnight Fri 11:00-midnight"
"https://www.wingstop.com","https://www.wingstop.com/order","Wingstop Los Angeles Vermont","8330 S Vermont Ave","Los Angeles","CA","90044","US","9035","(323) 778-9464","Wingstop","33.9626279","-118.2913216","Fri 10:30-22:30 Sat 10:30-22:30 Sun 10:30-22:30 Mon 10:30-22:30 Tue 10:30-22:30 Wed 10:30-22:30 Thu 10:30-22:30 Fri 10:30-22:30"
"https://www.wingstop.com","https://www.wingstop.com/order","Wingstop Bell Gardens","6810 Eastern Ave Ste J","Bell Gardens","CA","90201","US","8831","(323) 771-9464","Wingstop","33.9707194","-118.1632781","Fri 10:00-midnight Sat 10:00-midnight Sun 10:00-midnight Mon 10:00-midnight Tue 10:00-midnight Wed 10:00-midnight Thu 10:00-midnight Fri 10:00-midnight"
"https://www.wingstop.com","https://www.wingstop.com/order","Wingstop Alhambra E. Main","100 E. Main St., Ste 150","Alhambra","CA","91801","US","27357","(626) 282-9464","Wingstop","34.0952247","-118.1261204","Fri 10:30-23:45 Sat 10:30-23:45 Sun 10:30-23:45 Mon 10:30-23:45 Tue 10:30-23:45 Wed 10:30-23:45 Thu 10:30-23:45 Fri 10:30-23:45"
"https://www.wingstop.com","https://www.wingstop.com/order","Wingstop Los Angeles Century & S. Central Ave","10007 S. Central Ave","Los Angeles","CA","90002","US","65328","(323) 567-9464","Wingstop","33.9453919","-118.254152","Fri 10:30-midnight Sat 10:30-midnight Sun 10:30-midnight Mon 10:30-midnight Tue 10:30-midnight Wed 10:30-midnight Thu 10:30-midnight Fri 10:30-midnight"
"https://www.wingstop.com","https://www.wingstop.com/order","Wingstop South Gate - Azalea Plaza","4813 Firestone Blvd","South Gate","CA","90280","US","9461","(323) 566-9464","Wingstop","33.952658","-118.1837132","Fri 10:00-midnight Sat 10:00-midnight Sun 10:00-midnight Mon 10:00-midnight Tue 10:00-midnight Wed 10:00-midnight Thu 10:00-midnight Fri 10:00-midnight"
"https://www.wingstop.com","https://www.wingstop.com/order","Wingstop Inglewood Manchester","2323 W Manchester Rd","Inglewood","CA","90305","US","9134","(323) 750-9464","Wingstop","33.9603222","-118.3194045","Fri 10:30-22:00 Sat 10:30-22:00 Sun 10:30-22:30 Mon 10:30-22:00 Tue 10:30-22:00 Wed 10:30-22:00 Thu 10:30-22:00 Fri 10:30-22:00"
"https://www.wingstop.com","https://www.wingstop.com/order","Wingstop Lynwood Long Beach Blvd","10910 Long Beach Blvd","Lynwood","CA","90262","US","8875","(310) 762-9333","Wingstop","33.9339172","-118.2120456","Fri 10:30-midnight Sat 10:30-midnight Sun 10:30-midnight Mon 10:30-midnight Tue 10:30-midnight Wed 10:30-midnight Thu 10:30-midnight Fri 10:30-midnight"
"https://www.wingstop.com","https://www.wingstop.com/order","Wingstop Los Angeles Imperial Hwy & S Figueroa St.","11315 S Figueroa St Ste 110","Los Angeles","CA","90061","US","9079","(323) 754-9464","Wingstop","33.931801","-118.2830386","Fri 10:30-midnight Sat 10:30-midnight Sun 10:30-midnight Mon 10:30-midnight Tue 10:30-midnight Wed 10:30-midnight Thu 10:30-midnight Fri 10:30-midnight"
"https://www.wingstop.com","https://www.wingstop.com/order","Wingstop Los Angeles ""Culver City"" Venice Blvd.","8985 Venice Blvd #C-1C","Los Angeles","CA","90034","US","9307","(310) 558-9464","Wingstop","34.0270103","-118.3934383","Fri 11:00-23:30 Sat 11:00-23:30 Sun 11:00-22:30 Mon 11:00-22:30 Tue 11:00-22:30 Wed 11:00-22:30 Thu 11:00-22:30 Fri 11:00-23:30"
"https://www.wingstop.com","https://www.wingstop.com/order","Wingstop Inglewood Century","3551 W Century Blvd Ste 103","Inglewood","CA","90303","US","8730","(310) 672-9200","Wingstop","33.9455454","-118.333429","Fri 10:30-23:45 Sat 10:30-23:45 Sun 10:30-22:45 Mon 10:30-22:45 Tue 10:30-22:45 Wed 10:30-22:45 Thu 10:30-22:45 Fri 10:30-23:45"
"https://www.wingstop.com","https://www.wingstop.com/order","Wingstop Los Angeles La Tijera","6909 La Tijera Blvd","Los Angeles","CA","90045","US","8932","(310) 670-9464","Wingstop","33.9763034","-118.3737405","Fri 10:30-23:30 Sat 10:30-23:30 Sun 10:30-22:30 Mon 10:30-22:30 Tue 10:30-22:30 Wed 10:30-22:30 Thu 10:30-22:30 Fri 10:30-23:30"
"https://www.wingstop.com","https://www.wingstop.com/order","Wingstop Pico Rivera","8945 1/2 Washington Blvd","Pico Rivera","CA","90660","US","9044","(562) 949-0159","Wingstop","33.9843632","-118.0966281","Fri 10:30-midnight Sat 10:30-midnight Sun 10:30-midnight Mon 10:30-midnight Tue 10:30-midnight Wed 10:30-midnight Thu 10:30-midnight Fri 10:30-midnight"
"https://www.wingstop.com","https://www.wingstop.com/order","Wingstop Pasadena Colorado Blvd","1709 E. Colorado Blvd","Pasadena","CA","91106","US","23611","(626) 578-9464","Wingstop","34.1462757","-118.115171","Fri 10:30-midnight Sat 10:30-midnight Sun 10:30-midnight Mon 10:30-midnight Tue 10:30-midnight Wed 10:30-midnight Thu 10:30-midnight Fri 10:30-midnight"
"https://www.wingstop.com","https://www.wingstop.com/order","Wingstop Rosemead Rosemead Blvd.","3612 Rosemead Blvd","Rosemead","CA","91770","US","9085","(626) 288-8634","Wingstop","34.0744367","-118.0721929","Fri 10:30-midnight Sat 10:30-midnight Sun 10:30-midnight Mon 10:30-midnight Tue 10:30-midnight Wed 10:30-midnight Thu 10:30-midnight Fri 10:30-midnight"
"https://www.wingstop.com","https://www.wingstop.com/order","Wingstop Pasadena N Lake Ave","1279 N Lake Ave","Pasadena","CA","91104","US","9200","(626) 798-2800","Wingstop","34.1677174","-118.1331948","Fri 11:00-midnight Sat 11:00-midnight Sun 11:00-midnight Mon 11:00-midnight Tue 11:00-midnight Wed 11:00-midnight Thu 11:00-midnight Fri 11:00-midnight"
"https://www.wingstop.com","https://www.wingstop.com/order","Wingstop Burbank San Fernando Blvd","928 N San Fernando Blvd Ste A1","Burbank","CA","91504","US","9067","(818) 846-9464","Wingstop","34.1878671","-118.3165312","Fri 10:30-midnight Sat 10:30-midnight Sun 10:30-midnight Mon 10:30-midnight Tue 10:30-midnight Wed 10:30-midnight Thu 10:30-midnight Fri 10:30-midnight"
"https://www.wingstop.com","https://www.wingstop.com/order","Wingstop Downey","8558 Firestone Blvd","Downey","CA","90241","US","9177","(562) 923-2222","Wingstop","33.937245","-118.1284913","Fri 10:30-midnight Sat 10:30-midnight Sun 10:30-midnight Mon 10:30-midnight Tue 10:30-midnight Wed 10:30-midnight Thu 10:30-midnight Fri 10:30-midnight"
"https://www.wingstop.com","https://www.wingstop.com/order","Wingstop Compton Rosecrans","2215 W Rosecrans Ave Ste 14-A","Compton","CA","90222","US","9264","(310) 763-3552","Wingstop","33.902989","-118.2555949","Fri 10:00-midnight Sat 10:00-midnight Sun 10:00-midnight Mon 10:00-midnight Tue 10:00-midnight Wed 10:00-midnight Thu 10:00-midnight Fri 10:00-midnight"
"https://www.wingstop.com","https://www.wingstop.com/order","Wingstop Hawthorne","11540 Hawthorne Blvd, Ste C","Hawthorne","CA","90250","US","32821","(310) 676-9464","Wingstop","33.9295892","-118.3520087","Fri 10:30-midnight Sat 10:30-midnight Sun 10:30-midnight Mon 10:30-midnight Tue 10:30-midnight Wed 10:30-midnight Thu 10:30-midnight Fri 10:30-midnight"
"https://www.wingstop.com","https://www.wingstop.com/order","Wingstop La Canada Flintridge Verdugo Blvd.","1975 Verdugo Blvd Ste 3","La Canada-Flintridge","CA","91011","US","9086","(818) 248-9464","Wingstop","34.205424","-118.2200417","Fri 11:00-midnight Sat 11:00-midnight Sun 11:00-23:00 Mon 11:00-23:00 Tue 11:00-23:00 Wed 11:00-23:00 Thu 11:00-23:00 Fri 11:00-midnight"
"https://www.wingstop.com","https://www.wingstop.com/order","Wingstop Gardena","2201 W Rosecrans Ave","Gardena","CA","90249","US","9102","(310) 324-3444","Wingstop","33.9024052","-118.318025","Fri 10:30-midnight Sat 10:30-midnight Sun 10:30-midnight Mon 10:30-midnight Tue 10:30-midnight Wed 10:30-midnight Thu 10:30-midnight Fri 10:30-midnight"
"https://www.wingstop.com","https://www.wingstop.com/order","Wingstop Los Angeles S. Centinela Ave","4040 S. Centinela Ave","Los Angeles","CA","90066","US","59532","(310) 391-9464","Wingstop","33.998695","-118.4285243","Fri 11:00-midnight Sat 11:00-midnight Sun 11:00-midnight Mon 11:00-midnight Tue 11:00-midnight Wed 11:00-midnight Thu 11:00-midnight Fri 11:00-midnight"
"https://www.wingstop.com","https://www.wingstop.com/order","Wingstop Whittier Beverly Blvd","10722 Beverly Blvd Ste B & C","Whittier","CA","90601","US","17674","(562) 699-9464","Wingstop","33.998877","-118.056337","Fri 11:00-midnight Sat 11:00-midnight Sun 11:00-midnight Mon 11:00-midnight Tue 11:00-midnight Wed 11:00-midnight Thu 11:00-midnight Fri 11:00-midnight"
"https://www.wingstop.com","https://www.wingstop.com/order","Wingstop El Monte Valley Blvd","10619 Valley Blvd.","El Monte","CA","91731","US","26499","(626) 416-5732","Wingstop","34.0774129","-118.0398785","Fri 10:30-midnight Sat 10:30-midnight Sun 10:30-midnight Mon 10:30-midnight Tue 10:30-midnight Wed 10:30-midnight Thu 10:30-midnight Fri 10:30-midnight"
"https://www.wingstop.com","https://www.wingstop.com/order","Wingstop Compton Alameda","1641 S Alameda St Ste 102","Compton","CA","90220","US","9263","(310) 763-9464","Wingstop","33.8787456","-118.2181431","Fri 10:00-midnight Sat 10:00-midnight Sun 10:00-midnight Mon 10:00-midnight Tue 10:00-midnight Wed 10:00-midnight Thu 10:00-midnight Fri 10:00-midnight"
"https://www.wingstop.com","https://www.wingstop.com/order","Wingstop South El Monte Thienes Ave","11335 Thienes Ave Unit 1-A","South El Monte","CA","91733","US","9471","(626) 401-2801","Wingstop","34.0428139","-118.0316623","Fri 10:30-midnight Sat 10:30-midnight Sun 10:30-midnight Mon 10:30-midnight Tue 10:30-midnight Wed 10:30-midnight Thu 10:30-midnight Fri 10:30-midnight"
"https://www.wingstop.com","https://www.wingstop.com/order","Wingstop Bellflower","14307 Bellflower Blvd","Bellflower","CA","90706","US","9233","(562) 920-2707","Wingstop","33.9015792","-118.1256065","Fri 10:30-midnight Sat 10:30-midnight Sun 10:30-midnight Mon 10:30-midnight Tue 10:30-midnight Wed 10:30-midnight Thu 10:30-midnight Fri 10:30-midnight"
"https://www.wingstop.com","https://www.wingstop.com/order","Wingstop Lawndale","15211 Hawthorne Blvd","Lawndale","CA","90260","US","8945","(310) 644-9464","Wingstop","33.8930295","-118.3531232","Fri 11:00-midnight Sat 11:00-midnight Sun 11:00-midnight Mon 11:00-midnight Tue 11:00-midnight Wed 11:00-midnight Thu 11:00-midnight Fri 11:00-midnight"
"https://www.wingstop.com","https://www.wingstop.com/order","Wingstop Los Angeles Santa Monica Blvd.","12241 Santa Monica Blvd","Los Angeles","CA","90025","US","9296","(310) 826-3040","Wingstop","34.0400082","-118.4655319","Fri 11:00-23:00 Sat 11:00-23:00 Sun 11:00-23:00 Mon 11:00-23:00 Tue 11:00-23:00 Wed 11:00-23:00 Thu 11:00-23:00 Fri 11:00-23:00"
"https://www.wingstop.com","https://www.wingstop.com/order","Wingstop Long Beach Paramount","6792 Cherry Ave","Long Beach","CA","90805","US","9045","(562) 630-9464","Wingstop","33.8769405","-118.1675516","Fri 10:30-midnight Sat 10:30-midnight Sun 10:30-midnight Mon 10:30-midnight Tue 10:30-midnight Wed 10:30-midnight Thu 10:30-midnight Fri 10:30-midnight"
"https://www.wingstop.com","https://www.wingstop.com/order","Wingstop Torrance Crenshaw","17419 Crenshaw Blvd","Torrance","CA","90504","US","9027","(310) 516-1700","Wingstop","33.8720279","-118.3267664","Fri 10:30-22:45 Sat 10:30-22:45 Sun 10:30-22:45 Mon 10:30-22:45 Tue 10:30-22:45 Wed 10:30-22:45 Thu 10:30-22:45 Fri 10:30-22:45"
"https://www.wingstop.com","https://www.wingstop.com/order","Wingstop Whittier Santa Fe Springs","13345 Telegraph Rd Ste M","Whittier","CA","90605","US","9060","(562) 777-9464","Wingstop","33.9413079","-118.047079","Fri 11:00-midnight Sat 11:00-midnight Sun 11:00-midnight Mon 11:00-midnight Tue 11:00-midnight Wed 11:00-midnight Thu 11:00-midnight Fri 11:00-midnight"
"https://www.wingstop.com","https://www.wingstop.com/order","Wingstop Norwalk Rosecrans Ave","11739 Rosecrans Ave","Norwalk","CA","90650","US","16878","(562) 868-2088","Wingstop","33.9027915","-118.0840107","Fri 10:30-midnight Sat 10:30-midnight Sun 10:30-midnight Mon 10:30-midnight Tue 10:30-midnight Wed 10:30-midnight Thu 10:30-midnight Fri 10:30-midnight"
"https://www.wingstop.com","https://www.wingstop.com/order","Wingstop Carson Avalon","20700 Avalon Blvd Ste. 483","Carson","CA","90746","US","8949","(310) 532-9464","Wingstop","33.8431733","-118.2629358","Fri 10:00-midnight Sat 10:00-midnight Sun 10:00-midnight Mon 10:00-midnight Tue 10:00-midnight Wed 10:00-midnight Thu 10:00-midnight Fri 10:00-midnight"
"https://www.wingstop.com","https://www.wingstop.com/order","Wingstop Baldwin Park","3127 Baldwin Park Blvd Ste C","Baldwin Park","CA","91706","US","9228","(626) 962-4400","Wingstop","34.0708844","-117.9793102","Fri 10:30-midnight Sat 10:30-midnight Sun 10:30-midnight Mon 10:30-midnight Tue 10:30-midnight Wed 10:30-midnight Thu 10:30-midnight Fri 10:30-midnight"
"https://www.wingstop.com","https://www.wingstop.com/order","Wingstop Monrovia","184 W Foothill Blvd","Monrovia","CA","91016","US","8941","(626) 357-8680","Wingstop","34.1506756","-118.0029521","Fri 10:45-23:30 Sat 10:45-23:30 Sun 10:45-23:30 Mon 10:45-23:30 Tue 10:45-23:30 Wed 10:45-23:30 Thu 10:45-23:30 Fri 10:45-23:30"
"https://www.wingstop.com","https://www.wingstop.com/order","Wingstop Long Beach Carson [Carson and Cherry]","2018 E Carson St","Long Beach","CA","90807","US","9260","(562) 989-9464","Wingstop","33.8320983","-118.1672327","Fri 10:30-midnight Sat 10:30-midnight Sun 10:30-midnight Mon 10:30-midnight Tue 10:30-midnight Wed 10:30-midnight Thu 10:30-midnight Fri 10:30-midnight"
"https://www.wingstop.com","https://www.wingstop.com/order","Wingstop Torrance Emerald St","20796 Hawthorne Blvd","Torrance","CA","90503","US","61250","(310) 214-9464","Wingstop","33.8414251","-118.3530757","Fri 10:30-midnight Sat 10:30-midnight Sun 10:30-midnight Mon 10:30-midnight Tue 10:30-midnight Wed 10:30-midnight Thu 10:30-midnight Fri 10:30-midnight"
"https://www.wingstop.com","https://www.wingstop.com/order","Wingstop Lakewood Woodruff Ave","4144 Woodruff Ave","Lakewood","CA","90713","US","8896","(562) 377-0752","Wingstop","33.8467422","-118.1159708","Fri 10:30-midnight Sat 10:30-midnight Sun 10:30-midnight Mon 10:30-midnight Tue 10:30-midnight Wed 10:30-midnight Thu 10:30-midnight Fri 10:30-midnight"
"https://www.wingstop.com","https://www.wingstop.com/order","Wingstop Cerritos","11445 South St","Cerritos","CA","90703","US","8915","(562) 924-7132","Wingstop","33.8591212","-118.0900679","Fri 10:30-midnight Sat 10:30-midnight Sun 10:30-midnight Mon 10:30-midnight Tue 10:30-midnight Wed 10:30-midnight Thu 10:30-midnight Fri 10:30-midnight"
"https://www.wingstop.com","https://www.wingstop.com/order","Wingstop Van Nuys","6734 Sepulveda Blvd","Van Nuys","CA","91411","US","9004","(818) 786-9464","Wingstop","34.1931577","-118.4659414","Fri 11:00-midnight Sat 11:00-midnight Sun 11:00-midnight Mon 11:00-midnight Tue 11:00-midnight Wed 11:00-midnight Thu 11:00-midnight Fri 11:00-midnight"
"https://www.wingstop.com","https://www.wingstop.com/order","Wingstop La Puente","1238 N Hacienda Blvd","La Puente","CA","91744","US","9009","(626) 919-0709","Wingstop","34.0430988","-117.9488414","Fri 10:30-midnight Sat 10:30-midnight Sun 10:30-midnight Mon 10:30-midnight Tue 10:30-midnight Wed 10:30-midnight Thu 10:30-midnight Fri 10:30-midnight"
"https://www.wingstop.com","https://www.wingstop.com/order","Wingstop Carson Sepulveda","212 E Sepulveda Blvd Ste P4-B","Carson","CA","90745","US","8716","(310) 518-5999","Wingstop","33.8077544","-118.2721449","Fri 11:00-23:45 Sat 11:00-23:45 Sun 11:00-22:45 Mon 11:00-22:45 Tue 11:00-22:45 Wed 11:00-22:45 Thu 11:00-22:45 Fri 11:00-23:45"
"https://www.wingstop.com","https://www.wingstop.com/order","Wingstop Panorama City Nordhoff St","14508 Nordhoff St","Panorama City","CA","91402","US","9153","(818) 894-9464","Wingstop","34.2349665","-118.4484093","Fri 11:00-midnight Sat 11:00-midnight Sun 11:00-midnight Mon 11:00-midnight Tue 11:00-midnight Wed 11:00-midnight Thu 11:00-midnight Fri 11:00-midnight"
"https://www.wingstop.com","https://www.wingstop.com/order","Wingstop Long Beach W. Willow St","1504 W Willow St","Long Beach","CA","90810","US","70396","(562) 606-2400","Wingstop","33.8035867","-118.2128229","Fri 11:00-midnight Sat 11:00-midnight Sun 11:00-midnight Mon 11:00-midnight Tue 11:00-midnight Wed 11:00-midnight Thu 11:00-midnight Fri 11:00-midnight"
"https://www.wingstop.com","https://www.wingstop.com/order","Wingstop Torrance [Crenshaw Blvd and Lomita Blvd]","24231 Crenshaw Blvd Ste C","Torrance","CA","90505","US","10054","(310) 530-9464","Wingstop","33.8064244","-118.3302596","Fri 11:00-midnight Sat 11:00-midnight Sun 11:00-midnight Mon 11:00-midnight Tue 11:00-midnight Wed 11:00-midnight Thu 11:00-midnight Fri 11:00-midnight"
"https://www.wingstop.com","https://www.wingstop.com/order","Wingstop Hawaiian Gardens Carson St.","12019 Carson Street","Hawaiian Gardens","CA","90716","US","31059","(562) 402-9464","Wingstop","33.8321717","-118.0738765","Fri 10:30-midnight Sat 10:30-midnight Sun 10:30-midnight Mon 10:30-midnight Tue 10:30-midnight Wed 10:30-midnight Thu 10:30-midnight Fri 10:30-midnight"
"https://www.wingstop.com","https://www.wingstop.com/order","Wingstop Long Beach Blvd","2000 Long Beach Blvd","Long Beach","CA","90806","US","8849","(562) 218-9464","Wingstop","33.7936903","-118.1890145","Fri 11:00-03:00 Sat 11:00-03:00 Sun 11:00-midnight Mon 11:00-midnight Tue 11:00-midnight Wed 11:00-midnight Thu 11:00-midnight Fri 11:00-03:00"
"https://www.wingstop.com","https://www.wingstop.com/order","Wingstop Pacoima Van Nuys","12745 Van Nuys Blvd","Pacoima","CA","91331","US","9150","(818) 897-9464","Wingstop","34.2755992","-118.4113241","Fri 11:00-midnight Sat 11:00-midnight Sun 11:00-midnight Mon 11:00-midnight Tue 11:00-midnight Wed 11:00-midnight Thu 11:00-midnight Fri 11:00-midnight"
"https://www.wingstop.com","https://www.wingstop.com/order","Wingstop North Hills Woodley Ave.","8633 Woodley Avenue","North Hills","CA","91343","US","26498","(818) 891-0999","Wingstop","34.227472","-118.4856586","Fri 10:30-midnight Sat 10:30-midnight Sun 10:30-midnight Mon 10:30-midnight Tue 10:30-midnight Wed 10:30-midnight Thu 10:30-midnight Fri 10:30-midnight"
"https://www.wingstop.com","https://www.wingstop.com/order","Wingstop Harbor City Pacific Coast Hwy - Temporarily Closed","1685 Pacific Coast Hwy Ste D","Harbor City","CA","90710","US","9311","(310) 326-9464","Wingstop","33.7901","-118.307244","<MISSING>"
"https://www.wingstop.com","https://www.wingstop.com/order","Wingstop City of Industry","17501 Colima Rd Ste G1","City Of Industry","CA","91748","US","9117","(626) 839-9464","Wingstop","33.9910145","-117.9246256","Fri 10:30-midnight Sat 10:30-midnight Sun 10:30-midnight Mon 10:30-midnight Tue 10:30-midnight Wed 10:30-midnight Thu 10:30-midnight Fri 10:30-midnight"
"https://www.wingstop.com","https://www.wingstop.com/order","Wingstop Wilmington W. Anaheim St","140 W. Anaheim St, Suite A","Wilmington","CA","90744","US","62265","(310) 513-9464","Wingstop","33.7796292","-118.2634888","Fri 10:30-midnight Sat 10:30-midnight Sun 10:30-midnight Mon 10:30-midnight Tue 10:30-midnight Wed 10:30-midnight Thu 10:30-midnight Fri 10:30-midnight"
"https://www.wingstop.com","https://www.wingstop.com/order","Wingstop Tarzana Reseda Blvd","6102 Reseda Blvd","Tarzana","CA","91335","US","9191","(818) 345-9464","Wingstop","34.1809002","-118.5355633","Fri 11:00-23:45 Sat 11:00-23:45 Sun 11:00-22:45 Mon 11:00-22:45 Tue 11:00-22:45 Wed 11:00-22:45 Thu 11:00-22:45 Fri 11:00-23:45"
"https://www.wingstop.com","https://www.wingstop.com/order","Wingstop Long Beach Ximeno Ave","1806 Ximeno Ave","Long Beach","CA","90815","US","8911","(562) 961-9464","Wingstop","33.7901236","-118.1384405","Fri 11:00-23:30 Sat 11:00-23:30 Sun 11:00-23:15 Mon 11:00-23:30 Tue 11:00-23:30 Wed 11:00-23:30 Thu 11:00-23:30 Fri 11:00-23:30"
"https://www.wingstop.com","https://www.wingstop.com/order","Wingstop Mission Hills Sepulveda Blvd","10374 Sepulveda Blvd","Mission Hills","CA","91345","US","42615","(818) 898-9464","Wingstop","34.2589131","-118.4663938","Fri 10:30-23:00 Sat 10:30-23:00 Sun 10:30-23:00 Mon 10:30-23:00 Tue 10:30-23:00 Wed 10:30-23:00 Thu 10:30-23:00 Fri 10:30-23:00"
"https://www.wingstop.com","https://www.wingstop.com/order","Wingstop West Covina N. Azusa Ave","465 N. Azusa Ave","West Covina","CA","91791","US","34471","(626) 331-9464","Wingstop","34.0784009","-117.9080995","Fri 11:00-midnight Sat 11:00-midnight Sun 11:00-midnight Mon 11:00-midnight Tue 11:00-midnight Wed 11:00-midnight Thu 11:00-midnight Fri 11:00-midnight"
"https://www.wingstop.com","https://www.wingstop.com/order","Wingstop San Fernando Truman St","1101 Truman St, Ste 101","San Fernando","CA","91340","US","15698","(818) 361-9464","Wingstop","34.284319","-118.441003","Fri 11:00-midnight Sat 11:00-midnight Sun 11:00-midnight Mon 11:00-midnight Tue 11:00-midnight Wed 11:00-midnight Thu 11:00-midnight Fri 11:00-midnight"
"https://www.wingstop.com","https://www.wingstop.com/order","Wingstop Long Beach 4th","80 E 4Th St Ste E-120","Long Beach","CA","90802","US","9034","(562) 432-9464","Wingstop","33.771535","-118.1915736","Fri 11:00-03:00 Sat 11:00-03:00 Sun 11:00-midnight Mon 11:00-midnight Tue 11:00-midnight Wed 11:00-midnight Thu 11:00-midnight Fri 11:00-03:00"
"https://www.wingstop.com","https://www.wingstop.com/order","Wingstop La Habra","1211 E La Habra Blvd Ste E","La Habra","CA","90631","US","9250","(562) 694-8000","Wingstop","33.9323372","-117.9322687","Fri 11:00-midnight Sat 11:00-midnight Sun 11:00-midnight Mon 11:00-midnight Tue 11:00-midnight Wed 11:00-midnight Thu 11:00-midnight Fri 11:00-midnight"
"https://www.wingstop.com","https://www.wingstop.com/order","Wingstop Cypress Valley View St","10015 Valley View St","Cypress","CA","90630","US","16874","(714) 220-9464","Wingstop","33.8168203","-118.0295641","Fri 10:30-midnight Sat 10:30-midnight Sun 10:30-midnight Mon 10:30-midnight Tue 10:30-midnight Wed 10:30-midnight Thu 10:30-midnight Fri 10:30-midnight"
"https://www.wingstop.com","https://www.wingstop.com/order","Wingstop Covina N Citrus Ave","1393 N Citrus Ave","Covina","CA","91722","US","9481","(626) 966-9464","Wingstop","34.1054452","-117.8917038","Fri 11:00-midnight Sat 11:00-midnight Sun 11:00-midnight Mon 11:00-midnight Tue 11:00-midnight Wed 11:00-midnight Thu 11:00-midnight Fri 11:00-midnight"
"https://www.wingstop.com","https://www.wingstop.com/order","Wingstop Northridge Reseda Blvd","9041 Reseda Blvd","Northridge","CA","91324","US","9286","(818) 998-9464","Wingstop","34.2348409","-118.5363509","Fri 11:00-23:45 Sat 11:00-23:45 Sun 11:00-22:45 Mon 11:00-22:45 Tue 11:00-22:45 Wed 11:00-22:45 Thu 11:00-22:45 Fri 11:00-23:45"
"https://www.wingstop.com","https://www.wingstop.com/order","Wingstop San Pedro N. Gaffey","114 N Gaffey St","San Pedro","CA","90731","US","20169","(310) 514-9464","Wingstop","33.7436273","-118.2918125","Fri 11:00-midnight Sat 11:00-midnight Sun 11:00-midnight Mon 11:00-midnight Tue 11:00-midnight Wed 11:00-midnight Thu 11:00-midnight Fri 11:00-midnight"
"https://www.wingstop.com","https://www.wingstop.com/order","Wingstop Fullerton","1119 N Harbor Blvd Ste 1101","Fullerton","CA","92832","US","8955","(714) 879-9464","Wingstop","33.8808646","-117.9252119","Fri 10:30-23:45 Sat 10:30-23:45 Sun 10:30-23:45 Mon 10:30-23:45 Tue 10:30-23:45 Wed 10:30-23:45 Thu 10:30-23:45 Fri 10:30-23:45"
"https://www.wingstop.com","https://www.wingstop.com/order","Wingstop Canoga Park De Soto Ave","6844 De Soto Ave","Canoga Park","CA","91303","US","9128","(818) 992-9464","Wingstop","34.1947841","-118.5879596","Fri 11:00-23:45 Sat 11:00-23:45 Sun 11:00-22:45 Mon 11:00-22:45 Tue 11:00-22:45 Wed 11:00-22:45 Thu 11:00-22:45 Fri 11:00-23:45"
"https://www.wingstop.com","https://www.wingstop.com/order","Wingstop Walnut N. Grand Ave","1229 N Grand Ave","Walnut","CA","91789","US","47349","(909) 444-8760","Wingstop","34.0436986","-117.8491808","Fri 10:30-midnight Sat 10:30-midnight Sun 10:30-midnight Mon 10:30-midnight Tue 10:30-midnight Wed 10:30-midnight Thu 10:30-midnight Fri 10:30-midnight"
"https://www.wingstop.com","https://www.wingstop.com/order","Wingstop Anaheim Euclid","1217 S. Euclid St","Anaheim","CA","92802","US","27359","(714) 533-9464","Wingstop","33.8170735","-117.9420129","Fri 10:30-midnight Sat 10:30-midnight Sun 10:30-midnight Mon 10:30-midnight Tue 10:30-midnight Wed 10:30-midnight Thu 10:30-midnight Fri 10:30-midnight"
"https://www.wingstop.com","https://www.wingstop.com/order","Wingstop Glendora","1365 East Gladstone St Ste 100","Glendora","CA","91740","US","9255","(909) 394-9464","Wingstop","34.1163563","-117.8360958","Fri 10:45-23:30 Sat 10:45-23:30 Sun 10:45-23:30 Mon 10:45-23:30 Tue 10:45-23:30 Wed 10:45-23:30 Thu 10:45-23:30 Fri 10:45-23:30"
"https://www.wingstop.com","https://www.wingstop.com/order","Wingstop Fullerton Nutwood Avenue","2736 Nutwood Ave, Ste 105","Fullerton","CA","92831","US","33905","(714) 446-9464","Wingstop","33.8777915","-117.881461","Fri 10:30-midnight Sat 10:30-midnight Sun 10:30-midnight Mon 10:30-midnight Tue 10:30-midnight Wed 10:30-midnight Thu 10:30-midnight Fri 10:30-midnight"
"https://www.wingstop.com","https://www.wingstop.com/order","Wingstop West Hills Vanowen St","22950 Vanowen St. Suite D","West Hills","CA","91307","US","44741","(818) 999-9464","Wingstop","34.1930759","-118.6275274","Fri 11:00-midnight Sat 11:00-midnight Sun 11:00-midnight Mon 11:00-midnight Tue 11:00-midnight Wed 11:00-midnight Thu 11:00-midnight Fri 11:00-midnight"
"https://www.wingstop.com","https://www.wingstop.com/order","Wingstop Garden Grove Chapman Ave.","9737 Chapman Ave","Garden Grove","CA","92841","US","25143","(714) 530-9464","Wingstop","33.7888369","-117.9632955","Fri 10:30-midnight Sat 10:30-midnight Sun 10:30-midnight Mon 10:30-midnight Tue 10:30-midnight Wed 10:30-midnight Thu 10:30-midnight Fri 10:30-midnight"
"https://www.wingstop.com","https://www.wingstop.com/order","Wingstop Placenta E. Imperial Hwy","1093 E. Imperial Hwy.","Placentia","CA","92870","US","75571","(657) 258-1119","Wingstop","33.9058336","-117.8449505","Fri 10:30-midnight Sat 10:30-midnight Sun 10:30-midnight Mon 10:30-midnight Tue 10:30-midnight Wed 10:30-midnight Thu 10:30-midnight Fri 10:30-midnight"
"https://www.wingstop.com","https://www.wingstop.com/order","Wingstop Westminster-Goldenwest St.","15124 Goldenwest St.","Westminster","CA","92683","US","75570","(657) 333-9464","Wingstop","33.7426014","-118.0068713","Fri 10:30-midnight Sat 10:30-midnight Sun 10:30-midnight Mon 10:30-midnight Tue 10:30-midnight Wed 10:30-midnight Thu 10:30-midnight Fri 10:30-midnight"
"https://www.wingstop.com","https://www.wingstop.com/order","Wingstop Pomona Rancho Valley Drive","2063 Rancho Valley Dr Ste 300","Pomona","CA","91766","US","23490","(909) 622-2004","Wingstop","34.0334189","-117.7586859","Fri 11:00-23:45 Sat 11:00-23:45 Sun 11:00-23:45 Mon 11:00-23:45 Tue 11:00-23:45 Wed 11:00-23:45 Thu 11:00-23:45 Fri 11:00-23:45"
"https://www.wingstop.com","https://www.wingstop.com/order","Wingstop La Verne","2369 Foothill Blvd Ste B","La Verne","CA","91750","US","9241","(909) 596-6400","Wingstop","34.1125538","-117.7602982","Fri 11:00-23:00 Sat 11:00-23:00 Sun 11:00-23:00 Mon 11:00-23:00 Tue 11:00-23:00 Wed 11:00-23:00 Thu 11:00-23:00 Fri 11:00-23:00"
"https://www.wingstop.com","https://www.wingstop.com/order","Wingstop Canyon Country","18547 Soledad Canyon Rd","Santa Clarita","CA","91351","US","8983","(661) 251-9700","Wingstop","34.4174506","-118.45691","Fri 11:00-midnight Sat 11:00-midnight Sun 11:00-midnight Mon 11:00-midnight Tue 11:00-midnight Wed 11:00-midnight Thu 11:00-midnight Fri 11:00-midnight"
"https://www.wingstop.com","https://www.wingstop.com/order","Wingstop Santa Ana Mcfadden and S. Harbor Blvd","701 S. Harbor Blvd Ste C","Santa Ana","CA","92704","US","70391","(657) 231-1410","Wingstop","33.7376993","-117.9195452","Fri 10:30-midnight Sat 10:30-midnight Sun 10:30-midnight Mon 10:30-midnight Tue 10:30-midnight Wed 10:30-midnight Thu 10:30-midnight Fri 10:30-midnight"
"https://www.wingstop.com","https://www.wingstop.com/order","Wingstop Fountain Valley Brookhurst St.","17150 Brookhurst St.","Fountain Valley","CA","92708","US","51325","(714) 377-2683","Wingstop","33.7140173","-117.9541436","Fri 10:30-midnight Sat 10:30-midnight Sun 10:30-midnight Mon 10:30-midnight Tue 10:30-midnight Wed 10:30-midnight Thu 10:30-midnight Fri 10:30-midnight"
"https://www.wingstop.com","https://www.wingstop.com/order","Wingstop Orange E Katella Ave","1541 E Katella Ave","Orange","CA","92867","US","9305","(714) 289-9464","Wingstop","33.810058","-117.8369638","Fri 10:30-midnight Sat 10:30-midnight Sun 10:00-midnight Mon 10:30-midnight Tue 10:30-midnight Wed 10:30-midnight Thu 10:30-midnight Fri 10:30-midnight"
"https://www.wingstop.com","https://www.wingstop.com/order","Wingstop Santa Clarita Lyons Ave - Newhall","24180 Lyons Avenue #B","Santa Clarita","CA","91321","US","25149","(661) 222-7900","Wingstop","34.3785304","-118.5576838","Fri 11:00-midnight Sat 11:00-midnight Sun 11:00-midnight Mon 11:00-midnight Tue 11:00-midnight Wed 11:00-midnight Thu 11:00-midnight Fri 11:00-midnight"
"https://www.wingstop.com","https://www.wingstop.com/order","Wingstop Anaheim E. La Palma Ave","5631 E La Palma Ave Ste B","Anaheim","CA","92807","US","40551","(714) 777-9464","Wingstop","33.860672","-117.7922615","Fri 10:30-midnight Sat 10:30-midnight Sun 10:30-midnight Mon 10:30-midnight Tue 10:30-midnight Wed 10:30-midnight Thu 10:30-midnight Fri 10:30-midnight"
"https://www.wingstop.com","https://www.wingstop.com/order","Wingstop Pomona","756 E Arrow Hwy","Pomona","CA","91767","US","8978","(909) 624-9464","Wingstop","34.0897095","-117.737286","Fri 11:00-midnight Sat 11:00-midnight Sun 11:00-22:00 Mon 11:00-midnight Tue 11:00-midnight Wed 11:00-midnight Thu 11:00-midnight Fri 11:00-midnight"
"https://www.wingstop.com","https://www.wingstop.com/order","Wingstop Santa Ana E. 17th St","1302 E 17TH ST STE D","Santa Ana","CA","92705","US","77102","(657) 261-9464","Wingstop","33.7595767","-117.8511674","Fri 10:30-midnight Sat 10:30-midnight Sun 10:30-midnight Mon 10:30-midnight Tue 10:30-midnight Wed 10:30-midnight Thu 10:30-midnight Fri 10:30-midnight"
"https://www.wingstop.com","https://www.wingstop.com/order","Wingstop Saugus","22931 Soledad Canyon Road","Santa Clarita","CA","91350","US","8959","(661) 254-3500","Wingstop","34.422499","-118.537772","Fri 11:00-midnight Sat 11:00-midnight Sun 11:00-midnight Mon 11:00-midnight Tue 11:00-midnight Wed 11:00-midnight Thu 11:00-midnight Fri 11:00-midnight"
"https://www.wingstop.com","https://www.wingstop.com/order","Wingstop Montclair Holt Blvd","4480 Holt Blvd Unit C","Montclair","CA","91763","US","42639","(562) 365-9464","Wingstop","34.063865","-117.707416","Fri 11:00-23:45 Sat 11:00-23:45 Sun 11:00-23:45 Mon 11:00-23:45 Tue 11:00-23:45 Wed 11:00-23:45 Thu 11:00-23:45 Fri 11:00-23:45"
"https://www.wingstop.com","https://www.wingstop.com/order","Wingstop Chino Hills Chino Hills Pkwy","4200 Chino Hills Pkwy Ste 105","Chino Hills","CA","91709","US","9282","(909) 517-2400","Wingstop","33.9837288","-117.7131658","Fri 11:00-midnight Sat 11:00-midnight Sun 11:00-23:00 Mon 11:00-23:00 Tue 11:00-23:00 Wed 11:00-23:00 Thu 11:00-23:00 Fri 11:00-midnight"
"https://www.wingstop.com","https://www.wingstop.com/order","Wingstop Santa Ana MacArthur Blvd and Fariview Blvd","2801 W Macarthur Blvd Ste C","Santa Ana","CA","92704","US","9165","(714) 545-9464","Wingstop","33.7002353","-117.9066996","Fri 10:30-midnight Sat 10:30-midnight Sun 10:30-midnight Mon 10:30-midnight Tue 10:30-midnight Wed 10:30-midnight Thu 10:30-midnight Fri 10:30-midnight"
"https://www.wingstop.com","https://www.wingstop.com/order","Wingstop Simi Valley Tapo Canyon Rd.","2655 Tapo Canyon Rd Ste D","Simi Valley","CA","93063","US","49606","(805) 520-9464","Wingstop","34.2835601","-118.7179484","Fri 11:00-23:00 Sat 11:00-23:00 Sun 11:00-22:00 Mon 11:00-22:00 Tue 11:00-22:00 Wed 11:00-22:00 Thu 11:00-22:00 Fri 11:00-23:00"
"https://www.wingstop.com","https://www.wingstop.com/order","Wingstop Upland Mountain Ave","110 S Mountain Ave Ste B","Upland","CA","91786","US","13666","(909) 931-9464","Wingstop","34.0941278","-117.6696686","Fri 11:00-23:45 Sat 11:00-23:45 Sun 11:00-23:45 Mon 11:00-23:45 Tue 11:00-23:45 Wed 11:00-23:45 Thu 11:00-23:45 Fri 11:00-23:45"
"https://www.wingstop.com","https://www.wingstop.com/order","Wingstop Chicago Harrison","12 E Harrison St","Chicago","IL","60605","US","9125","(312) 386-9464","Wingstop","41.8745371","-87.627028","Fri 11:00-midnight Sat 11:00-midnight Sun 11:00-midnight Mon 11:00-midnight Tue 11:00-midnight Wed 11:00-midnight Thu 11:00-midnight Fri 11:00-midnight"
"https://www.wingstop.com","https://www.wingstop.com/order","Wingstop Chicago W. Roosevelt Rd.","500 W. Roosevelt Rd, Ste 3","Chicago","IL","60607","US","31210","(312) 265-0599","Wingstop","41.8676767","-87.6397291","Fri 11:00-midnight Sat 11:00-midnight Sun 11:00-midnight Mon 11:00-midnight Tue 11:00-midnight Wed 11:00-midnight Thu 11:00-midnight Fri 11:00-midnight"
"https://www.wingstop.com","https://www.wingstop.com/order","Wingstop Chicago Division","47 W Division St","Chicago","IL","60610","US","9053","(312) 465-2369","Wingstop","41.9037698","-87.6304046","Fri 11:00-midnight Sat 11:00-midnight Sun 11:00-midnight Mon 11:00-midnight Tue 11:00-midnight Wed 11:00-midnight Thu 11:00-midnight Fri 11:00-midnight"
"https://www.wingstop.com","https://www.wingstop.com/order","Wingstop Chicago 830 N. Milwaukee Ave","830 N. Milwaukee Ave","Chicago","IL","60642","US","72737","(312) 948-8518","Wingstop","41.8967894","-87.6567628","Fri 11:00-midnight Sat 11:00-midnight Sun 11:00-midnight Mon 11:00-midnight Tue 11:00-midnight Wed 11:00-midnight Thu 11:00-midnight Fri 11:00-midnight"
"https://www.wingstop.com","https://www.wingstop.com/order","Wingstop Chicago S Halsted","3032 S Halsted St.","Chicago","IL","60608","US","9482","(312) 374-1338","Wingstop","41.8387461","-87.6466889","Fri 11:00-midnight Sat 11:00-midnight Sun 11:00-midnight Mon 11:00-midnight Tue 11:00-midnight Wed 11:00-midnight Thu 11:00-midnight Fri 11:00-midnight"
"https://www.wingstop.com","https://www.wingstop.com/order","Wingstop Chicago E. 35th Street","456 E 35th St","Chicago","IL","60616","US","65326","(312) 842-6544","Wingstop","41.8315494","-87.6147363","Fri 11:00-midnight Sat 11:00-midnight Sun 11:00-midnight Mon 11:00-midnight Tue 11:00-midnight Wed 11:00-midnight Thu 11:00-midnight Fri 11:00-midnight"
"https://www.wingstop.com","https://www.wingstop.com/order","Wingstop Chicago West Cermak","2344 W Cermak Rd","Chicago","IL","60608","US","24446","(773) 940-1200","Wingstop","41.8523828","-87.6850089","Fri 11:00-midnight Sat 11:00-midnight Sun 11:00-midnight Mon 11:00-midnight Tue 11:00-midnight Wed 11:00-midnight Thu 11:00-midnight Fri 11:00-midnight"
"https://www.wingstop.com","https://www.wingstop.com/order","Wingstop Chicago N. Milwaukee","1637 North Milwaukee Ave","Chicago","IL","60647","US","8927","(773) 235-9464","Wingstop","41.9113352","-87.6784931","Fri 11:00-midnight Sat 11:00-midnight Sun 11:00-midnight Mon 11:00-midnight Tue 11:00-midnight Wed 11:00-midnight Thu 11:00-midnight Fri 11:00-midnight"
"https://www.wingstop.com","https://www.wingstop.com/order","Wingstop Chicago Clark Street","2634 Clark St","Chicago","IL","60614","US","9065","(773) 904-8172","Wingstop","41.9304951","-87.6440712","Fri 11:00-midnight Sat 11:00-midnight Sun 11:00-midnight Mon 11:00-midnight Tue 11:00-midnight Wed 11:00-midnight Thu 11:00-midnight Fri 11:00-midnight"
"https://www.wingstop.com","https://www.wingstop.com/order","Wingstop Chicago N. Kedzie Ave","800 N. Kedzie Ave, Ste 108","Chicago","IL","60651","US","33908","(773) 475-7447","Wingstop","41.8966026","-87.7079381","Fri 10:45-23:45 Sat 10:45-23:45 Sun 10:45-23:45 Mon 10:45-23:45 Tue 10:45-23:45 Wed 10:45-23:45 Thu 10:45-23:45 Fri 10:45-23:45"
"https://www.wingstop.com","https://www.wingstop.com/order","Wingstop Chicago Lakeshore Shopping Center","3720 N. Broadway St","Chicago","IL","60613","US","46292","(773) 661-6551","Wingstop","41.9496879","-87.649083","Fri 11:00-midnight Sat 11:00-midnight Sun 11:00-midnight Mon 11:00-midnight Tue 11:00-midnight Wed 11:00-midnight Thu 11:00-midnight Fri 11:00-midnight"
"https://www.wingstop.com","https://www.wingstop.com/order","Wingstop Chicago Western Ave [Roscoe Village]","3326 N Western Ave","Chicago","IL","60618","US","8985","(773) 697-0009","Wingstop","41.9424388","-87.6899609","Fri 10:00-midnight Sat 11:00-midnight Sun 11:00-midnight Mon 10:00-midnight Tue 10:00-midnight Wed 10:00-midnight Thu 10:00-midnight Fri 10:00-midnight"
"https://www.wingstop.com","https://www.wingstop.com/order","Wingstop Chicago W North Ave","4430 W North Ave","Chicago","IL","60639","US","9470","(773) 697-3633","Wingstop","41.9099243","-87.737272","Fri 11:00-midnight Sat 11:00-midnight Sun 11:00-midnight Mon 11:00-midnight Tue 11:00-midnight Wed 11:00-midnight Thu 11:00-midnight Fri 11:00-midnight"
"https://www.wingstop.com","https://www.wingstop.com/order","Wingstop CHICAGO W. Wilson Ave [Uptown]","4547 N. Broadway St","Chicago","IL","60640","US","70279","(773) 506-0388","Wingstop","41.9650237","-87.6568643","Fri 11:00-midnight Sat 11:00-midnight Sun 11:00-midnight Mon 11:00-midnight Tue 11:00-midnight Wed 11:00-midnight Thu 11:00-midnight Fri 11:00-midnight"
"https://www.wingstop.com","https://www.wingstop.com/order","Wingstop Cicero Cicero Ave","2240 S Cicero Ave","Cicero","IL","60804","US","9082","(708) 477-6809","Wingstop","41.8501914","-87.7446806","Fri 11:00-midnight Sat 11:00-midnight Sun 11:00-midnight Mon 11:00-midnight Tue 11:00-midnight Wed 11:00-midnight Thu 11:00-midnight Fri 11:00-midnight"
"https://www.wingstop.com","https://www.wingstop.com/order","Wingstop Chicago N Pulaski","3057 N Pulaski Rd","Chicago","IL","60641","US","9092","(773) 647-1755","Wingstop","41.93711","-87.7267083","Fri 11:00-midnight Sat 11:00-midnight Sun 11:00-midnight Mon 11:00-midnight Tue 11:00-midnight Wed 11:00-midnight Thu 11:00-midnight Fri 11:00-midnight"
"https://www.wingstop.com","https://www.wingstop.com/order","Wingstop Chicago S Pulaski","4428 S Pulaski Rd","Chicago","IL","60632","US","9139","(773) 847-4747","Wingstop","41.8124993","-87.7242265","Fri 11:00-midnight Sat 11:00-midnight Sun 11:00-midnight Mon 11:00-midnight Tue 11:00-midnight Wed 11:00-midnight Thu 11:00-midnight Fri 11:00-midnight"
"https://www.wingstop.com","https://www.wingstop.com/order","Wingstop Chicago W. 63rd St","850 W. 63rd St.","Chicago","IL","60621","US","35426","(773) 723-9464","Wingstop","41.7802361","-87.6470912","Fri 11:00-midnight Sat 11:00-midnight Sun 11:00-midnight Mon 11:00-midnight Tue 11:00-midnight Wed 11:00-midnight Thu 11:00-midnight Fri 11:00-midnight"
"https://www.wingstop.com","https://www.wingstop.com/order","Wingstop Chicago S Kedzie Ave","5859 S Kedzie Ave","Chicago","IL","60629","US","16869","(773) 498-9140","Wingstop","41.786453","-87.702933","Fri 11:00-midnight Sat 11:00-midnight Sun 11:00-midnight Mon 11:00-midnight Tue 11:00-midnight Wed 11:00-midnight Thu 11:00-midnight Fri 11:00-midnight"
"https://www.wingstop.com","https://www.wingstop.com/order","Wingstop Chicago Albany Square","4445 N. Pulaski Rd","Chicago","IL","60630","US","32824","(872) 208-3346","Wingstop","41.9619562","-87.7274669","Fri 11:00-midnight Sat 11:00-midnight Sun 11:00-midnight Mon 11:00-midnight Tue 11:00-midnight Wed 11:00-midnight Thu 11:00-midnight Fri 11:00-midnight"
"https://www.wingstop.com","https://www.wingstop.com/order","Wingstop Chicago N. Broadway St [Loyola]","6024 N Broadway St","Chicago","IL","60660","US","47343","(773) 942-6587","Wingstop","41.9915139","-87.6607544","Fri 11:00-midnight Sat 11:00-midnight Sun 11:00-midnight Mon 11:00-midnight Tue 11:00-midnight Wed 11:00-midnight Thu 11:00-midnight Fri 11:00-midnight"
"https://www.wingstop.com","https://www.wingstop.com/order","Wingstop Chicago N. Central Ave","3046 N. Central Ave","Chicago","IL","60634","US","49534","(773) 417-4135","Wingstop","41.9363","-87.766767","Fri 11:00-midnight Sat 11:00-midnight Sun 11:00-midnight Mon 11:00-midnight Tue 11:00-midnight Wed 11:00-midnight Thu 11:00-midnight Fri 11:00-midnight"
"https://www.wingstop.com","https://www.wingstop.com/order","Wingstop Forest Park Harlem Ave.","1215 Harlem Avenue","Forest Park","IL","60130","US","24119","(708) 689-8060","Wingstop","41.8641853","-87.8046375","Fri 11:00-midnight Sat 11:00-midnight Sun 11:00-midnight Mon 11:00-midnight Tue 11:00-midnight Wed 11:00-midnight Thu 11:00-midnight Fri 11:00-midnight"
"https://www.wingstop.com","https://www.wingstop.com/order","Wingstop Chicago Lincoln Ave","6160 N Lincoln Ave","Chicago","IL","60659","US","9197","(872) 203-9721","Wingstop","41.9938666","-87.7135796","Fri 11:00-midnight Sat 11:00-midnight Sun 11:00-midnight Mon 11:00-midnight Tue 11:00-midnight Wed 11:00-midnight Thu 11:00-midnight Fri 11:00-midnight"
"https://www.wingstop.com","https://www.wingstop.com/order","Wingstop Elmwood park","1740 Harlem ave","Elmwood Park","IL","60707","US","8787","(708) 452-1010","Wingstop","41.9115361","-87.8062794","Fri 11:00-01:00 Sat 11:00-01:00 Sun 11:00-01:00 Mon 11:00-01:00 Tue 11:00-01:00 Wed 11:00-01:00 Thu 11:00-01:00 Fri 11:00-01:00"
"https://www.wingstop.com","https://www.wingstop.com/order","Wingstop Chicago Archer Ave","6188 S Archer Ave","Chicago","IL","60638","US","9270","(773) 498-9464","Wingstop","41.7942868","-87.7737582","Fri 11:00-midnight Sat 11:00-midnight Sun 11:00-midnight Mon 11:00-midnight Tue 11:00-midnight Wed 11:00-midnight Thu 11:00-midnight Fri 11:00-midnight"
"https://www.wingstop.com","https://www.wingstop.com/order","Wingstop Lyons Harlem Ave","3900B Harlem Ave","Lyons","IL","60534","US","9310","(708) 777-1382","Wingstop","41.8209915","-87.8027656","Fri 11:00-midnight Sat 11:00-midnight Sun 11:00-midnight Mon 11:00-midnight Tue 11:00-midnight Wed 11:00-midnight Thu 11:00-midnight Fri 11:00-midnight"
"https://www.wingstop.com","https://www.wingstop.com/order","Wingstop 87th & Stoney Island","1521 E. 87th St.","Chicago","IL","60619","US","41574","(773) 530-7710","Wingstop","41.7365401","-87.5872311","Fri 11:00-midnight Sat 11:00-midnight Sun 11:00-midnight Mon 11:00-midnight Tue 11:00-midnight Wed 11:00-midnight Thu 11:00-midnight Fri 11:00-midnight"
"https://www.wingstop.com","https://www.wingstop.com/order","Wingstop Chicago S. Cicero Ave.","7953 S. Cicero Ave","Chicago","IL","60652","US","44716","(773) 838-9464","Wingstop","41.7478326","-87.7407784","Fri 11:00-midnight Sat 11:00-midnight Sun 11:00-midnight Mon 11:00-midnight Tue 11:00-midnight Wed 11:00-midnight Thu 11:00-midnight Fri 11:00-midnight"
"https://www.wingstop.com","https://www.wingstop.com/order","Wingstop Harwood Heights Harlem Ave","4622 N Harlem Ave","Harwood Heights","IL","60706","US","15701","(708) 667-0761","Wingstop","41.9645787","-87.807943","Fri 11:00-midnight Sat 11:00-midnight Sun 11:00-midnight Mon 11:00-midnight Tue 11:00-midnight Wed 11:00-midnight Thu 11:00-midnight Fri 11:00-midnight"
"https://www.wingstop.com","https://www.wingstop.com/order","Wingstop Evergreen Park W 95th St","2831 W. 95th St","Evergreen Park","IL","60805","US","15696","(708) 425-9464","Wingstop","41.7204135","-87.6932968","Fri 11:00-midnight Sat 11:00-midnight Sun 11:00-midnight Mon 11:00-midnight Tue 11:00-midnight Wed 11:00-midnight Thu 11:00-midnight Fri 11:00-midnight"
"https://www.wingstop.com","https://www.wingstop.com/order","Wingstop Evanston","2434 Main St Ste F","Evanston","IL","60202","US","9248","(847) 869-9464","Wingstop","42.0330249","-87.7068715","Fri 11:00-23:00 Sat 11:00-23:00 Sun 11:00-23:00 Mon 11:00-23:00 Tue 11:00-23:00 Wed 11:00-23:00 Thu 11:00-23:00 Fri 11:00-23:00"
"https://www.wingstop.com","https://www.wingstop.com/order","Wingstop Melrose Park Winston Plaza","1372 Winston Plaza","Melrose Park","IL","60160","US","24439","(708) 681-2020","Wingstop","41.9075994","-87.8506075","Fri 11:00-01:00 Sat 11:00-01:00 Sun 11:00-01:00 Mon 11:00-01:00 Tue 11:00-01:00 Wed 11:00-01:00 Thu 11:00-01:00 Fri 11:00-01:00"
"https://www.wingstop.com","https://www.wingstop.com/order","Wingstop Niles West Touhy Ave.","5706 W Touhy Ave Ste A-2","Niles","IL","60714","US","9146","(847) 647-9464","Wingstop","42.0125575","-87.7709967","Fri 11:00-midnight Sat 11:00-midnight Sun 11:00-midnight Mon 11:00-midnight Tue 11:00-midnight Wed 11:00-midnight Thu 11:00-midnight Fri 11:00-midnight"
"https://www.wingstop.com","https://www.wingstop.com/order","Wingstop Hillside Mannheim Rd.","50 N Mannheim Rd Unit J02","Hillside","IL","60162","US","9062","(708) 544-9464","Wingstop","41.8910328","-87.8838752","Fri 11:00-01:00 Sat 11:00-midnight Sun 11:00-midnight Mon 11:00-midnight Tue 11:00-midnight Wed 11:00-midnight Thu 11:00-midnight Fri 11:00-01:00"
"https://www.wingstop.com","https://www.wingstop.com/order","Wingstop Hammond Roby Dr.","902 Roby Drive Ste C","Hammond","IN","46320","US","50426","(219) 473-0773","Wingstop","41.695703","-87.518439","Fri 11:00-midnight Sat 11:00-midnight Sun 11:00-midnight Mon 11:00-midnight Tue 11:00-midnight Wed 11:00-midnight Thu 11:00-midnight Fri 11:00-midnight"
"https://www.wingstop.com","https://www.wingstop.com/order","Wingstop Chicago W 119th St","1712 W 119Th St","Chicago","IL","60643","US","9209","(773) 928-9464","Wingstop","41.6777459","-87.6647595","Fri 11:00-midnight Sat 11:00-midnight Sun 11:00-midnight Mon 11:00-midnight Tue 11:00-midnight Wed 11:00-midnight Thu 11:00-midnight Fri 11:00-midnight"
"https://www.wingstop.com","https://www.wingstop.com/order","Wingstop Northlake","6 North Avenue #200","Northlake","IL","60164","US","9110","(708) 531-1515","Wingstop","41.907553","-87.90388","Fri 11:00-01:00 Sat 11:00-01:00 Sun 11:00-01:00 Mon 11:00-01:00 Tue 11:00-01:00 Wed 11:00-01:00 Thu 11:00-01:00 Fri 11:00-01:00"
"https://www.wingstop.com","https://www.wingstop.com/order","Wingstop Niles W Golf Rd","8484 W Golf Rd","Niles","IL","60714","US","15893","(847) 966-9464","Wingstop","42.0550915","-87.8352894","Fri 11:00-midnight Sat 11:00-midnight Sun 11:00-midnight Mon 11:00-midnight Tue 11:00-midnight Wed 11:00-midnight Thu 11:00-midnight Fri 11:00-midnight"
"https://www.wingstop.com","https://www.wingstop.com/order","Wingstop Crestwood S Cicero Ave","13211 S Cicero Ave","Crestwood","IL","60445","US","9198","(708) 385-9464","Wingstop","41.6519102","-87.73748","Fri 11:00-midnight Sat 11:00-midnight Sun 11:00-midnight Mon 11:00-midnight Tue 11:00-midnight Wed 11:00-midnight Thu 11:00-midnight Fri 11:00-midnight"
"https://www.wingstop.com","https://www.wingstop.com/order","Wingstop South Holland State Street","16144 State St","South Holland","IL","60473","US","9140","(708) 825-1656","Wingstop","41.6298989","-87.6220509","Fri 11:00-midnight Sat 11:00-midnight Sun 11:00-23:00 Mon 11:00-midnight Tue 11:00-midnight Wed 11:00-midnight Thu 11:00-midnight Fri 11:00-midnight"
"https://www.wingstop.com","https://www.wingstop.com/order","Wingstop Des Plaines Ellinwood Dr","1473 Ellinwood Dr","Des Plaines","IL","60016","US","9097","(847) 699-9464","Wingstop","42.04066","-87.8875826","Fri 11:00-23:45 Sat 11:00-23:45 Sun 11:00-23:45 Mon 11:00-23:45 Tue 11:00-23:45 Wed 11:00-23:45 Thu 11:00-23:45 Fri 11:00-23:45"
"https://www.wingstop.com","https://www.wingstop.com/order","Wingstop Oakbrook Terrace Roosevelt Rd","17W629 Roosevelt Rd","Oakbrook Terrace","IL","60181","US","9061","(630) 632-9464","Wingstop","41.860132","-87.973662","Fri 11:00-midnight Sat 11:00-midnight Sun 11:00-midnight Mon 11:00-midnight Tue 11:00-midnight Wed 11:00-midnight Thu 11:00-midnight Fri 11:00-midnight"
"https://www.wingstop.com","https://www.wingstop.com/order","Wingstop Addison Rohlwing Rd","1076 N Rohlwing Rd","Addison","IL","60101","US","16488","(630) 705-9464","Wingstop","41.9496094","-88.0322964","Fri 11:00-23:30 Sat 11:00-23:30 Sun 11:00-23:15 Mon 11:00-23:15 Tue 11:00-23:15 Wed 11:00-23:30 Thu 11:00-23:30 Fri 11:00-23:30"
"https://www.wingstop.com","https://www.wingstop.com/order","Wingstop Lansing","17707 Torrence Ave","Lansing","IL","60438","US","9008","(708) 418-8880","Wingstop","41.5733384","-87.5582248","Fri 11:00-midnight Sat 11:00-midnight Sun 11:00-midnight Mon 11:00-midnight Tue 11:00-midnight Wed 11:00-midnight Thu 11:00-midnight Fri 11:00-midnight"
"https://www.wingstop.com","https://www.wingstop.com/order","Wingstop Bolingbrook Bolingbrook Dr","301 N Bolingbrook Dr.","Bolingbrook","IL","60440","US","13709","(630) 759-9464","Wingstop","41.7051471","-88.0691383","Fri 11:00-23:45 Sat 11:00-23:45 Sun 11:00-23:45 Mon 11:00-23:45 Tue 11:00-23:45 Wed 11:00-23:45 Thu 11:00-23:45 Fri 11:00-23:45"
"https://www.wingstop.com","https://www.wingstop.com/order","Wingstop Roselle","1306 W Lake St Ste 414","Roselle","IL","60172","US","8904","(630) 529-5700","Wingstop","41.9693306","-88.1135102","Fri 11:00-midnight Sat 11:00-midnight Sun 11:00-23:00 Mon 11:00-23:00 Tue 11:00-23:00 Wed 11:00-23:00 Thu 11:00-23:00 Fri 11:00-midnight"
"https://www.wingstop.com","https://www.wingstop.com/order","Wingstop Highland Indianapolis Blvd","10435-B Indianapolis Blvd","Highland","IN","46322","US","25723","(219) 924-9464","Wingstop","41.5243263","-87.470361","Fri 11:00-midnight Sat 11:00-midnight Sun 11:00-midnight Mon 11:00-midnight Tue 11:00-midnight Wed 11:00-midnight Thu 11:00-midnight Fri 11:00-midnight"
"https://www.wingstop.com","https://www.wingstop.com/order","Wingstop Matteson Lincoln Hwy","4630 Lincoln Hwy","Matteson","IL","60443","US","9184","(708) 247-9464","Wingstop","41.5067813","-87.7291514","Fri 11:00-midnight Sat 11:00-midnight Sun 11:00-midnight Mon 11:00-midnight Tue 11:00-midnight Wed 11:00-midnight Thu 11:00-midnight Fri 11:00-midnight"
"https://www.wingstop.com","https://www.wingstop.com/order","Wingstop Gary Grant St","3360 Grant St.","Gary","IN","46408","US","47401","(219) 980-3590","Wingstop","41.5572076","-87.3563725","Fri 11:00-midnight Sat 11:00-midnight Sun 11:00-midnight Mon 11:00-midnight Tue 11:00-midnight Wed 11:00-midnight Thu 11:00-midnight Fri 11:00-midnight"
"https://www.wingstop.com","https://www.wingstop.com/order","Wingstop Carol Stream","566 W Army Trail Road","Carol Stream","IL","60188","US","8947","(630) 690-9464","Wingstop","41.9393309","-88.1385791","Fri 11:00-midnight Sat 11:00-midnight Sun 11:00-23:00 Mon 11:00-23:00 Tue 11:00-23:00 Wed 11:00-23:00 Thu 11:00-23:00 Fri 11:00-midnight"
"https://www.wingstop.com","https://www.wingstop.com/order","Wingstop Palatine E Dundee Rd","1191 E Dundee Rd","Palatine","IL","60074","US","9465","(847) 963-9464","Wingstop","42.1379739","-88.0150342","Fri 11:00-midnight Sat 11:00-midnight Sun 11:00-midnight Mon 11:00-midnight Tue 11:00-midnight Wed 11:00-midnight Thu 11:00-midnight Fri 11:00-midnight"
"https://www.wingstop.com","https://www.wingstop.com/order","Wingstop Streamwood S. Barrington Rd","698A S. Barrington Rd","Streamwood","IL","60107","US","75398","(847) 450-7377","Wingstop","42.019319","-88.1453887","Fri 11:00-midnight Sat 11:00-midnight Sun 11:00-midnight Mon 11:00-midnight Tue 11:00-midnight Wed 11:00-midnight Thu 11:00-midnight Fri 11:00-midnight"
"https://www.wingstop.com","https://www.wingstop.com/order","Wingstop Hobart E. 37th Ave","1619 E. 37th Ave","Hobart","IN","46342","US","64238","(219) 963-6250","Wingstop","41.550157","-87.2393443","Fri 11:00-midnight Sat 11:00-midnight Sun 11:00-midnight Mon 11:00-midnight Tue 11:00-midnight Wed 11:00-midnight Thu 11:00-midnight Fri 11:00-midnight"
"https://www.wingstop.com","https://www.wingstop.com/order","Wingstop Naperville Forgue","2695 Forgue Dr Ste 101","Naperville","IL","60564","US","8923","(630) 717-9464","Wingstop","41.7159619","-88.2052567","Fri 11:00-midnight Sat 11:00-midnight Sun 11:00-23:00 Mon 11:00-23:00 Tue 11:00-23:00 Wed 11:00-23:00 Thu 11:00-23:00 Fri 11:00-midnight"
"https://www.wingstop.com","https://www.wingstop.com/order","Wingstop Merrillville W. 81st Ave","407 W. 81st Ave","Merrillville","IN","46410","US","64141","(219) 472-0064","Wingstop","41.470109","-87.3409401","Fri 11:00-midnight Sat 11:00-midnight Sun 11:00-midnight Mon 11:00-midnight Tue 11:00-midnight Wed 11:00-midnight Thu 11:00-midnight Fri 11:00-midnight"
"https://www.wingstop.com","https://www.wingstop.com/order","Wingstop Aurora Eola","444 N Eola Rd Ste 102","Aurora","IL","60502","US","9112","(630) 898-9464","Wingstop","41.7608864","-88.244369","Fri 11:00-midnight Sat 11:00-midnight Sun 11:00-23:00 Mon 11:00-23:00 Tue 11:00-23:00 Wed 11:00-23:00 Thu 11:00-23:00 Fri 11:00-midnight"
"https://www.wingstop.com","https://www.wingstop.com/order","Wingstop Mundelein S IL Rt 83","720 S Il Route 83","Mundelein","IL","60060","US","9176","(847) 566-9464","Wingstop","42.2531692","-88.0200854","Fri 11:00-23:00 Sat 11:00-23:00 Sun 11:00-23:00 Mon 11:00-23:00 Tue 11:00-23:00 Wed 11:00-23:00 Thu 11:00-23:00 Fri 11:00-23:00"
"https://www.wingstop.com","https://www.wingstop.com/order","Wingstop Aurora N Lake St","1261 N Lake St","Aurora","IL","60506","US","9217","(630) 844-9464","Wingstop","41.7834272","-88.317629","Fri 11:00-midnight Sat 11:00-midnight Sun 11:00-midnight Mon 11:00-midnight Tue 11:00-midnight Wed 11:00-midnight Thu 11:00-midnight Fri 11:00-midnight"
"https://www.wingstop.com","https://www.wingstop.com/order","Wingstop Joliet W. Jefferson St.","2410 W Jefferson Street, Ste 116","Joliet","IL","60435","US","24117","(815) 630-3760","Wingstop","41.5216363","-88.142268","Fri 11:00-midnight Sat 11:00-midnight Sun 11:00-midnight Mon 11:00-midnight Tue 11:00-midnight Wed 11:00-midnight Thu 11:00-midnight Fri 11:00-midnight"
"https://www.wingstop.com","https://www.wingstop.com/order","Wingstop Carpentersville JF Kennedy Dr.","70 S. Kennedy Dr.","Carpentersville","IL","60110","US","59537","(847) 551-5628","Wingstop","42.1196807","-88.2586201","Fri 11:00-midnight Sat 11:00-midnight Sun 11:00-midnight Mon 11:00-midnight Tue 11:00-midnight Wed 11:00-midnight Thu 11:00-midnight Fri 11:00-midnight"
"https://www.wingstop.com","https://www.wingstop.com/order","Wingstop Waukegan N Lewis Ave","1800-1808 N. Lewis Ave","Waukegan","IL","60085","US","40552","(847) 360-9464","Wingstop","42.384599","-87.8560637","Fri 11:00-midnight Sat 11:00-midnight Sun 11:00-midnight Mon 11:00-midnight Tue 11:00-midnight Wed 11:00-midnight Thu 11:00-midnight Fri 11:00-midnight"
"https://www.wingstop.com","https://www.wingstop.com/order","Wingstop Elgin Randall Rd","855 S Randall Rd","Elgin","IL","60123","US","9187","(847) 695-9464","Wingstop","42.008629","-88.335275","Fri 11:00-midnight Sat 11:00-midnight Sun 11:00-midnight Mon 11:00-midnight Tue 11:00-midnight Wed 11:00-midnight Thu 11:00-midnight Fri 11:00-midnight"
"https://www.wingstop.com","https://www.wingstop.com/order","Wingstop Gurnee Grand Ave","6409 Grand Ave. Ste. 3","Gurnee","IL","60031","US","82091","(847) 499-2600","Wingstop","42.3830909","-87.9623482","Fri 11:00-midnight Sat 11:00-midnight Sun 11:00-midnight Mon 11:00-midnight Tue 11:00-midnight Wed 11:00-midnight Thu 11:00-midnight Fri 11:00-midnight"
"https://www.wingstop.com","https://www.wingstop.com/order","Wingstop Round Lake Beach","708 E. Rollins Rd.","Round Lake Beach","IL","60073","US","66563","(224) 757-5152","Wingstop","42.3795058","-88.0671058","Fri 11:00-midnight Sat 11:00-midnight Sun 11:00-midnight Mon 11:00-midnight Tue 11:00-midnight Wed 11:00-midnight Thu 11:00-midnight Fri 11:00-midnight"
"https://www.wingstop.com","https://www.wingstop.com/order","Wingstop Kenosha","5901 75th St., Ste. 150","Kenosha","WI","53142","US","9028","(262) 697-8900","Wingstop","42.5658171","-87.8788711","Fri 11:00-midnight Sat 11:00-midnight Sun 11:00-23:00 Mon 11:00-23:00 Tue 11:00-23:00 Wed 11:00-23:00 Thu 11:00-23:00 Fri 11:00-midnight"
"https://www.wingstop.com","https://www.wingstop.com/order","Wingstop Racine Washington Ave","5400 Washington Ave","Racine","WI","53406","US","9180","(262) 770-4280","Wingstop","42.7192608","-87.8446565","Fri 11:00-midnight Sat 11:00-midnight Sun 11:00-midnight Mon 11:00-midnight Tue 11:00-midnight Wed 11:00-midnight Thu 11:00-midnight Fri 11:00-midnight"
"https://www.wingstop.com","https://www.wingstop.com/order","Wingstop Houston Yale - The Heights","174 Yale St Ste 600","Houston","TX","77007","US","9071","(713) 714-8650","Wingstop","29.773657","-95.3982499","Fri 10:30-midnight Sat 11:00-midnight Sun 11:00-midnight Mon 10:30-midnight Tue 10:30-midnight Wed 10:30-midnight Thu 10:30-midnight Fri 10:30-midnight"
"https://www.wingstop.com","https://www.wingstop.com/order","Wingstop Houston Scott Street","3750 Scott St Ste 100","Houston","TX","77004","US","9160","(713) 440-9464","Wingstop","29.7224213","-95.3519854","Fri 10:15-midnight Sat 11:00-midnight Sun 11:00-midnight Mon 10:15-midnight Tue 10:15-midnight Wed 10:15-midnight Thu 10:15-midnight Fri 10:15-midnight"
"https://www.wingstop.com","https://www.wingstop.com/order","Wingstop Houston Harrisburg","6858 Harrisburg Blvd","Houston","TX","77011","US","8836","(713) 926-9464","Wingstop","29.7356541","-95.3051758","Fri 11:00-midnight Sat 11:00-midnight Sun 11:00-23:00 Mon 11:00-23:00 Tue 11:00-23:00 Wed 11:00-23:00 Thu 11:00-23:00 Fri 11:00-midnight"
"https://www.wingstop.com","https://www.wingstop.com/order","Wingstop Houston 6-10 & N. Shepherd","2802 N Shepherd Dr Ste 400","Houston","TX","77008","US","9329","(832) 673-0100","Wingstop","29.81223","-95.4098678","Fri 10:30-midnight Sat 10:30-midnight Sun 10:30-midnight Mon 10:30-midnight Tue 10:30-midnight Wed 10:30-midnight Thu 10:30-midnight Fri 10:30-midnight"
"https://www.wingstop.com","https://www.wingstop.com/order","Wingstop Houston Richmond","4102 Richmond Ave Ste A","Houston","TX","77027","US","9036","(713) 877-9464","Wingstop","29.7330734","-95.4433028","Fri 11:00-23:45 Sat 11:00-23:45 Sun 11:00-22:45 Mon 11:00-22:45 Tue 11:00-22:45 Wed 11:00-22:45 Thu 11:00-22:45 Fri 11:00-23:45"
"https://www.wingstop.com","https://www.wingstop.com/order","Wingstop Houston Cross Timbers","4400 North Freeway #2","Houston","TX","77022","US","32825","(713) 936-9464","Wingstop","29.8294183","-95.3796824","Fri 10:30-midnight Sat 10:30-midnight Sun 10:30-midnight Mon 10:30-midnight Tue 10:30-midnight Wed 10:30-midnight Thu 10:30-midnight Fri 10:30-midnight"
"https://www.wingstop.com","https://www.wingstop.com/order","Wingstop Houston Main","8200 S Main St Ste 800","Houston","TX","77025","US","8977","(713) 661-9464","Wingstop","29.693107","-95.416278","Fri 10:00-midnight Sat 11:00-midnight Sun 11:00-midnight Mon 10:00-midnight Tue 10:00-midnight Wed 10:00-midnight Thu 10:00-midnight Fri 10:00-midnight"
"https://www.wingstop.com","https://www.wingstop.com/order","Wingstop Houston Gulfgate","712 Gulfgate Center Mall","Houston","TX","77087","US","8810","(713) 643-9464","Wingstop","29.6965035","-95.2970703","Fri 10:30-midnight Sat 10:30-midnight Sun 10:30-midnight Mon 10:30-midnight Tue 10:30-midnight Wed 10:30-midnight Thu 10:30-midnight Fri 10:30-midnight"
"https://www.wingstop.com","https://www.wingstop.com/order","Wingstop Houston Wirt","1425 Wirt Rd","Houston","TX","77055","US","8900","(713) 464-9464","Wingstop","29.795637","-95.4854992","Fri 11:00-23:45 Sat 11:00-23:45 Sun 11:00-22:45 Mon 11:00-22:45 Tue 11:00-22:45 Wed 11:00-22:45 Thu 11:00-22:45 Fri 11:00-23:45"
"https://www.wingstop.com","https://www.wingstop.com/order","Wingstop Houston Westheimer","6447 Westheimer Rd","Houston","TX","77057","US","8758","(713) 266-9464","Wingstop","29.7371894","-95.4982443","Fri 11:00-midnight Sat 11:00-midnight Sun 11:00-midnight Mon 11:00-midnight Tue 11:00-midnight Wed 11:00-midnight Thu 11:00-midnight Fri 11:00-midnight"
"https://www.wingstop.com","https://www.wingstop.com/order","Wingstop Houston York Plaza","448D W LITTLE YORK RD","Houston","TX","77076","US","73652","(346) 352-9464","Wingstop","29.8705379","-95.4069631","Fri 10:30-midnight Sat 10:30-midnight Sun 10:30-midnight Mon 10:30-midnight Tue 10:30-midnight Wed 10:30-midnight Thu 10:30-midnight Fri 10:30-midnight"
"https://www.wingstop.com","https://www.wingstop.com/order","Wingstop Houston Broadway","8326 Broadway St","Houston","TX","77061","US","8788","(713) 847-9464","Wingstop","29.6714173","-95.2776119","Fri 10:30-midnight Sat 10:30-midnight Sun 10:30-midnight Mon 10:30-midnight Tue 10:30-midnight Wed 10:30-midnight Thu 10:30-midnight Fri 10:30-midnight"
"https://www.wingstop.com","https://www.wingstop.com/order","Wingstop Houston Post Oak","10273 S Post Oak Rd","Houston","TX","77096","US","8785","(713) 551-9464","Wingstop","29.6708328","-95.4615241","Fri 10:30-midnight Sat 11:00-midnight Sun 11:00-midnight Mon 10:30-midnight Tue 10:30-midnight Wed 10:30-midnight Thu 10:30-midnight Fri 10:30-midnight"
"https://www.wingstop.com","https://www.wingstop.com/order","Wingstop Houston Beechnut at Hillcroft","5621 Beechnut St Ste A","Houston","TX","77096","US","8868","(713) 777-9464","Wingstop","29.688354","-95.4896198","Fri 11:00-midnight Sat 11:00-midnight Sun 11:00-23:00 Mon 11:00-23:00 Tue 11:00-23:00 Wed 11:00-23:00 Thu 11:00-23:00 Fri 11:00-midnight"
"https://www.wingstop.com","https://www.wingstop.com/order","Wingstop Houston Blalock","1049 Blalock Rd","Houston","TX","77055","US","9119","(713) 365-9464","Wingstop","29.7858179","-95.5216865","Fri 10:30-midnight Sat 10:30-midnight Sun 10:30-midnight Mon 10:30-midnight Tue 10:30-midnight Wed 10:30-midnight Thu 10:30-midnight Fri 10:30-midnight"
"https://www.wingstop.com","https://www.wingstop.com/order","Wingstop Antoine & Victory","7332 Antoine Dr","Houston","TX","77088","US","8780","(281) 820-5000","Wingstop","29.8683141","-95.4714531","Fri 11:00-midnight Sat 11:00-midnight Sun 11:00-midnight Mon 11:00-midnight Tue 11:00-midnight Wed 11:00-midnight Thu 11:00-midnight Fri 11:00-midnight"
"https://www.wingstop.com","https://www.wingstop.com/order","Wingstop Houston Woodforest","12620 Woodforest Blvd Ste 470","Houston","TX","77015","US","8743","(713) 453-5200","Wingstop","29.7899423","-95.200915","Fri 11:00-midnight Sat 11:00-midnight Sun 11:00-midnight Mon 11:00-23:00 Tue 11:00-23:00 Wed 11:00-23:00 Thu 11:00-midnight Fri 11:00-midnight"
"https://www.wingstop.com","https://www.wingstop.com/order","Wingstop Houston Aldine Mail Route","5228 Aldine Mail Route","Houston","TX","77039","US","9276","(281) 219-9464","Wingstop","29.9019223","-95.3138753","Fri 11:00-midnight Sat 11:00-midnight Sun 11:00-midnight Mon 11:00-midnight Tue 11:00-midnight Wed 11:00-midnight Thu 11:00-midnight Fri 11:00-midnight"
"https://www.wingstop.com","https://www.wingstop.com/order","Wingstop Pasadena Southmore","114B W Southmore Ave","Pasadena","TX","77502","US","8838","(713) 472-9464","Wingstop","29.6913514","-95.2129346","Fri 11:00-midnight Sat 11:00-midnight Sun 11:00-midnight Mon 11:00-midnight Tue 11:00-midnight Wed 11:00-midnight Thu 11:00-midnight Fri 11:00-midnight"
"https://www.wingstop.com","https://www.wingstop.com/order","Wingstop Houston W. Bellfort St","7576 W. Bellfort St.","Houston","TX","77071","US","75509","(832) 862-9464","Wingstop","29.6563772","-95.5102544","Fri 10:30-midnight Sat 10:30-midnight Sun 10:30-midnight Mon 10:30-midnight Tue 10:30-midnight Wed 10:30-midnight Thu 10:30-midnight Fri 10:30-midnight"
"https://www.wingstop.com","https://www.wingstop.com/order","Wingstop Houston North Freeway","10749 North Freeway","Houston","TX","77037","US","9318","(281) 448-9464","Wingstop","29.9167283","-95.4127599","Fri 10:30-midnight Sat 10:30-midnight Sun 10:30-midnight Mon 10:30-midnight Tue 10:30-midnight Wed 10:30-midnight Thu 10:30-midnight Fri 10:30-midnight"
"https://www.wingstop.com","https://www.wingstop.com/order","Wingstop Houston Edgebrook Dr.","1167 Edgebrook Dr.","Houston","TX","77034","US","70384","(832) 930-9464","Wingstop","29.6431295","-95.2425219","Fri 10:30-midnight Sat 10:30-midnight Sun 10:30-midnight Mon 10:30-midnight Tue 10:30-midnight Wed 10:30-midnight Thu 10:30-midnight Fri 10:30-midnight"
"https://www.wingstop.com","https://www.wingstop.com/order","Wingstop Houston Northwest Frwy","14163 Northwest Fwy Ste S","Houston","TX","77040","US","16879","(713) 460-9464","Wingstop","29.8590371","-95.5238684","Fri 10:30-midnight Sat 10:30-midnight Sun 10:30-midnight Mon 10:30-midnight Tue 10:30-midnight Wed 10:30-midnight Thu 10:30-midnight Fri 10:30-midnight"
"https://www.wingstop.com","https://www.wingstop.com/order","Wingstop Houston Hwy 249","12430 State Highway 249 Ste B","Houston","TX","77086","US","8764","(281) 820-9464","Wingstop","29.9107311","-95.4792145","Fri 11:00-23:30 Sat 11:00-23:30 Sun 11:00-23:30 Mon 11:00-23:30 Tue 11:00-23:30 Wed 11:00-23:30 Thu 11:00-23:30 Fri 11:00-23:30"
"https://www.wingstop.com","https://www.wingstop.com/order","Wingstop Houston Beechnut at Beltway 8","10100 Beechnut St Ste 180","Houston","TX","77072","US","8759","(281) 564-9464","Wingstop","29.6906353","-95.5599234","Fri 11:00-midnight Sat 11:00-midnight Sun 11:00-midnight Mon 11:00-midnight Tue 11:00-midnight Wed 11:00-midnight Thu 11:00-midnight Fri 11:00-midnight"
"https://www.wingstop.com","https://www.wingstop.com/order","Wingstop Pearland Shadow Creek Parkway","11037 Shadow Creek Pkwy Ste 109","Pearland","TX","77584","US","9144","(713) 436-9808","Wingstop","29.580905","-95.3908876","Fri 10:30-midnight Sat 10:30-midnight Sun 10:30-midnight Mon 10:30-midnight Tue 10:30-midnight Wed 10:30-midnight Thu 10:30-midnight Fri 10:30-midnight"
"https://www.wingstop.com","https://www.wingstop.com/order","Wingstop Houston Wallisville","15242 Wallisville Rd","Houston","TX","77049","US","9024","(713) 455-9464","Wingstop","29.8066472","-95.1680122","Fri 10:30-midnight Sat 11:00-midnight Sun 11:00-midnight Mon 10:30-midnight Tue 10:30-midnight Wed 10:30-midnight Thu 10:30-midnight Fri 10:30-midnight"
"https://www.wingstop.com","https://www.wingstop.com/order","Wingstop Pasadena Spencer","3437 Spencer Hwy","Pasadena","TX","77504","US","8783","(713) 941-9464","Wingstop","29.665778","-95.1902199","Fri 11:00-midnight Sat 11:00-midnight Sun 11:00-midnight Mon 11:00-midnight Tue 11:00-midnight Wed 11:00-midnight Thu 11:00-midnight Fri 11:00-midnight"
"https://www.wingstop.com","https://www.wingstop.com/order","Wingstop Houston Kirkwood","2319 S Kirkwood Rd","Houston","TX","77077","US","8717","(281) 679-9464","Wingstop","29.7401936","-95.5882117","Fri 10:30-midnight Sat 10:30-midnight Sun 10:30-midnight Mon 10:30-midnight Tue 10:30-midnight Wed 10:30-midnight Thu 10:30-midnight Fri 10:30-midnight"
"https://www.wingstop.com","https://www.wingstop.com/order","Wingstop Houston Fuqua","11009 Fuqua St","Houston","TX","77089","US","8786","(713) 946-9464","Wingstop","29.6132087","-95.2230587","Fri 11:00-23:30 Sat 11:00-23:30 Sun 11:00-23:30 Mon 11:00-23:30 Tue 11:00-23:30 Wed 11:00-23:30 Thu 11:00-23:30 Fri 11:00-23:30"
"https://www.wingstop.com","https://www.wingstop.com/order","Wingstop Pearland Broadway","8321 Broadway St Ste 104","Pearland","TX","77581","US","8774","(281) 412-7330","Wingstop","29.5604531","-95.3498692","Fri 11:00-midnight Sat 11:00-midnight Sun 11:00-23:00 Mon 11:00-23:00 Tue 11:00-23:00 Wed 11:00-23:00 Thu 11:00-23:00 Fri 11:00-midnight"
"https://www.wingstop.com","https://www.wingstop.com/order","Wingstop Houston Wilcrest","11926 Wilcrest Dr","Houston","TX","77031","US","8790","(281) 530-9464","Wingstop","29.6486985","-95.5664884","Fri 11:00-midnight Sat 11:00-midnight Sun 11:00-midnight Mon 11:00-midnight Tue 11:00-midnight Wed 11:00-midnight Thu 11:00-midnight Fri 11:00-midnight"
"https://www.wingstop.com","https://www.wingstop.com/order","Wingstop Houston Dairy Ashford","720 Dairy Ashford Dr, Ste 200","Houston","TX","77079","US","8924","(281) 596-9464","Wingstop","29.771351","-95.60584","Fri 11:00-23:30 Sat 11:00-23:30 Sun 11:00-23:30 Mon 11:00-23:30 Tue 11:00-23:30 Wed 11:00-23:30 Thu 11:00-23:30 Fri 11:00-23:30"
"https://www.wingstop.com","https://www.wingstop.com/order","Wingstop Humble N Sam Houston Pkwy E","9635 N Sam Houston Pkwy E","Humble","TX","77396","US","15902","(281) 441-9464","Wingstop","29.9366965","-95.2472128","Fri 10:30-midnight Sat 10:30-midnight Sun 10:30-midnight Mon 10:30-midnight Tue 10:30-midnight Wed 10:30-midnight Thu 10:30-midnight Fri 10:30-midnight"
"https://www.wingstop.com","https://www.wingstop.com/order","Wingstop Missouri City","2240 Texas Pkwy Ste 100","Missouri City","TX","77489","US","9041","(281) 403-9464","Wingstop","29.5949023","-95.527323","Fri 11:00-midnight Sat 11:00-midnight Sun 11:00-midnight Mon 11:00-midnight Tue 11:00-midnight Wed 11:00-midnight Thu 11:00-midnight Fri 11:00-midnight"
"https://www.wingstop.com","https://www.wingstop.com/order","Wingstop Pearland - Pearland Parkway","2701 Pearland Parkway Suite 170","Pearland","TX","77581","US","20660","(281) 412-9464","Wingstop","29.5578593","-95.2602411","Fri 10:30-midnight Sat 10:30-midnight Sun 10:30-midnight Mon 10:30-midnight Tue 10:30-midnight Wed 10:30-midnight Thu 10:30-midnight Fri 10:30-midnight"
"https://www.wingstop.com","https://www.wingstop.com/order","Wingstop Houston Veterans Memorial","12100 Veterans Memorial Dr Ste F","Houston","TX","77067","US","8757","(281) 440-9464","Wingstop","29.9637841","-95.4794093","Fri 11:00-midnight Sat 11:00-midnight Sun 11:00-midnight Mon 11:00-midnight Tue 11:00-midnight Wed 11:00-midnight Thu 11:00-midnight Fri 11:00-midnight"
"https://www.wingstop.com","https://www.wingstop.com/order","Wingstop Deer Park","3709 Center St","Deer Park","TX","77536","US","9023","(281) 479-9464","Wingstop","29.6772966","-95.1225644","Fri 10:30-midnight Sat 10:30-midnight Sun 10:30-midnight Mon 10:30-midnight Tue 10:30-midnight Wed 10:30-midnight Thu 10:30-midnight Fri 10:30-midnight"
"https://www.wingstop.com","https://www.wingstop.com/order","Wingstop Houston West Oaks","2412 B Highway 6S","Houston","TX","77077","US","8834","(281) 589-9464","Wingstop","29.7369355","-95.6443059","Fri 11:00-23:30 Sat 11:00-23:30 Sun 11:00-23:30 Mon 11:00-23:30 Tue 11:00-23:30 Wed 11:00-23:30 Thu 11:00-23:30 Fri 11:00-23:30"
"https://www.wingstop.com","https://www.wingstop.com/order","Wingstop Houston Jones","9804 Jones Rd Ste A","Houston","TX","77065","US","8721","(281) 477-9464","Wingstop","29.9159873","-95.5838003","Fri 11:00-midnight Sat 11:00-midnight Sun 11:00-midnight Mon 11:00-midnight Tue 11:00-midnight Wed 11:00-midnight Thu 11:00-midnight Fri 11:00-midnight"
"https://www.wingstop.com","https://www.wingstop.com/order","Wingstop Houston Hwy 6","9210 Highway 6 S Ste F","Houston","TX","77083","US","8762","(832) 328-3737","Wingstop","29.6793821","-95.6443984","Fri 11:00-midnight Sat 11:00-midnight Sun 11:00-midnight Mon 11:00-midnight Tue 11:00-midnight Wed 11:00-midnight Thu 11:00-midnight Fri 11:00-midnight"
"https://www.wingstop.com","https://www.wingstop.com/order","Wingstop Humble 1st St W.","128 1St St W","Humble","TX","77338","US","9051","(281) 548-9464","Wingstop","30.0020655","-95.268005","Fri 11:00-midnight Sat 11:00-midnight Sun 11:00-midnight Mon 11:00-midnight Tue 11:00-midnight Wed 11:00-midnight Thu 11:00-midnight Fri 11:00-midnight"
"https://www.wingstop.com","https://www.wingstop.com/order","Wingstop Houston Little York","6164 Highway 6 N","Houston","TX","77084","US","8782","(281) 550-1600","Wingstop","29.8695919","-95.6447476","Fri 10:30-midnight Sat 10:30-midnight Sun 10:30-midnight Mon 10:30-midnight Tue 10:30-midnight Wed 10:30-midnight Thu 10:30-midnight Fri 10:30-midnight"
"https://www.wingstop.com","https://www.wingstop.com/order","Wingstop Missouri City","7260 Highway 6 Ste 500","Missouri City","TX","77459","US","8952","(281) 261-2300","Wingstop","29.552694","-95.5542219","Fri 11:00-midnight Sat 11:00-midnight Sun 11:00-midnight Mon 11:00-midnight Tue 11:00-midnight Wed 11:00-midnight Thu 11:00-midnight Fri 11:00-midnight"
"https://www.wingstop.com","https://www.wingstop.com/order","Wingstop Arcola FM 521 Rd.","5243 FM 521 Rd Ste O","Arcola","TX","77583","US","70344","(281) 431-9464","Wingstop","29.5076333","-95.4598843","Fri 11:00-midnight Sat 11:00-midnight Sun 11:00-midnight Mon 11:00-midnight Tue 11:00-midnight Wed 11:00-midnight Thu 11:00-midnight Fri 11:00-midnight"
"https://www.wingstop.com","https://www.wingstop.com/order","Wingstop Houston FM 1960","376 Fm 1960 Rd W Ste K","Houston","TX","77090","US","8867","(281) 209-9464","Wingstop","30.020317","-95.43607","Fri 11:00-23:30 Sat 11:00-23:30 Sun 11:00-23:30 Mon 11:00-23:30 Tue 11:00-23:30 Wed 11:00-23:30 Thu 11:00-23:30 Fri 11:00-23:30"
"https://www.wingstop.com","https://www.wingstop.com/order","Wingstop Houston West Rd.","8540 Highway 6 N","Houston","TX","77095","US","66561","(832) 384-4772","Wingstop","29.9028645","-95.6322906","Fri 10:30-midnight Sat 10:30-midnight Sun 10:30-midnight Mon 10:30-midnight Tue 10:30-midnight Wed 10:30-midnight Thu 10:30-midnight Fri 10:30-midnight"
"https://www.wingstop.com","https://www.wingstop.com/order","Wingstop Sugar Land","16525 Lexington Blvd Ste 120","Sugar Land","TX","77479","US","8815","(281) 565-9464","Wingstop","29.5877144","-95.623412","Fri 11:00-midnight Sat 11:00-midnight Sun 11:00-23:00 Mon 11:00-23:00 Tue 11:00-23:00 Wed 11:00-23:00 Thu 11:00-23:00 Fri 11:00-midnight"
"https://www.wingstop.com","https://www.wingstop.com/order","Wingstop Houston Tomball Pkwy","19754 Tomball Pkwy Ste 4","Houston","TX","77070","US","8871","(281) 897-9464","Wingstop","29.9832988","-95.56583","Fri 11:00-midnight Sat 11:00-midnight Sun 11:00-midnight Mon 11:00-midnight Tue 11:00-midnight Wed 11:00-midnight Thu 11:00-midnight Fri 11:00-midnight"
"https://www.wingstop.com","https://www.wingstop.com/order","Wingstop Richmond FM 1464","7039 FM 1464 Ste 210","Richmond","TX","77407","US","17667","(281) 240-9464","Wingstop","29.7020966","-95.6871337","Fri 11:00-midnight Sat 11:00-midnight Sun 11:00-midnight Mon 11:00-midnight Tue 11:00-midnight Wed 11:00-midnight Thu 11:00-midnight Fri 11:00-midnight"
"https://www.wingstop.com","https://www.wingstop.com/order","Wingstop Sugar Land Telfair","350 Promenade Way #600","Sugar Land","TX","77478","US","75515","(281) 494-9464","Wingstop","29.6095627","-95.6469501","Fri 11:00-midnight Sat 11:00-midnight Sun 11:00-midnight Mon 11:00-midnight Tue 11:00-midnight Wed 11:00-midnight Thu 11:00-midnight Fri 11:00-midnight"
"https://www.wingstop.com","https://www.wingstop.com/order","Wingstop Houston Katy Freeway","19111 Katy Freeway","Houston","TX","77094","US","44753","(281) 676-8133","Wingstop","29.7842606","-95.7026329","Fri 10:30-midnight Sat 10:30-midnight Sun 10:30-midnight Mon 10:30-midnight Tue 10:30-midnight Wed 10:30-midnight Thu 10:30-midnight Fri 10:30-midnight"
"https://www.wingstop.com","https://www.wingstop.com/order","Wingstop Houston Bay Area Blvd","2410 Bay Area Blvd","Houston","TX","77058","US","8795","(281) 280-9464","Wingstop","29.5730619","-95.1076267","Fri 11:00-midnight Sat 11:00-midnight Sun 11:00-midnight Mon 11:00-midnight Tue 11:00-midnight Wed 11:00-midnight Thu 11:00-midnight Fri 11:00-midnight"
"https://www.wingstop.com","https://www.wingstop.com/order","Wingstop Spring Louetta","18426 Kuykendahl Rd","Spring","TX","77379","US","8851","(281) 288-7867","Wingstop","30.0388802","-95.4870593","Fri 11:00-23:30 Sat 11:00-23:30 Sun 11:00-23:30 Mon 11:00-23:30 Tue 11:00-23:30 Wed 11:00-23:30 Thu 11:00-23:30 Fri 11:00-23:30"
"https://www.wingstop.com","https://www.wingstop.com/order","Wingstop Friendswood FM 528","3141 Fm 528 Rd Ste 334","Friendswood","TX","77546","US","8826","(281) 554-8877","Wingstop","29.521305","-95.160736","Fri 10:30-midnight Sat 10:30-midnight Sun 10:30-23:00 Mon 10:30-23:00 Tue 10:30-23:00 Wed 10:30-23:00 Thu 10:30-23:00 Fri 10:30-midnight"
"https://www.wingstop.com","https://www.wingstop.com/order","Wingstop Atascocita","7611 FM 1960 Rd E","Humble","TX","77346","US","9277","(281) 973-9238","Wingstop","30.000069","-95.159205","Fri 10:30-midnight Sat 11:00-midnight Sun 11:00-midnight Mon 10:30-midnight Tue 10:30-midnight Wed 10:30-midnight Thu 10:30-midnight Fri 10:30-midnight"
"https://www.wingstop.com","https://www.wingstop.com/order","Wingstop Katy N Fwy","5502 N Fry Rd Ste F","Katy","TX","77449","US","9020","(832) 593-9464","Wingstop","29.8503799","-95.7180949","Fri 10:30-midnight Sat 10:30-midnight Sun 10:30-midnight Mon 10:30-midnight Tue 10:30-midnight Wed 10:30-midnight Thu 10:30-midnight Fri 10:30-midnight"
"https://www.wingstop.com","https://www.wingstop.com/order","Wingstop Cypress Tuckerton Rd.","18121 Tuckerton Rd.","Cypress","TX","77433","US","36782","(281) 246-1671","Wingstop","29.920113","-95.6897646","Fri 10:30-midnight Sat 10:30-midnight Sun 10:30-midnight Mon 10:30-midnight Tue 10:30-midnight Wed 10:30-midnight Thu 10:30-midnight Fri 10:30-midnight"
"https://www.wingstop.com","https://www.wingstop.com/order","Wingstop Cypress - Barker Cypress","24150 US-290 Ste 250","Cypress","TX","77429","US","8966","(281) 758-2900","Wingstop","29.954756","-95.671441","Fri 11:00-midnight Sat 11:00-midnight Sun 11:00-midnight Mon 11:00-midnight Tue 11:00-midnight Wed 11:00-midnight Thu 11:00-midnight Fri 11:00-midnight"
"https://www.wingstop.com","https://www.wingstop.com/order","Wingstop Katy Mason Rd","1830 S Mason Rd Ste 140","Katy","TX","77450","US","8874","(281) 392-1700","Wingstop","29.7552679","-95.7516035","Fri 10:30-midnight Sat 10:30-midnight Sun 10:30-midnight Mon 10:30-midnight Tue 10:30-midnight Wed 10:30-midnight Thu 10:30-midnight Fri 10:30-midnight"
"https://www.wingstop.com","https://www.wingstop.com/order","Wingstop Cypress Fry Rd.","8350 FRY RD","CYPRESS","TX","77433","US","73760","(832) 919-7877","Wingstop","29.9013877","-95.7218788","Fri 10:30-midnight Sat 10:30-midnight Sun 10:30-midnight Mon 10:30-midnight Tue 10:30-midnight Wed 10:30-midnight Thu 10:30-midnight Fri 10:30-midnight"
"https://www.wingstop.com","https://www.wingstop.com/order","Wingstop Baytown","5123 Garth Rd","Baytown","TX","77521","US","9046","(281) 421-0900","Wingstop","29.7795263","-94.9786435","Fri 10:30-midnight Sat 11:00-midnight Sun 11:00-23:00 Mon 10:30-23:00 Tue 10:30-23:00 Wed 10:30-23:00 Thu 10:30-midnight Fri 10:30-midnight"
"https://www.wingstop.com","https://www.wingstop.com/order","Wingstop Richmond Pointe W Circle","5400 Pointe West Circle Ste 160","Richmond","TX","77469","US","70184","(832) 990-9464","Wingstop","29.5629506","-95.6919853","Fri 11:00-midnight Sat 11:00-midnight Sun 11:00-midnight Mon 11:00-midnight Tue 11:00-midnight Wed 11:00-midnight Thu 11:00-midnight Fri 11:00-midnight"
"https://www.wingstop.com","https://www.wingstop.com/order","Wingstop Richmond Grand Pkwy","7035 West Grand Pkwy S, Suite 40","Richmond","TX","77407","US","18240","(832) 595-9464","Wingstop","29.6742865","-95.7536401","Fri 10:30-midnight Sat 10:30-midnight Sun 10:30-midnight Mon 10:30-midnight Tue 10:30-midnight Wed 10:30-midnight Thu 10:30-midnight Fri 10:30-midnight"
"https://www.wingstop.com","https://www.wingstop.com/order","COMING SOON! Wingstop Spring Grand Parkway Marketplace","6603 Spring Stubner Rd STE 105","Spring","TX","77389","US","84344","(346) 220-5600","Wingstop","30.0846275","-95.5212971","<MISSING>"
"https://www.wingstop.com","https://www.wingstop.com/order","Wingstop Katy Grand Pkwy","2918 W Grand Pkwy N., Ste 160","Katy","TX","77493","US","36511","(281) 665-4100","Wingstop","29.8156154","-95.7695271","Fri 10:30-midnight Sat 10:30-midnight Sun 10:30-midnight Mon 10:30-midnight Tue 10:30-midnight Wed 10:30-midnight Thu 10:30-midnight Fri 10:30-midnight"
"https://www.wingstop.com","https://www.wingstop.com/order","Wingstop Alvin Tovrea Rd","173 Tovrea Road Suite G","Alvin","TX","77511","US","20674","(281) 756-9464","Wingstop","29.4231777","-95.230542","Fri 11:00-midnight Sat 11:00-midnight Sun 11:00-midnight Mon 11:00-midnight Tue 11:00-midnight Wed 11:00-midnight Thu 11:00-midnight Fri 11:00-midnight"
"https://www.wingstop.com","https://www.wingstop.com/order","Wingstop Spring Rayford Rd.","2222 Rayford Rd. Ste. 106","Spring","TX","77386","US","59535","(281) 601-9464","Wingstop","30.1225572","-95.408395","Fri 10:30-midnight Sat 11:00-midnight Sun 11:00-midnight Mon 10:30-midnight Tue 10:30-midnight Wed 10:30-midnight Thu 10:30-midnight Fri 10:30-midnight"
"https://www.wingstop.com","https://www.wingstop.com/order","Wingstop The Woodlands Sawdust","510 Sawdust Rd Ste 201","The Woodlands","TX","77380","US","9244","(281) 363-9464","Wingstop","30.1272486","-95.4499948","Fri 10:30-midnight Sat 11:00-midnight Sun 11:00-23:00 Mon 10:30-23:00 Tue 10:30-23:00 Wed 10:30-23:00 Thu 10:30-midnight Fri 10:30-midnight"
"https://www.wingstop.com","https://www.wingstop.com/order","Wingstop Kemah FM 518","212 Fm 518 Rd Ste 110","Kemah","TX","77565","US","9132","(281) 538-5800","Wingstop","29.5374108","-95.0206913","Fri 11:00-midnight Sat 11:00-midnight Sun 11:00-22:00 Mon 11:00-22:00 Tue 11:00-22:00 Wed 11:00-22:00 Thu 11:00-22:00 Fri 11:00-midnight"
"https://www.wingstop.com","https://www.wingstop.com/order","Wingstop League City","3010 S Gulf Fwy Ste N","League City","TX","77573","US","9025","(281) 534-2000","Wingstop","29.4685446","-95.0922191","Fri 11:00-midnight Sat 11:00-midnight Sun 11:00-midnight Mon 11:00-midnight Tue 11:00-midnight Wed 11:00-midnight Thu 11:00-midnight Fri 11:00-midnight"
"https://www.wingstop.com","https://www.wingstop.com/order","Wingstop Katy Mills Blvd","1998 Katy Mills Blvd Ste B","Katy","TX","77494","US","10260","(281) 392-0164","Wingstop","29.7837575","-95.8075742","Fri 10:30-midnight Sat 10:30-midnight Sun 10:30-midnight Mon 10:30-midnight Tue 10:30-midnight Wed 10:30-midnight Thu 10:30-midnight Fri 10:30-midnight"
"https://www.wingstop.com","https://www.wingstop.com/order","Wingstop Katy Spring Green Blvd","9550 Spring Green Blvd Ste 414","Katy","TX","77494","US","9205","(281) 574-7776","Wingstop","29.7007986","-95.8130836","Fri 10:30-midnight Sat 10:30-midnight Sun 10:30-midnight Mon 10:30-midnight Tue 10:30-midnight Wed 10:30-midnight Thu 10:30-midnight Fri 10:30-midnight"
"https://www.wingstop.com","https://www.wingstop.com/order","Wingstop Rosenberg","24601 Southwest Fwy Ste 700	Rosenberg","Rosenberg","TX","77471","US","8988","(832) 595-3240","Wingstop","29.5428579","-95.7523438","Fri 10:30-midnight Sat 10:30-midnight Sun 10:30-midnight Mon 10:30-midnight Tue 10:30-midnight Wed 10:30-midnight Thu 10:30-midnight Fri 10:30-midnight"
"https://www.wingstop.com","https://www.wingstop.com/order","Wingstop Cypress - Fair Field","28404 Hwy 290, Ste G17","Cypress","TX","77433","US","36432","(832) 856-9464","Wingstop","29.9920177","-95.7425265","Fri 10:30-midnight Sat 10:30-midnight Sun 10:30-midnight Mon 10:30-midnight Tue 10:30-midnight Wed 10:30-midnight Thu 10:30-midnight Fri 10:30-midnight"
"https://www.wingstop.com","https://www.wingstop.com/order","Wingstop Tomball FM 2920","14083 FM 2920","Tomball","TX","77377","US","10262","(281) 255-9464","Wingstop","30.088989","-95.63515","Fri 11:00-midnight Sat 11:00-midnight Sun 11:00-23:00 Mon 11:00-23:00 Tue 11:00-23:00 Wed 11:00-23:00 Thu 11:00-23:00 Fri 11:00-midnight"
"https://www.wingstop.com","https://www.wingstop.com/order","Wingstop Baytown/Mont Belvieu","8018 Hwy 146 N. Suite 6","Baytown","TX","77523","US","75401","(832) 548-9464","Wingstop","29.8088544","-94.9027408","Fri 10:30-midnight Sat 10:30-midnight Sun 10:30-midnight Mon 10:30-midnight Tue 10:30-midnight Wed 10:30-midnight Thu 10:30-midnight Fri 10:30-midnight"
"https://www.wingstop.com","https://www.wingstop.com/order","Wingstop The Woodlands, Woodlands Pkwy @ Kuykendahl","6777 Woodlands Pkwy Ste 324","The Woodlands","TX","77382","US","8807","(281) 419-3003","Wingstop","30.1800222","-95.5386592","Fri 11:00-23:00 Sat 11:00-23:00 Sun 11:00-22:00 Mon 11:00-22:00 Tue 11:00-22:00 Wed 11:00-22:00 Thu 11:00-22:00 Fri 11:00-23:00"
"https://www.wingstop.com","https://www.wingstop.com/order","Wingstop Conroe TX Hwy 242","8000 TX Hwy 242","Conroe","TX","77385","US","13873","(936) 242-1568","Wingstop","30.2069364","-95.4536725","Fri 10:30-midnight Sat 10:30-midnight Sun 10:30-midnight Mon 10:30-midnight Tue 10:30-midnight Wed 10:30-midnight Thu 10:30-midnight Fri 10:30-midnight"
"https://www.wingstop.com","https://www.wingstop.com/order","Wingstop La Marque","6402 Interstate 45 Ste G","La Marque","TX","77568","US","9039","(409) 986-1000","Wingstop","29.402713","-95.034541","Fri 10:30-midnight Sat 11:00-midnight Sun 11:00-23:00 Mon 10:30-23:00 Tue 10:30-23:00 Wed 10:30-23:00 Thu 10:30-23:00 Fri 10:30-midnight"
"https://www.wingstop.com","https://www.wingstop.com/order","Wingstop Conroe","2200  I 45 N Ste D","Conroe","TX","77301","US","8832","(936) 756-0289","Wingstop","30.33055","-95.475713","Fri 11:00-midnight Sat 11:00-midnight Sun 11:00-23:00 Mon 11:00-23:00 Tue 11:00-23:00 Wed 11:00-23:00 Thu 11:00-23:00 Fri 11:00-midnight"
"https://www.wingstop.com","https://www.wingstop.com/order","Wingstop Galveston","6202 Broadway St Ste B","Galveston","TX","77551","US","8996","(409) 740-9464","Wingstop","29.2893214","-94.839701","Fri 11:00-midnight Sat 11:00-midnight Sun 11:00-midnight Mon 11:00-midnight Tue 11:00-midnight Wed 11:00-midnight Thu 11:00-midnight Fri 11:00-midnight"
"https://www.wingstop.com","https://www.wingstop.com/order","Wingstop Willis I45 & FM 1097","12717 Interstate 45 North","Willis","TX","77378","US","20662","(936) 890-9464","Wingstop","30.4235259","-95.4937168","Fri 10:30-midnight Sat 10:30-midnight Sun 10:30-midnight Mon 10:30-midnight Tue 10:30-midnight Wed 10:30-midnight Thu 10:30-midnight Fri 10:30-midnight"
"https://www.wingstop.com","https://www.wingstop.com/order","Wingstop Lake Jackson","401 This Way St Unit C","Lake Jackson","TX","77566","US","9038","(979) 480-9464","Wingstop","29.039314","-95.454188","Fri 11:00-23:30 Sat 11:00-23:30 Sun 11:00-22:30 Mon 11:00-22:30 Tue 11:00-22:30 Wed 11:00-22:30 Thu 11:00-22:30 Fri 11:00-23:30"
"https://www.wingstop.com","https://www.wingstop.com/order","Wingstop Huntsville","3011 Highway 30 W Ste 103B","Huntsville","TX","77340","US","9231","(936) 294-9464","Wingstop","30.749035","-95.520415","Fri 10:30-midnight Sat 10:30-midnight Sun 10:30-midnight Mon 10:30-midnight Tue 10:30-midnight Wed 10:30-midnight Thu 10:30-midnight Fri 10:30-midnight"
"https://www.wingstop.com","https://www.wingstop.com/order","Wingstop College Station","700 University Dr E Ste B201","College Station","TX","77840","US","8748","(979) 846-9464","Wingstop","30.6326965","-96.3274025","Fri 11:00-23:30 Sat 11:00-23:30 Sun 11:00-23:30 Mon 11:00-23:30 Tue 11:00-23:30 Wed 11:00-23:30 Thu 11:00-23:30 Fri 11:00-23:30"
"https://www.wingstop.com","https://www.wingstop.com/order","Wingstop Bryan Boonville Rd","2305 Boonville Rd, Ste 150","Bryan","TX","77808","US","44715","(979) 776-9464","Wingstop","30.6738755","-96.3351531","Fri 10:45-midnight Sat 10:45-midnight Sun 10:45-23:00 Mon 10:45-23:00 Tue 10:45-23:00 Wed 10:45-23:00 Thu 10:45-23:00 Fri 10:45-midnight"
"https://www.wingstop.com","https://www.wingstop.com/order","Wingstop Philadelphia Roberts Ave","2920 Roberts Ave","Philadelphia","PA","19129","US","26500","(215) 225-9464","Wingstop","40.0108403","-75.1769144","Fri 11:00-23:30 Sat 11:00-23:30 Sun 11:00-23:30 Mon 11:00-23:30 Tue 11:00-23:30 Wed 11:00-23:30 Thu 11:00-23:30 Fri 11:00-23:30"
"https://www.wingstop.com","https://www.wingstop.com/order","Wingstop Upper Darby S. 69th St.","240 S. 69th St","Upper Darby","PA","19082","US","82086","(215) 902-9464","Wingstop","39.9553112","-75.2586503","Fri 11:00-23:30 Sat 11:00-23:30 Sun 11:00-23:30 Mon 11:00-23:30 Tue 11:00-23:30 Wed 11:00-23:30 Thu 11:00-23:30 Fri 11:00-23:30"
"https://www.wingstop.com","https://www.wingstop.com/order","Wingstop Philadelphia Aramingo Ave.","3855 Aramingo Ave","Philadelphia","PA","19137","US","17666","(215) 288-9464","Wingstop","39.9963913","-75.0897957","Fri 11:00-23:30 Sat 11:00-23:30 Sun 11:00-23:30 Mon 11:00-23:30 Tue 11:00-23:30 Wed 11:00-23:30 Thu 11:00-23:30 Fri 11:00-23:30"
"https://www.wingstop.com","https://www.wingstop.com/order","Wingstop Philadelphia Island Ave","2900 Island Ave Ste 2922","Philadelphia","PA","19153","US","70389","(215) 492-9464","Wingstop","39.9009867","-75.2409015","Fri 11:00-23:30 Sat 11:00-23:30 Sun 11:00-23:30 Mon 11:00-23:30 Tue 11:00-23:30 Wed 11:00-23:30 Thu 11:00-23:30 Fri 11:00-23:30"
"https://www.wingstop.com","https://www.wingstop.com/order","Wingstop Philadelphia City Line Ave.","7644 City Line Ave","Philadelphia","PA","19151","US","31217","(215) 477-9464","Wingstop","39.9776444","-75.2723667","Fri 11:00-23:30 Sat 11:00-23:30 Sun 11:00-23:30 Mon 11:00-23:30 Tue 11:00-23:30 Wed 11:00-23:30 Thu 11:00-23:30 Fri 11:00-23:30"
"https://www.wingstop.com","https://www.wingstop.com/order","NOW OPEN! Wingstop Philadelphia Oxford Ave","6391 Oxford Ave","Philadelphia","PA","19111","US","77758","(267) 710-9464","Wingstop","40.0440545","-75.0878986","Fri 10:45-23:45 Sat 10:45-23:45 Sun 10:45-23:45 Mon 10:45-23:45 Tue 10:45-23:45 Wed 10:45-23:45 Thu 10:45-23:45 Fri 10:45-23:45"
"https://www.wingstop.com","https://www.wingstop.com/order","Wingstop Philadelphia Cottman Ave","2118 Cottman Ave","Philadelphia","PA","19149","US","13876","(215) 281-9464","Wingstop","40.0489636","-75.0633962","Fri 11:00-23:30 Sat 11:00-23:30 Sun 11:00-23:30 Mon 11:00-23:30 Tue 11:00-23:30 Wed 11:00-23:30 Thu 11:00-23:30 Fri 11:00-23:30"
"https://www.wingstop.com","https://www.wingstop.com/order","Wingstop Wyncote Cheltenham Ave","3001 Cheltenham Ave Ste 3040","Wyncote","PA","19095","US","61288","(215) 769-9464","Wingstop","40.0799528","-75.1669596","Fri 11:00-23:30 Sat 11:00-23:30 Sun 11:00-23:30 Mon 11:00-23:30 Tue 11:00-23:30 Wed 11:00-23:30 Thu 11:00-23:30 Fri 11:00-23:30"
"https://www.wingstop.com","https://www.wingstop.com/order","Wingstop Bear Pulaski Hwy","1132 Pulaski Hwy","Bear","DE","19701","US","72599","(302) 595-4497","Wingstop","39.6301231","-75.6622429","Fri 11:00-midnight Sat 11:00-midnight Sun 11:00-midnight Mon 11:00-midnight Tue 11:00-midnight Wed 11:00-midnight Thu 11:00-midnight Fri 11:00-midnight"
"https://www.wingstop.com","https://www.wingstop.com/order","Wingstop Newark E.Main St","230 E. Main St","Newark","DE","19711","US","73759","(302) 533-7258","Wingstop","39.6849942","-75.7437937","Fri 11:00-midnight Sat 11:00-midnight Sun 11:00-midnight Mon 11:00-midnight Tue 11:00-midnight Wed 11:00-midnight Thu 11:00-midnight Fri 11:00-midnight"
"https://www.wingstop.com","https://www.wingstop.com/order","Wingstop Allentown Liberty St","1601 LIBERTY ST UNIT 2","Allentown","PA","18102","US","9476","(610) 351-9464","Wingstop","40.6042477","-75.4940513","Fri 11:00-midnight Sat 11:00-midnight Sun 11:00-23:00 Mon 11:00-23:00 Tue 11:00-23:00 Wed 11:00-22:15 Thu 11:00-midnight Fri 11:00-midnight"
"https://www.wingstop.com","https://www.wingstop.com/order","Wingstop Easton Nazareth Rd.","2469 Nazareth Road","Easton","PA","18045","US","34259","(610) 438-2444","Wingstop","40.6887646","-75.2538165","Fri 11:00-23:30 Sat 11:00-23:30 Sun 11:00-23:30 Mon 11:00-23:30 Tue 11:00-23:30 Wed 11:00-23:30 Thu 11:00-23:30 Fri 11:00-23:30"
