"locator_domain","page_url","location_name","street_address","city","state","zip","country_code","store_number","phone","location_type","latitude","longitude","hours_of_operation"
"https://www.usps.com","https://tools.usps.com/find-location.htm","CENTRALIZED PARCEL POST","341 9TH AVE BSMT BB30","NEW YORK","NY","10199-9793","US","1444233","2123302510","Usps","40.750976","-74.000051","<MISSING>"
"https://www.usps.com","https://tools.usps.com/find-location.htm","JAMES A FARLEY","421 8TH AVE","NEW YORK","NY","10001-9998","US","1433785","2123303296","Usps","40.751624","-73.995972","MO 07:00:00-22:00:00 TU 07:00:00-22:00:00 WE 07:00:00-22:00:00 TH 07:00:00-22:00:00 FR 07:00:00-22:00:00 SA 09:00:00-21:00:00 SU 11:00:00-19:00:00"
"https://www.usps.com","https://tools.usps.com/find-location.htm","LONDON TERRACE","234 10TH AVE","NEW YORK","NY","10011-9993","US","1370834","2122553541","Usps","40.748036","-74.00354","MO 09:30:00-17:00:00 TU 09:30:00-17:00:00 WE 09:30:00-17:00:00 TH 09:30:00-17:00:00 FR 09:30:00-17:00:00 SA 09:00:00-16:00:00 SU closed"
"https://www.usps.com","https://tools.usps.com/find-location.htm","MIDTOWN","223 W 38TH ST","NEW YORK","NY","10018-9998","US","1373016","2128199604","Usps","40.754207","-73.989903","MO 09:00:00-17:30:00 TU 09:00:00-17:30:00 WE 09:00:00-17:30:00 TH 09:00:00-17:30:00 FR 09:00:00-17:30:00 SA closed SU closed"
"https://www.usps.com","https://tools.usps.com/find-location.htm","RCU ANNEX","340 W 42ND ST FL 3","NEW YORK","NY","10036-9992","US","1432987","2125020421","Usps","40.757697","-73.991953","<MISSING>"
"https://www.usps.com","https://tools.usps.com/find-location.htm","TIMES SQUARE","340 W 42ND ST FL 2","NEW YORK","NY","10036-9998","US","1384689","2125020424","Usps","40.757708","-73.991946","MO 10:00:00-17:30:00 TU 10:00:00-17:30:00 WE 10:00:00-17:30:00 TH 10:00:00-17:30:00 FR 10:00:00-17:30:00 SA closed SU closed"
"https://www.usps.com","https://tools.usps.com/find-location.htm","OLD CHELSEA","217 W 18TH ST","NEW YORK","NY","10011-9998","US","1433835","2126750548","Usps","40.741678","-73.998815","MO 09:00:00-17:30:00 TU 09:00:00-17:30:00 WE 09:00:00-17:30:00 TH 09:00:00-17:30:00 FR 09:00:00-17:30:00 SA 09:00:00-16:00:00 SU closed"
"https://www.usps.com","https://tools.usps.com/find-location.htm","GREELEY SQUARE","4 E 27TH ST","NEW YORK","NY","10001-9994","US","1459420","2126832510","Usps","40.743728","-73.987391","MO 09:00:00-17:30:00 TU 09:00:00-17:30:00 WE 09:00:00-17:30:00 TH 09:00:00-17:30:00 FR 09:00:00-17:30:00 SA closed SU closed"
"https://www.usps.com","https://tools.usps.com/find-location.htm","BRYANT","23 W 43RD ST","NEW YORK","NY","10036-9991","US","1356177","2122795960","Usps","40.75481","-73.981562","MO 07:30:00-17:00:00 TU 07:30:00-17:00:00 WE 07:30:00-17:00:00 TH 07:30:00-17:00:00 FR 07:30:00-17:00:00 SA closed SU closed"
"https://www.usps.com","https://tools.usps.com/find-location.htm","MURRAY HILL","115 E 34TH ST FRNT 1","NEW YORK","NY","10016-9991","US","1374275","2126790730","Usps","40.74689","-73.98016","MO 08:00:00-17:00:00 TU 08:00:00-17:00:00 WE 08:00:00-17:00:00 TH 08:00:00-17:00:00 FR 08:00:00-17:00:00 SA 08:00:00-15:00:00 SU closed"
"https://www.usps.com","https://tools.usps.com/find-location.htm","RADIO CITY","322 W 52ND ST","NEW YORK","NY","10019-9998","US","1378686","2122653672","Usps","40.763762","-73.986402","MO 07:30:00-18:00:00 TU 07:30:00-18:00:00 WE 07:30:00-18:00:00 TH 07:30:00-19:00:00 FR 07:30:00-18:00:00 SA 09:00:00-16:00:00 SU closed"
"https://www.usps.com","https://tools.usps.com/find-location.htm","MADISON SQUARE","149 E 23RD ST","NEW YORK","NY","10010-9998","US","1371388","2126733771","Usps","40.739572","-73.983629","MO 09:00:00-19:00:00 TU 09:00:00-19:00:00 WE 09:00:00-19:00:00 TH 09:00:00-19:00:00 FR 09:00:00-19:00:00 SA 09:00:00-16:00:00 SU closed"
"https://www.usps.com","https://tools.usps.com/find-location.htm","APPRAISERS STORES","580 5TH AVE STE 407","NEW YORK","NY","10036-9994","US","1353209","2127680435","Usps","40.756975","-73.978829","MO 09:30:00-13:00:00 TU 09:30:00-13:00:00 WE 09:30:00-13:00:00 TH 09:30:00-13:00:00 FR 09:30:00-13:00:00 SA closed SU closed"
"https://www.usps.com","https://tools.usps.com/find-location.htm","PATCHIN","70 W 10TH ST","NEW YORK","NY","10011-9991","US","1376925","2124752534","Usps","40.734581","-73.998518","MO 09:30:00-17:00:00 TU 09:30:00-17:00:00 WE 09:30:00-17:00:00 TH 09:30:00-17:00:00 FR 09:30:00-17:00:00 SA 09:00:00-16:00:00 SU closed"
"https://www.usps.com","https://tools.usps.com/find-location.htm","MURRAY HILL ANNEX","205 E 36TH ST","NEW YORK","NY","10016-9998","US","1374277","2125450836","Usps","40.746958","-73.976428","<MISSING>"
"https://www.usps.com","https://tools.usps.com/find-location.htm","ROCKEFELLER CENTER","610 5TH AVE STE CONC1","NEW YORK","NY","10020-9991","US","1379650","2122653855","Usps","40.758254","-73.977934","MO 10:00:00-17:00:00 TU 10:00:00-17:00:00 WE 10:00:00-17:00:00 TH 10:00:00-17:00:00 FR 10:00:00-17:00:00 SA closed SU closed"
"https://www.usps.com","https://tools.usps.com/find-location.htm","WEST VILLAGE","527 HUDSON ST FRNT A","NEW YORK","NY","10014-9992","US","1387230","2129895084","Usps","40.734145","-74.006569","MO 10:00:00-17:30:00 TU 10:00:00-17:30:00 WE 10:00:00-17:30:00 TH 10:00:00-17:30:00 FR 10:00:00-17:30:00 SA 09:00:00-16:00:00 SU closed"
"https://www.usps.com","https://tools.usps.com/find-location.htm","GRAND CENTRAL","450 LEXINGTON AVE FL 2","NEW YORK","NY","10017-9998","US","1365295","2123305724","Usps","40.753307","-73.974735","MO 07:30:00-21:00:00 TU 07:30:00-21:00:00 WE 07:30:00-21:00:00 TH 07:30:00-21:00:00 FR 07:30:00-21:00:00 SA 07:30:00-13:00:00 SU closed"
"https://www.usps.com","https://tools.usps.com/find-location.htm","COOPER","93 4TH AVE","NEW YORK","NY","10003-9998","US","1359178","2122541390","Usps","40.732075","-73.989876","MO 09:00:00-17:45:00 TU 09:00:00-17:45:00 WE 09:00:00-17:45:00 TH 09:00:00-17:45:00 FR 09:00:00-17:45:00 SA 09:00:00-15:45:00 SU closed"
"https://www.usps.com","https://tools.usps.com/find-location.htm","UPTOWN","57 14TH ST","HOBOKEN","NJ","07030-9992","US","1385561","2014590405","Usps","40.752981","-74.025456","MO 08:30:00-16:30:00 TU 08:30:00-16:30:00 WE 08:30:00-16:30:00 TH 08:30:00-16:30:00 FR 08:30:00-16:30:00 SA 09:00:00-12:30:00 SU closed"
"https://www.usps.com","https://tools.usps.com/find-location.htm","TUDOR CITY SSP","5 TUDOR CITY PL FRNT 4","NEW YORK","NY","10017-9991","US","1450958","<MISSING>","Usps","40.748023","-73.970982","<MISSING>"
"https://www.usps.com","https://tools.usps.com/find-location.htm","COLUMBUS CIRCLE","27 W 60TH ST","NEW YORK","NY","10023-9991","US","1358799","2122657858","Usps","40.76961","-73.983332","MO 09:00:00-17:30:00 TU 09:00:00-17:30:00 WE 09:00:00-17:30:00 TH 09:00:00-17:30:00 FR 09:00:00-17:30:00 SA closed SU closed"
"https://www.usps.com","https://tools.usps.com/find-location.htm","PETER STUYVESANT","335 E 14TH ST","NEW YORK","NY","10009-9997","US","1464314","2122288413","Usps","40.731875","-73.983106","MO 09:00:00-17:30:00 TU 09:00:00-17:30:00 WE 09:00:00-17:30:00 TH 09:00:00-17:30:00 FR 09:00:00-17:30:00 SA 09:00:00-16:00:00 SU closed"
"https://www.usps.com","https://tools.usps.com/find-location.htm","VILLAGE","201 VARICK ST FRNT 1","NEW YORK","NY","10014-9998","US","1385988","2126450327","Usps","40.728091","-74.005759","MO 08:00:00-17:30:00 TU 08:00:00-17:30:00 WE 08:00:00-17:30:00 TH 08:00:00-17:30:00 FR 08:00:00-17:30:00 SA 09:00:00-16:00:00 SU closed"
"https://www.usps.com","https://tools.usps.com/find-location.htm","WASHINGTON STREET","734 WASHINGTON ST STE A","HOBOKEN","NJ","07030-9993","US","1386547","2014590117","Usps","40.745801","-74.028597","MO 08:30:00-16:30:00 TU 08:30:00-16:30:00 WE 08:30:00-16:30:00 TH 08:30:00-16:30:00 FR 08:30:00-16:30:00 SA closed SU closed"
"https://www.usps.com","https://tools.usps.com/find-location.htm","FDR STATION","909 3RD AVE OFC","NEW YORK","NY","10022-9998","US","1363995","2123305508","Usps","40.758397","-73.968053","MO 08:00:00-20:00:00 TU 08:00:00-20:00:00 WE 08:00:00-20:00:00 TH 08:00:00-20:00:00 FR 08:00:00-20:00:00 SA 09:00:00-16:00:00 SU closed"
"https://www.usps.com","https://tools.usps.com/find-location.htm","PARCEL POST ANNEX","909 3RD AVE STE 300","NEW YORK","NY","10022-9352","US","1444236","2123305508","Usps","40.758397","-73.968053","<MISSING>"
"https://www.usps.com","https://tools.usps.com/find-location.htm","LENOX HILL NORTH","909 3RD AVE STE 400","NEW YORK","NY","10022-9991","US","1445836","2123305566","Usps","40.758397","-73.968053","<MISSING>"
"https://www.usps.com","https://tools.usps.com/find-location.htm","LENOX HILL SOUTH","909 3RD AVE STE 401","NEW YORK","NY","10022-9992","US","1445837","2123305566","Usps","40.758397","-73.968053","<MISSING>"
"https://www.usps.com","https://tools.usps.com/find-location.htm","HOBOKEN","89 RIVER ST","HOBOKEN","NJ","07030-9998","US","1367126","2016593017","Usps","40.736674","-74.028501","MO 08:00:00-17:00:00 TU 08:00:00-17:00:00 WE 08:00:00-17:00:00 TH 08:00:00-17:00:00 FR 08:00:00-17:00:00 SA 09:00:00-12:30:00 SU closed"
"https://www.usps.com","https://tools.usps.com/find-location.htm","ANSONIA","178 COLUMBUS AVE","NEW YORK","NY","10023-9998","US","1353142","2123621697","Usps","40.774834","-73.980963","MO 08:00:00-19:00:00 TU 08:00:00-19:00:00 WE 08:00:00-19:00:00 TH 08:00:00-19:00:00 FR 08:00:00-19:00:00 SA 09:00:00-16:00:00 SU closed"
"https://www.usps.com","https://tools.usps.com/find-location.htm","WEEHAWKEN","4100 PARK AVE STE 9","WEEHAWKEN","NJ","07086-9995","US","1433679","2018672856","Usps","40.774119","-74.020008","MO 09:00:00-16:00:00 TU 09:00:00-16:00:00 WE 09:00:00-16:00:00 TH 09:00:00-16:00:00 FR 09:00:00-16:00:00 SA closed SU closed"
"https://www.usps.com","https://tools.usps.com/find-location.htm","WEST SIDE HOBOKEN","502 GRAND ST STE A","HOBOKEN","NJ","07030-9994","US","1387193","2014590561","Usps","40.743371","-74.035074","MO 08:30:00-16:30:00 TU 08:30:00-16:30:00 WE 08:30:00-16:30:00 TH 08:30:00-16:30:00 FR 08:30:00-16:30:00 SA 09:00:00-12:30:00 SU closed"
"https://www.usps.com","https://tools.usps.com/find-location.htm","UNION CITY","301 30TH ST","UNION CITY","NJ","07087-9998","US","1385368","2018672576","Usps","40.770149","-74.028227","MO 10:00:00-17:00:00 TU 10:00:00-17:00:00 WE 10:00:00-17:00:00 TH 10:00:00-17:00:00 FR 10:00:00-17:00:00 SA 10:00:00-14:00:00 SU closed"
"https://www.usps.com","https://tools.usps.com/find-location.htm","CANAL STREET","350 CANAL ST STE 2A","NEW YORK","NY","10013-9998","US","1356838","2129669573","Usps","40.720501","-74.004144","MO 09:00:00-17:30:00 TU 09:00:00-17:30:00 WE 09:00:00-17:30:00 TH 09:00:00-17:30:00 FR 09:00:00-17:30:00 SA 09:00:00-16:00:00 SU closed"
"https://www.usps.com","https://tools.usps.com/find-location.htm","PRINCE ANNEX","350 CANAL ST STE 2B","NEW YORK","NY","10013-9992","US","1432988","2129669573","Usps","40.72047","-74.004099","MO 09:00:00-17:30:00 TU 09:00:00-17:30:00 WE 09:00:00-17:30:00 TH 09:00:00-17:30:00 FR 09:00:00-17:30:00 SA 09:00:00-16:00:00 SU closed"
"https://www.usps.com","https://tools.usps.com/find-location.htm","BERGENLINE","2100 BERGENLINE AVE","UNION CITY","NJ","07087-9991","US","1354721","2016175288","Usps","40.765761","-74.033528","MO 09:00:00-16:00:00 TU 09:00:00-16:00:00 WE 09:00:00-16:00:00 TH 09:00:00-16:00:00 FR 09:00:00-16:00:00 SA closed SU closed"
"https://www.usps.com","https://tools.usps.com/find-location.htm","TOMPKINS SQUARE","244 E 3RD ST","NEW YORK","NY","10009-9991","US","1384801","2126736415","Usps","40.721814","-73.981486","MO 09:30:00-17:00:00 TU 09:30:00-17:00:00 WE 09:30:00-17:00:00 TH 09:30:00-17:00:00 FR 09:30:00-17:00:00 SA closed SU closed"
"https://www.usps.com","https://tools.usps.com/find-location.htm","LENOX HILL","217 E 70TH ST","NEW YORK","NY","10021-9998","US","1370220","2128794401","Usps","40.768074","-73.960194","MO 08:00:00-19:00:00 TU 08:00:00-19:00:00 WE 08:00:00-19:00:00 TH 08:00:00-19:00:00 FR 08:00:00-19:00:00 SA 09:00:00-16:00:00 SU closed"
"https://www.usps.com","https://tools.usps.com/find-location.htm","SUMMIT AVENUE","720 8TH ST","UNION CITY","NJ","07087-9994","US","1383919","2018672576","Usps","40.758754","-74.0427","MO 09:00:00-16:00:00 TU 09:00:00-16:00:00 WE 09:00:00-16:00:00 TH 09:00:00-16:00:00 FR 09:00:00-16:00:00 SA closed SU closed"
"https://www.usps.com","https://tools.usps.com/find-location.htm","FORTY FIFTH STREET","4535 BERGENLINE AVE STE A","UNION CITY","NJ","07087-9993","US","1363877","2016174900","Usps","40.780405","-74.023103","MO 09:00:00-16:00:00 TU 09:00:00-16:00:00 WE 09:00:00-16:00:00 TH 09:00:00-16:00:00 FR 09:00:00-16:00:00 SA closed SU closed"
"https://www.usps.com","https://tools.usps.com/find-location.htm","26 FEDERAL PLAZA","26 FEDERAL PLZ LBBY 1","NEW YORK","NY","10278-9991","US","1444553","2126082420","Usps","40.715447","-74.004311","MO 09:00:00-16:00:00 TU 09:00:00-16:00:00 WE 09:00:00-16:00:00 TH 09:00:00-16:00:00 FR 09:00:00-16:00:00 SA closed SU closed"
"https://www.usps.com","https://tools.usps.com/find-location.htm","MONITOR","6010 PARK AVE","WEST NEW YORK","NJ","07093-9992","US","1373506","2018698375","Usps","40.78573","-74.00882","MO 09:00:00-13:00:00 TU 09:00:00-13:00:00 WE 09:00:00-13:00:00 TH 09:00:00-13:00:00 FR 09:00:00-13:00:00 SA closed SU closed"
"https://www.usps.com","https://tools.usps.com/find-location.htm","CHINATOWN","6 DOYERS ST","NEW YORK","NY","10013-9991","US","1356837","2123498264","Usps","40.714427","-73.997964","MO 10:00:00-17:30:00 TU 10:00:00-17:30:00 WE 10:00:00-17:30:00 TH 10:00:00-17:30:00 FR 10:00:00-17:30:00 SA 10:00:00-16:00:00 SU closed"
"https://www.usps.com","https://tools.usps.com/find-location.htm","PITT","185 CLINTON ST","NEW YORK","NY","10002-9991","US","1377656","2122549270","Usps","40.715365","-73.9873135","MO 09:00:00-17:00:00 TU 09:00:00-17:00:00 WE 09:00:00-17:00:00 TH 09:00:00-17:00:00 FR 09:00:00-17:00:00 SA closed SU closed"
"https://www.usps.com","https://tools.usps.com/find-location.htm","KNICKERBOCKER","128 E BROADWAY","NEW YORK","NY","10002-9998","US","1369214","2122671543","Usps","40.714091","-73.99185","MO 09:00:00-17:30:00 TU 09:00:00-17:30:00 WE 09:00:00-17:30:00 TH 09:00:00-17:30:00 FR 09:00:00-17:30:00 SA 09:00:00-16:00:00 SU closed"
"https://www.usps.com","https://tools.usps.com/find-location.htm","TYLER PARK","609 KENNEDY BLVD","NORTH BERGEN","NJ","07047-9994","US","1385278","2018635240","Usps","40.758329","-74.045494","MO 10:00:00-12:45:00 TU 10:00:00-12:45:00 WE 10:00:00-12:45:00 TH 10:00:00-12:45:00 FR 10:00:00-12:45:00 SA 09:00:00-13:00:00 SU closed"
"https://www.usps.com","https://tools.usps.com/find-location.htm","HUDSON CITY","392 CENTRAL AVE","JERSEY CITY","NJ","07307-9998","US","1367552","2017983936","Usps","40.748168","-74.047653","MO 07:30:00-17:00:00 TU 07:30:00-17:00:00 WE 07:30:00-17:00:00 TH 07:30:00-17:00:00 FR 07:30:00-17:00:00 SA 08:30:00-16:00:00 SU closed"
"https://www.usps.com","https://tools.usps.com/find-location.htm","WEST NEW YORK","5415 BERGENLINE AVE","WEST NEW YORK","NJ","07093-9998","US","1387115","2018655796","Usps","40.785543","-74.019353","MO 10:00:00-17:00:00 TU 10:00:00-17:00:00 WE 10:00:00-17:00:00 TH 10:00:00-17:00:00 FR 10:00:00-17:00:00 SA 10:00:00-16:00:00 SU closed"
"https://www.usps.com","https://tools.usps.com/find-location.htm","LONG ISLAND CITY","4602 21ST ST","LONG ISLAND CITY","NY","11101-9998","US","1370865","7183494634","Usps","40.745717","-73.948535","MO 09:00:00-17:00:00 TU 09:00:00-17:00:00 WE 09:00:00-17:00:00 TH 09:00:00-17:00:00 FR 09:00:00-17:00:00 SA 09:00:00-13:00:00 SU closed"
"https://www.usps.com","https://tools.usps.com/find-location.htm","PLANETARIUM","127 W 83RD ST","NEW YORK","NY","10024-9998","US","1377730","2128735698","Usps","40.785153","-73.974664","MO 07:30:00-19:00:00 TU 07:30:00-19:00:00 WE 07:30:00-19:00:00 TH 07:30:00-19:00:00 FR 07:30:00-19:00:00 SA 08:30:00-16:00:00 SU closed"
"https://www.usps.com","https://tools.usps.com/find-location.htm","CHURCH STREET","90 CHURCH ST FL 1","NEW YORK","NY","10007-9998","US","1433730","2123305001","Usps","40.712755","-74.010754","MO 08:00:00-20:00:00 TU 08:00:00-20:00:00 WE 08:00:00-20:00:00 TH 08:00:00-20:00:00 FR 08:00:00-20:00:00 SA 08:15:00-15:45:00 SU closed"
"https://www.usps.com","https://tools.usps.com/find-location.htm","GUTTENBERG","6900 PARK AVE","WEST NEW YORK","NJ","07093-9991","US","1433577","2018692729","Usps","40.792029","-74.00354","MO 09:00:00-13:00:00 TU 09:00:00-13:00:00 WE 09:00:00-13:00:00 TH 09:00:00-13:00:00 FR 09:00:00-13:00:00 SA closed SU closed"
"https://www.usps.com","https://tools.usps.com/find-location.htm","GREENPOINT","66 MESEROLE AVE","BROOKLYN","NY","11222-9997","US","1365611","7183895679","Usps","40.726319","-73.954513","MO 09:00:00-17:00:00 TU 09:00:00-17:00:00 WE 09:00:00-17:00:00 TH 09:00:00-17:00:00 FR 09:00:00-17:00:00 SA 08:00:00-13:00:00 SU closed"
"https://www.usps.com","https://tools.usps.com/find-location.htm","CHEROKEE","1483 YORK AVE FRNT 1","NEW YORK","NY","10075-9991","US","1357803","2125178361","Usps","40.771191","-73.950908","MO 09:00:00-17:00:00 TU 09:00:00-17:00:00 WE 09:00:00-17:00:00 TH 09:00:00-17:00:00 FR 09:00:00-17:00:00 SA 09:00:00-16:00:00 SU closed"
"https://www.usps.com","https://tools.usps.com/find-location.htm","ROOSEVELT ISLAND","694 MAIN ST","NEW YORK","NY","10044-9998","US","1379826","2128262327","Usps","40.765037","-73.946317","MO 10:00:00-17:00:00 TU 10:00:00-17:00:00 WE 10:00:00-17:00:00 TH 10:00:00-17:00:00 FR 10:00:00-17:00:00 SA 09:00:00-15:00:00 SU closed"
"https://www.usps.com","https://tools.usps.com/find-location.htm","NORTH BERGEN","4608 TONNELLE AVE","NORTH BERGEN","NJ","07047-9998","US","1375259","2018671346","Usps","40.784949","-74.032733","MO 08:30:00-17:00:00 TU 08:30:00-17:00:00 WE 08:30:00-17:00:00 TH 08:30:00-17:00:00 FR 08:30:00-17:00:00 SA 08:30:00-14:00:00 SU closed"
"https://www.usps.com","https://tools.usps.com/find-location.htm","TAURUS","6406 BERGENLINE AVE STE A","WEST NEW YORK","NJ","07093-9993","US","1384320","2018698463","Usps","40.792542","-74.013326","MO 09:00:00-13:00:00 TU 09:00:00-13:00:00 WE 09:00:00-13:00:00 TH 09:00:00-13:00:00 FR 09:00:00-13:00:00 SA closed SU closed"
"https://www.usps.com","https://tools.usps.com/find-location.htm","PECK SLIP","114 JOHN ST","NEW YORK","NY","10038-9991","US","1454732","2123305013","Usps","40.707495","-74.0066389","MO 09:00:00-17:00:00 TU 09:00:00-17:00:00 WE 09:00:00-17:00:00 TH 09:00:00-17:00:00 FR 09:00:00-17:00:00 SA 09:00:00-16:00:00 SU closed"
"https://www.usps.com","https://tools.usps.com/find-location.htm","GRACIE","229 E 85TH ST","NEW YORK","NY","10028-9998","US","1365244","2129886680","Usps","40.777719","-73.952937","MO 09:00:00-18:00:00 TU 09:00:00-18:00:00 WE 09:00:00-18:00:00 TH 09:00:00-18:00:00 FR 09:00:00-18:00:00 SA 09:00:00-16:00:00 SU closed"
"https://www.usps.com","https://tools.usps.com/find-location.htm","JERSEY CITY","69 MONTGOMERY ST","JERSEY CITY","NJ","07302-9998","US","1433590","2019157041","Usps","40.716469","-74.037109","MO 07:30:00-17:00:00 TU 07:30:00-17:00:00 WE 07:30:00-17:00:00 TH 07:30:00-17:00:00 FR 07:30:00-17:00:00 SA 08:30:00-16:00:00 SU closed"
"https://www.usps.com","https://tools.usps.com/find-location.htm","HANOVER","1 HANOVER ST FL 1","NEW YORK","NY","10005-9992","US","1444441","2124253610","Usps","40.705609","-74.00875","MO 10:00:00-18:00:00 TU 10:00:00-18:00:00 WE 10:00:00-18:00:00 TH 10:00:00-18:00:00 FR 10:00:00-18:00:00 SA closed SU closed"
"https://www.usps.com","https://tools.usps.com/find-location.htm","PARK WEST","700 COLUMBUS AVE FRNT 4","NEW YORK","NY","10025-9992","US","1376826","2128661981","Usps","40.792079","-73.968418","MO 09:00:00-17:00:00 TU 09:00:00-17:00:00 WE 09:00:00-17:00:00 TH 09:00:00-17:00:00 FR 09:00:00-17:00:00 SA 09:00:00-16:00:00 SU closed"
"https://www.usps.com","https://tools.usps.com/find-location.htm","YORKVILLE","1617 3RD AVE","NEW YORK","NY","10128-9991","US","1388511","2123692747","Usps","40.781733","-73.951354","MO 09:00:00-18:00:00 TU 09:00:00-18:00:00 WE 09:00:00-18:00:00 TH 09:00:00-18:00:00 FR 09:00:00-18:00:00 SA 09:00:00-16:00:00 SU closed"
"https://www.usps.com","https://tools.usps.com/find-location.htm","WHITEHALL","1 WHITEHALL ST FRNT 2","NEW YORK","NY","10004-9992","US","1444436","2123305151","Usps","40.703691","-74.012982","MO 10:00:00-18:00:00 TU 10:00:00-18:00:00 WE 10:00:00-18:00:00 TH 10:00:00-18:00:00 FR 10:00:00-18:00:00 SA closed SU closed"
"https://www.usps.com","https://tools.usps.com/find-location.htm","DUMBO APC","84 FRONT ST STE APC","BROOKLYN","NY","11201-1004","US","1450638","<MISSING>","Usps","40.702327","-73.989189","<MISSING>"
"https://www.usps.com","https://tools.usps.com/find-location.htm","FIVE CORNERS","645 NEWARK AVE","JERSEY CITY","NJ","07306-9991","US","1433568","2017982704","Usps","40.733823","-74.058651","MO 08:30:00-17:00:00 TU 08:30:00-17:00:00 WE 08:30:00-17:00:00 TH 08:30:00-17:00:00 FR 08:30:00-17:00:00 SA 08:30:00-16:00:00 SU closed"
"https://www.usps.com","https://tools.usps.com/find-location.htm","MEADOWS","700 PLAZA DR STE A","SECAUCUS","NJ","07094-9992","US","1372486","2018666314","Usps","40.786762","-74.044197","MO 10:00:00-14:00:00 TU 10:00:00-14:00:00 WE 10:00:00-14:00:00 TH 10:00:00-14:00:00 FR 10:00:00-14:00:00 SA closed SU closed"
"https://www.usps.com","https://tools.usps.com/find-location.htm","WILLIAMSBURG","263 S 4TH ST","BROOKLYN","NY","11211-9997","US","1387747","9172464128","Usps","40.710059","-73.957155","MO 09:30:00-17:30:00 TU 09:30:00-17:30:00 WE 09:30:00-17:30:00 TH 09:30:00-17:30:00 FR 09:30:00-17:30:00 SA 09:30:00-16:00:00 SU closed"
"https://www.usps.com","https://tools.usps.com/find-location.htm","WOODCLIFF","7915 BERGENLINE AVE","NORTH BERGEN","NJ","07047-9996","US","1388174","2018692631","Usps","40.802379","-74.006654","MO 10:00:00-19:00:00 TU 10:00:00-19:00:00 WE 10:00:00-19:00:00 TH 10:00:00-19:00:00 FR 10:00:00-19:00:00 SA 08:30:00-14:00:00 SU closed"
"https://www.usps.com","https://tools.usps.com/find-location.htm","BROADWAY","2117 BROADWAY","ASTORIA","NY","11106-9997","US","1355948","3473963221","Usps","40.765104","-73.930436","MO 10:00:00-17:00:00 TU 10:00:00-17:00:00 WE 10:00:00-17:00:00 TH 10:00:00-17:00:00 FR 10:00:00-17:00:00 SA 09:00:00-13:00:00 SU closed"
"https://www.usps.com","https://tools.usps.com/find-location.htm","PLAZA","4254 23RD ST","LONG ISLAND CITY","NY","11101-9995","US","1482334","7189379126","Usps","40.765104","-73.930436","MO 09:00:00-17:00:00 TU 09:00:00-17:00:00 WE 09:00:00-17:00:00 TH 09:00:00-17:00:00 FR 09:00:00-17:00:00 SA closed SU closed"
"https://www.usps.com","https://tools.usps.com/find-location.htm","CATHEDRAL","215 W 104TH ST","NEW YORK","NY","10025-9998","US","1357296","2126620355","Usps","40.799938","-73.967204","MO 09:00:00-19:00:00 TU 09:00:00-19:00:00 WE 09:00:00-19:00:00 TH 09:00:00-19:00:00 FR 09:00:00-19:00:00 SA 09:00:00-16:00:00 SU closed"
"https://www.usps.com","https://tools.usps.com/find-location.htm","SECAUCUS","300 COUNTY AVE","SECAUCUS","NJ","07094-9998","US","1381124","2018671557","Usps","40.774071","-74.062652","MO 08:30:00-17:00:00 TU 08:30:00-17:00:00 WE 08:30:00-17:00:00 TH 08:30:00-17:00:00 FR 08:30:00-17:00:00 SA 10:00:00-16:00:00 SU closed"
"https://www.usps.com","https://tools.usps.com/find-location.htm","CADMAN PLAZA","271 CADMAN PLZ E STE 2","BROOKLYN","NY","11201-9997","US","1433796","7188550912","Usps","40.695545","-73.989575","MO 07:00:00-20:00:00 TU 07:00:00-20:00:00 WE 07:00:00-20:00:00 TH 07:00:00-20:00:00 FR 07:00:00-20:00:00 SA 07:00:00-16:00:00 SU closed"
"https://www.usps.com","https://tools.usps.com/find-location.htm","JOURNAL SQUARE","899 BERGEN AVE","JERSEY CITY","NJ","07306-9998","US","1368568","2017982681","Usps","40.730034","-74.065656","MO 07:30:00-17:00:00 TU 07:30:00-17:00:00 WE 07:30:00-17:00:00 TH 07:30:00-17:00:00 FR 07:30:00-17:00:00 SA 07:30:00-16:00:00 SU closed"
"https://www.usps.com","https://tools.usps.com/find-location.htm","ASTORIA","3011 21ST ST STE A","ASTORIA","NY","11102-9996","US","1466724","7187210875","Usps","40.76938","-73.9281579","MO 09:00:00-17:00:00 TU 09:00:00-17:00:00 WE 09:00:00-17:00:00 TH 09:00:00-17:00:00 FR 09:00:00-17:00:00 SA 09:00:00-13:00:00 SU closed"
"https://www.usps.com","https://tools.usps.com/find-location.htm","MUNICIPAL","210 JORALEMON ST FL 1","BROOKLYN","NY","11201-9993","US","1374249","7185967263","Usps","40.692038","-73.990427","MO 09:00:00-17:00:00 TU 09:00:00-17:00:00 WE 09:00:00-17:00:00 TH 09:00:00-17:00:00 FR 09:00:00-17:00:00 SA closed SU closed"
"https://www.usps.com","https://tools.usps.com/find-location.htm","PLAZA","1257 PATERSON PLANK RD STE C","SECAUCUS","NJ","07094-9991","US","1433635","2018671278","Usps","40.789195","-74.056807","MO 08:30:00-16:30:00 TU 08:30:00-16:30:00 WE 08:30:00-16:30:00 TH 08:30:00-16:30:00 FR 08:30:00-16:30:00 SA 09:00:00-13:00:00 SU closed"
"https://www.usps.com","https://tools.usps.com/find-location.htm","COLUMBIA UNIVERSITY","534 W 112TH ST","NEW YORK","NY","10025-9991","US","1358793","2128647813","Usps","40.804951","-73.964891","MO 09:00:00-17:00:00 TU 09:00:00-17:00:00 WE 09:00:00-17:00:00 TH 09:00:00-17:00:00 FR 09:00:00-17:00:00 SA 09:00:00-16:00:00 SU closed"
"https://www.usps.com","https://tools.usps.com/find-location.htm","FAIRVIEW","6 ANDERSON AVE","FAIRVIEW","NJ","07022-9998","US","1363050","2019435738","Usps","40.810679","-74.000086","MO 08:00:00-16:30:00 TU 08:00:00-16:30:00 WE 08:00:00-16:30:00 TH 08:00:00-16:30:00 FR 08:00:00-16:30:00 SA 08:30:00-12:30:00 SU closed"
"https://www.usps.com","https://tools.usps.com/find-location.htm","SUNNYSIDE","4515 44TH ST","SUNNYSIDE","NY","11104-9997","US","1383998","7187297806","Usps","40.742682","-73.920484","MO 10:00:00-17:00:00 TU 10:00:00-17:00:00 WE 10:00:00-17:00:00 TH 10:00:00-17:00:00 FR 10:00:00-17:00:00 SA 09:00:00-13:00:00 SU closed"
"https://www.usps.com","https://tools.usps.com/find-location.htm","HELLGATE STATION","153 E 110TH ST","NEW YORK","NY","10029-9998","US","1366673","2128601896","Usps","40.794717","-73.943808","MO 09:00:00-17:00:00 TU 09:00:00-17:00:00 WE 09:00:00-17:00:00 TH 09:00:00-17:00:00 FR 09:00:00-17:00:00 SA 09:00:00-16:00:00 SU closed"
"https://www.usps.com","https://tools.usps.com/find-location.htm","MORNINGSIDE","232 W 116TH ST","NEW YORK","NY","10026-9998","US","1373811","2128643158","Usps","40.80364","-73.954183","MO 08:30:00-17:30:00 TU 08:30:00-17:30:00 WE 08:30:00-17:30:00 TH 08:30:00-17:30:00 FR 08:30:00-17:30:00 SA 09:00:00-16:00:00 SU closed"
"https://www.usps.com","https://tools.usps.com/find-location.htm","STEINWAY","4304 BROADWAY","ASTORIA","NY","11103-9997","US","1383499","7187261369","Usps","40.757615","-73.916583","MO 09:00:00-17:00:00 TU 09:00:00-17:00:00 WE 09:00:00-17:00:00 TH 09:00:00-17:00:00 FR 09:00:00-17:00:00 SA 09:00:00-13:00:00 SU closed"
"https://www.usps.com","https://tools.usps.com/find-location.htm","CLIFFSIDE PARK","289 GORGE RD","CLIFFSIDE PARK","NJ","07010-9998","US","1358359","2019435271","Usps","40.813973","-73.990506","MO 08:30:00-17:00:00 TU 08:30:00-17:00:00 WE 08:30:00-17:00:00 TH 08:30:00-17:00:00 FR 08:30:00-17:00:00 SA 08:30:00-14:00:00 SU closed"
"https://www.usps.com","https://tools.usps.com/find-location.htm","PRATT","609 MYRTLE AVE STE A","BROOKLYN","NY","11205-9996","US","1470157","3472721757","Usps","40.69432","-73.959534","MO 09:00:00-17:00:00 TU 09:00:00-17:00:00 WE 09:00:00-17:00:00 TH 09:00:00-17:00:00 FR 09:00:00-17:00:00 SA 09:00:00-13:00:00 SU closed"
"https://www.usps.com","https://tools.usps.com/find-location.htm","METROPOLITAN","47 DEBEVOISE ST","BROOKLYN","NY","11206-9997","US","1372861","3472721755","Usps","40.702034","-73.941293","MO 09:00:00-17:00:00 TU 09:00:00-17:00:00 WE 09:00:00-17:00:00 TH 09:00:00-17:00:00 FR 09:00:00-17:00:00 SA 08:00:00-13:00:00 SU closed"
"https://www.usps.com","https://tools.usps.com/find-location.htm","BERGEN NORTH","528 BERGEN AVE","JERSEY CITY","NJ","07304-9998","US","1354719","2013320919","Usps","40.718649","-74.074709","MO 08:30:00-17:00:00 TU 08:30:00-17:00:00 WE 08:30:00-17:00:00 TH 08:30:00-17:00:00 FR 08:30:00-17:00:00 SA 08:30:00-16:00:00 SU closed"
"https://www.usps.com","https://tools.usps.com/find-location.htm","TIMES PLAZA","539 ATLANTIC AVE","BROOKLYN","NY","11217-9996","US","1482799","7187971516","Usps","40.685088","-73.979547","MO 09:00:00-17:00:00 TU 09:00:00-17:00:00 WE 09:00:00-17:00:00 TH 09:00:00-17:00:00 FR 09:00:00-17:00:00 SA 08:00:00-13:00:00 SU closed"
"https://www.usps.com","https://tools.usps.com/find-location.htm","GRAND","4508 30TH AVE STE A","ASTORIA","NY","11103-9991","US","1365340","7182741428","Usps","40.761718","-73.91081","MO 09:00:00-17:00:00 TU 09:00:00-17:00:00 WE 09:00:00-17:00:00 TH 09:00:00-17:00:00 FR 09:00:00-17:00:00 SA closed SU closed"
"https://www.usps.com","https://tools.usps.com/find-location.htm","MANHATTANVILLE","365 W 125TH ST STE 2A","NEW YORK","NY","10027-9998","US","1371645","2126621540","Usps","40.811409","-73.953148","MO 08:00:00-19:00:00 TU 08:00:00-19:00:00 WE 08:00:00-19:00:00 TH 08:00:00-19:00:00 FR 08:00:00-19:00:00 SA 08:00:00-16:00:00 SU closed"
"https://www.usps.com","https://tools.usps.com/find-location.htm","MORNINGSIDE ANNEX","365 W 125TH ST STE 2B","NEW YORK","NY","10027-9868","US","1432989","2126621540","Usps","40.811417","-73.953159","<MISSING>"
"https://www.usps.com","https://tools.usps.com/find-location.htm","WOOLSEY","2268 31ST ST","ASTORIA","NY","11105-9997","US","1388283","7182747396","Usps","40.774827","-73.91266","MO 09:00:00-17:00:00 TU 09:00:00-17:00:00 WE 09:00:00-17:00:00 TH 09:00:00-17:00:00 FR 09:00:00-17:00:00 SA 09:00:00-13:00:00 SU closed"
"https://www.usps.com","https://tools.usps.com/find-location.htm","TRIBOROUGH FINANCE NEW","118 E 124TH ST","NEW YORK","NY","10035-9997","US","1480375","2127220751","Usps","40.803937","-73.93878","MO 09:00:00-17:00:00 TU 09:00:00-17:00:00 WE 09:00:00-17:00:00 TH 09:00:00-17:00:00 FR 09:00:00-17:00:00 SA 09:00:00-16:00:00 SU closed"
"https://www.usps.com","https://tools.usps.com/find-location.htm","EDGEWATER","770 RIVER RD","EDGEWATER","NJ","07020-9998","US","1362075","2019454297","Usps","40.821316","-73.977659","MO 10:00:00-19:00:00 TU 10:00:00-19:00:00 WE 10:00:00-19:00:00 TH 10:00:00-19:00:00 FR 10:00:00-19:00:00 SA 10:00:00-16:00:00 SU closed"
"https://www.usps.com","https://tools.usps.com/find-location.htm","WOODSIDE","3925 61ST ST","WOODSIDE","NY","11377-9997","US","1388237","7188038529","Usps","40.746388","-73.902777","MO 08:30:00-17:00:00 TU 08:30:00-17:00:00 WE 08:30:00-17:00:00 TH 08:30:00-17:00:00 FR 08:30:00-17:00:00 SA 08:30:00-13:00:00 SU closed"
"https://www.usps.com","https://tools.usps.com/find-location.htm","WEST SIDE JERSEY CITY","504 W SIDE AVE","JERSEY CITY","NJ","07304-9992","US","1387194","2013326519","Usps","40.718029","-74.083761","MO 08:30:00-17:00:00 TU 08:30:00-17:00:00 WE 08:30:00-17:00:00 TH 08:30:00-17:00:00 FR 08:30:00-17:00:00 SA 08:30:00-16:00:00 SU closed"
"https://www.usps.com","https://tools.usps.com/find-location.htm","BERGEN SOUTH","369 MARTIN LUTHER KING JR DR","JERSEY CITY","NJ","07305-9997","US","1354718","2013693960","Usps","40.711498","-74.079041","MO 08:00:00-17:00:00 TU 08:00:00-17:00:00 WE 08:00:00-17:00:00 TH 08:00:00-17:00:00 FR 08:00:00-17:00:00 SA 08:00:00-16:00:00 SU closed"
"https://www.usps.com","https://tools.usps.com/find-location.htm","TIMES PLAZA ANNEX","594 DEAN ST","BROOKLYN","NY","11238-9996","US","1482800","7186220341","Usps","40.680499","-73.970444","MO 10:00:00-19:00:00 TU 10:00:00-19:00:00 WE 10:00:00-19:00:00 TH 10:00:00-19:00:00 FR 10:00:00-19:00:00 SA 10:00:00-15:00:00 SU closed"
"https://www.usps.com","https://tools.usps.com/find-location.htm","ADELPHI","950 FULTON ST","BROOKLYN","NY","11238-9997","US","1352387","3472721938","Usps","40.682326","-73.962818","MO 09:00:00-17:00:00 TU 09:00:00-17:00:00 WE 09:00:00-17:00:00 TH 09:00:00-17:00:00 FR 09:00:00-17:00:00 SA 08:00:00-13:00:00 SU closed"
"https://www.usps.com","https://tools.usps.com/find-location.htm","CLIFF PARK","589 ANDERSON AVE","CLIFFSIDE PARK","NJ","07010-9991","US","1358351","2019456428","Usps","40.824283","-73.989008","MO 08:30:00-11:00:00 TU 08:30:00-11:00:00 WE 08:30:00-11:00:00 TH 08:30:00-11:00:00 FR 08:30:00-11:00:00 SA closed SU closed"
"https://www.usps.com","https://tools.usps.com/find-location.htm","WYCKOFF HEIGHTS","86 WYCKOFF AVE","BROOKLYN","NY","11237-9997","US","1388370","7183863629","Usps","40.704372","-73.919763","MO 09:00:00-17:00:00 TU 09:00:00-17:00:00 WE 09:00:00-17:00:00 TH 09:00:00-17:00:00 FR 09:00:00-17:00:00 SA 08:00:00-13:00:00 SU closed"
"https://www.usps.com","https://tools.usps.com/find-location.htm","RED HOOK","615 CLINTON ST","BROOKLYN","NY","11231-9997","US","1378947","7186247756","Usps","40.674079","-74.001864","MO 09:00:00-17:00:00 TU 09:00:00-17:00:00 WE 09:00:00-17:00:00 TH 09:00:00-17:00:00 FR 09:00:00-17:00:00 SA 08:00:00-13:00:00 SU closed"
"https://www.usps.com","https://tools.usps.com/find-location.htm","LINCOLNTON","2266 5TH AVE","NEW YORK","NY","10037-9998","US","1370501","2122813281","Usps","40.815183","-73.936241","MO 09:00:00-17:00:00 TU 09:00:00-17:00:00 WE 09:00:00-17:00:00 TH 09:00:00-17:00:00 FR 09:00:00-17:00:00 SA 09:00:00-16:00:00 SU closed"
"https://www.usps.com","https://tools.usps.com/find-location.htm","COLLEGE STATION","217 W 140TH ST","NEW YORK","NY","10030-9998","US","1358666","2122837096","Usps","40.819166","-73.942591","MO 09:00:00-17:00:00 TU 09:00:00-17:00:00 WE 09:00:00-17:00:00 TH 09:00:00-17:00:00 FR 09:00:00-17:00:00 SA 09:00:00-16:00:00 SU closed"
"https://www.usps.com","https://tools.usps.com/find-location.htm","BREVOORT","1205 ATLANTIC AVE","BROOKLYN","NY","11216-9997","US","1355775","7186387099","Usps","40.678831","-73.950961","MO 09:00:00-17:00:00 TU 09:00:00-17:00:00 WE 09:00:00-17:00:00 TH 09:00:00-17:00:00 FR 09:00:00-17:00:00 SA 08:00:00-13:00:00 SU closed"
"https://www.usps.com","https://tools.usps.com/find-location.htm","PARK SLOPE","198 7TH AVE STE A","BROOKLYN","NY","11215-9993","US","1433843","7188343048","Usps","40.670983","-73.978409","MO 09:00:00-17:00:00 TU 09:00:00-17:00:00 WE 09:00:00-17:00:00 TH 09:00:00-17:00:00 FR 09:00:00-17:00:00 SA 08:00:00-14:30:00 SU closed"
"https://www.usps.com","https://tools.usps.com/find-location.htm","VAN BRUNT","275 9TH ST","BROOKLYN","NY","11215-9997","US","1385701","7187685630","Usps","40.669875","-73.987081","MO 09:00:00-17:00:00 TU 09:00:00-17:00:00 WE 09:00:00-17:00:00 TH 09:00:00-17:00:00 FR 09:00:00-17:00:00 SA 08:00:00-13:00:00 SU closed"
"https://www.usps.com","https://tools.usps.com/find-location.htm","RESTORATION PLAZA","1360 FULTON ST STE 1","BROOKLYN","NY","11216-9993","US","1379126","7187893072","Usps","40.679785","-73.946162","MO 09:00:00-17:00:00 TU 09:00:00-17:00:00 WE 09:00:00-17:00:00 TH 09:00:00-17:00:00 FR 09:00:00-17:00:00 SA 08:00:00-13:00:00 SU closed"
"https://www.usps.com","https://tools.usps.com/find-location.htm","MASPETH","5502 69TH ST","MASPETH","NY","11378-9997","US","1372108","7184575623","Usps","40.727645","-73.895784","MO 09:00:00-17:00:00 TU 09:00:00-17:00:00 WE 09:00:00-17:00:00 TH 09:00:00-17:00:00 FR 09:00:00-17:00:00 SA 09:00:00-14:00:00 SU closed"
"https://www.usps.com","https://tools.usps.com/find-location.htm","TRAINSMEADOW","7577 31ST AVE","EAST ELMHURST","NY","11370-9993","US","1384936","7184575562","Usps","40.760348","-73.891387","MO 09:00:00-17:00:00 TU 09:00:00-17:00:00 WE 09:00:00-17:00:00 TH 09:00:00-17:00:00 FR 09:00:00-17:00:00 SA 09:00:00-13:00:00 SU closed"
"https://www.usps.com","https://tools.usps.com/find-location.htm","MOTT HAVEN","517 E 139TH ST","BRONX","NY","10454-9998","US","1373921","7185859611","Usps","40.808196","-73.91811","MO 09:00:00-17:00:00 TU 09:00:00-17:00:00 WE 09:00:00-17:00:00 TH 09:00:00-17:00:00 FR 09:00:00-17:00:00 SA 09:00:00-14:00:00 SU closed"
"https://www.usps.com","https://tools.usps.com/find-location.htm","BUSHWICK","1369 BROADWAY","BROOKLYN","NY","11221-9997","US","1356467","7186023111","Usps","40.689571","-73.921755","MO 09:00:00-17:30:00 TU 09:00:00-17:30:00 WE 09:00:00-17:30:00 TH 09:00:00-17:30:00 FR 09:00:00-17:30:00 SA 08:00:00-13:00:00 SU closed"
"https://www.usps.com","https://tools.usps.com/find-location.htm","HAMILTON GRANGE STATION","521 W 146TH ST","NEW YORK","NY","10031-9998","US","1366034","2122811538","Usps","40.826673","-73.948349","MO 08:00:00-17:00:00 TU 08:00:00-17:00:00 WE 08:00:00-17:00:00 TH 08:00:00-17:00:00 FR 08:00:00-17:00:00 SA 08:00:00-16:00:00 SU closed"
"https://www.usps.com","https://tools.usps.com/find-location.htm","JACKSON HEIGHTS","7802 37TH AVE","JACKSON HEIGHTS","NY","11372-9997","US","1368177","7184267359","Usps","40.749172","-73.887434","MO 08:30:00-17:00:00 TU 08:30:00-17:00:00 WE 08:30:00-17:00:00 TH 08:30:00-17:00:00 FR 08:30:00-17:00:00 SA 09:00:00-15:00:00 SU closed"
"https://www.usps.com","https://tools.usps.com/find-location.htm","UPTOWN PARCEL ANNEX","845 E 136TH ST","BRONX","NY","10454-9941","US","1534577","3322082868","Usps","40.802076","-73.909778","<MISSING>"
"https://www.usps.com","https://tools.usps.com/find-location.htm","BRONX","558 GRAND CONCOURSE","BRONX","NY","10451-9998","US","1433716","7184023430","Usps","40.818976","-73.926549","MO 07:00:00-20:00:00 TU 07:00:00-20:00:00 WE 07:00:00-20:00:00 TH 07:00:00-20:00:00 FR 07:00:00-20:00:00 SA 08:00:00-18:00:00 SU closed"
"https://www.usps.com","https://tools.usps.com/find-location.htm","ELMHURST A","8027 BROADWAY","ELMHURST","NY","11373-9993","US","1362445","7188038967","Usps","40.743889","-73.884382","MO 08:30:00-17:00:00 TU 08:30:00-17:00:00 WE 08:30:00-17:00:00 TH 08:30:00-17:00:00 FR 08:30:00-17:00:00 SA 08:30:00-15:00:00 SU closed"
"https://www.usps.com","https://tools.usps.com/find-location.htm","FRESH POND","6080 WOODBINE ST","RIDGEWOOD","NY","11385-9993","US","1364163","7188212061","Usps","40.707583","-73.897804","MO 09:00:00-17:00:00 TU 09:00:00-17:00:00 WE 09:00:00-17:00:00 TH 09:00:00-17:00:00 FR 09:00:00-17:00:00 SA closed SU closed"
"https://www.usps.com","https://tools.usps.com/find-location.htm","RIDGEFIELD","757 BROAD AVE","RIDGEFIELD","NJ","07657-9998","US","1379296","2019438729","Usps","40.839034","-74.005071","MO 08:30:00-17:00:00 TU 08:30:00-17:00:00 WE 08:30:00-17:00:00 TH 08:30:00-17:00:00 FR 08:30:00-17:00:00 SA 10:00:00-13:00:00 SU closed"
"https://www.usps.com","https://tools.usps.com/find-location.htm","PALISADE","1213 ANDERSON AVE","FORT LEE","NJ","07024-9991","US","1376631","2012248787","Usps","40.83978","-73.981664","MO 08:30:00-16:30:00 TU 08:30:00-16:30:00 WE 08:30:00-16:30:00 TH 08:30:00-16:30:00 FR 08:30:00-16:30:00 SA 08:30:00-12:00:00 SU closed"
"https://www.usps.com","https://tools.usps.com/find-location.htm","COLONIAL PARK","99 MACOMBS PL","NEW YORK","NY","10039-9998","US","1358727","2123689849","Usps","40.827688","-73.936482","MO 09:00:00-17:00:00 TU 09:00:00-17:00:00 WE 09:00:00-17:00:00 TH 09:00:00-17:00:00 FR 09:00:00-17:00:00 SA 09:00:00-16:00:00 SU closed"
"https://www.usps.com","https://tools.usps.com/find-location.htm","PROSPECT PARK WEST","225 PROSPECT PARK W STE A","BROOKLYN","NY","11215-9992","US","1433849","7188343048","Usps","40.659972","-73.980406","MO 09:00:00-17:00:00 TU 09:00:00-17:00:00 WE 09:00:00-17:00:00 TH 09:00:00-17:00:00 FR 09:00:00-17:00:00 SA closed SU closed"
"https://www.usps.com","https://tools.usps.com/find-location.htm","HALSEY","805 MACDONOUGH ST","BROOKLYN","NY","11233-9993","US","1366006","7184936808","Usps","40.68458","-73.913988","MO 09:00:00-17:00:00 TU 09:00:00-17:00:00 WE 09:00:00-17:00:00 TH 09:00:00-17:00:00 FR 09:00:00-17:00:00 SA closed SU closed"
"https://www.usps.com","https://tools.usps.com/find-location.htm","MAJOR ROBERT OWENS","1234 SAINT JOHNS PL","BROOKLYN","NY","11213-9997","US","1380371","7187749688","Usps","40.670586","-73.937489","MO 09:00:00-17:00:00 TU 09:00:00-17:00:00 WE 09:00:00-17:00:00 TH 09:00:00-17:00:00 FR 09:00:00-17:00:00 SA 08:00:00-13:00:00 SU closed"
"https://www.usps.com","https://tools.usps.com/find-location.htm","HUB","633 SAINT ANNS AVE","BRONX","NY","10455-9998","US","1367532","7186651942","Usps","40.816315","-73.912132","MO 09:00:00-17:00:00 TU 09:00:00-17:00:00 WE 09:00:00-17:00:00 TH 09:00:00-17:00:00 FR 09:00:00-17:00:00 SA 09:00:00-14:00:00 SU closed"
"https://www.usps.com","https://tools.usps.com/find-location.htm","GREENVILLE","137 OCEAN AVE","JERSEY CITY","NJ","07305-9991","US","1365673","2013326304","Usps","40.693423","-74.093692","MO 08:30:00-17:00:00 TU 08:30:00-17:00:00 WE 08:30:00-17:00:00 TH 08:30:00-17:00:00 FR 08:30:00-17:00:00 SA 08:30:00-16:00:00 SU closed"
"https://www.usps.com","https://tools.usps.com/find-location.htm","EAST ELMHURST","9107 25TH AVE","EAST ELMHURST","NY","11369-9997","US","1361708","7188038968","Usps","40.76422","-73.878087","MO 09:00:00-17:00:00 TU 09:00:00-17:00:00 WE 09:00:00-17:00:00 TH 09:00:00-17:00:00 FR 09:00:00-17:00:00 SA 09:00:00-16:00:00 SU closed"
"https://www.usps.com","https://tools.usps.com/find-location.htm","FORT WASHINGTON","556 W 158TH ST FRNT 1","NEW YORK","NY","10032-7222","US","1434066","2129236654","Usps","40.834311","-73.944029","MO 09:00:00-17:00:00 TU 09:00:00-17:00:00 WE 09:00:00-17:00:00 TH 09:00:00-17:00:00 FR 09:00:00-17:00:00 SA closed SU closed"
"https://www.usps.com","https://tools.usps.com/find-location.htm","RIDGEWOOD","6060 MYRTLE AVE","RIDGEWOOD","NY","11385-9997","US","1379324","3472941466","Usps","40.700476","-73.895754","MO 09:00:00-17:00:00 TU 09:00:00-17:00:00 WE 09:00:00-17:00:00 TH 09:00:00-17:00:00 FR 09:00:00-17:00:00 SA 09:00:00-14:00:00 SU closed"
"https://www.usps.com","https://tools.usps.com/find-location.htm","SHIRLEY A CHISHOLM","1915 FULTON ST","BROOKLYN","NY","11233-9997","US","1383815","3472941318","Usps","40.679037","-73.919872","MO 09:00:00-17:00:00 TU 09:00:00-17:00:00 WE 09:00:00-17:00:00 TH 09:00:00-17:00:00 FR 09:00:00-17:00:00 SA 08:00:00-13:00:00 SU closed"
"https://www.usps.com","https://tools.usps.com/find-location.htm","JAMES E DAVIS","315 EMPIRE BLVD","BROOKLYN","NY","11225-9997","US","1370140","3472276970","Usps","40.664172","-73.951778","MO 09:00:00-17:00:00 TU 09:00:00-17:00:00 WE 09:00:00-17:00:00 TH 09:00:00-17:00:00 FR 09:00:00-17:00:00 SA 08:00:00-13:00:00 SU closed"
"https://www.usps.com","https://tools.usps.com/find-location.htm","BUSH TERMINAL","900 3RD AVE","BROOKLYN","NY","11232-9997","US","1356460","7187883542","Usps","40.657171","-74.005408","MO 09:00:00-17:00:00 TU 09:00:00-17:00:00 WE 09:00:00-17:00:00 TH 09:00:00-17:00:00 FR 09:00:00-17:00:00 SA 08:00:00-13:00:00 SU closed"
"https://www.usps.com","https://tools.usps.com/find-location.htm","STADIUM","901 GERARD AVE FRNT 1","BRONX","NY","10452-9992","US","1383223","7182839007","Usps","40.828367","-73.924793","MO 08:00:00-16:00:00 TU 08:00:00-16:00:00 WE 08:00:00-16:00:00 TH 08:00:00-16:00:00 FR 08:00:00-16:00:00 SA closed SU closed"
"https://www.usps.com","https://tools.usps.com/find-location.htm","MIDDLE VILLAGE","7135 METROPOLITAN AVE","MIDDLE VILLAGE","NY","11379-9997","US","1372933","7183268754","Usps","40.712692","-73.883184","MO 09:00:00-17:00:00 TU 09:00:00-17:00:00 WE 09:00:00-17:00:00 TH 09:00:00-17:00:00 FR 09:00:00-17:00:00 SA 09:00:00-14:00:00 SU closed"
"https://www.usps.com","https://tools.usps.com/find-location.htm","JUNCTION BOULEVARD","3323 JUNCTION BLVD STE 1","JACKSON HEIGHTS","NY","11372-9993","US","1368598","7185651703","Usps","40.756147","-73.873044","MO 09:00:00-17:00:00 TU 09:00:00-17:00:00 WE 09:00:00-17:00:00 TH 09:00:00-17:00:00 FR 09:00:00-17:00:00 SA closed SU closed"
"https://www.usps.com","https://tools.usps.com/find-location.htm","MELCOURT","860 MELROSE AVE FRNT 2","BRONX","NY","10451-9993","US","1441515","7182924581","Usps","40.823749","-73.913886","MO 08:00:00-16:00:00 TU 08:00:00-16:00:00 WE 08:00:00-16:00:00 TH 08:00:00-16:00:00 FR 08:00:00-16:00:00 SA closed SU closed"
"https://www.usps.com","https://tools.usps.com/find-location.htm","AUDUBON","511 W 165TH ST","NEW YORK","NY","10032-9998","US","1353673","2125682387","Usps","40.838654","-73.939068","MO 09:00:00-17:00:00 TU 09:00:00-17:00:00 WE 09:00:00-17:00:00 TH 09:00:00-17:00:00 FR 09:00:00-17:00:00 SA 09:00:00-16:00:00 SU closed"
"https://www.usps.com","https://tools.usps.com/find-location.htm","PALISADES PARK","117 W CENTRAL BLVD STE 1","PALISADES PARK","NJ","07650-9998","US","1376634","2019431690","Usps","40.851031","-74.002004","MO 08:30:00-17:00:00 TU 08:30:00-17:00:00 WE 08:30:00-17:00:00 TH 08:30:00-17:00:00 FR 08:30:00-17:00:00 SA 09:00:00-14:00:00 SU closed"
"https://www.usps.com","https://tools.usps.com/find-location.htm","REGO PARK","9224 QUEENS BLVD","REGO PARK","NY","11374-9997","US","1379049","7184575589","Usps","40.732225","-73.868386","MO 08:30:00-17:00:00 TU 08:30:00-17:00:00 WE 08:30:00-17:00:00 TH 08:30:00-17:00:00 FR 08:30:00-17:00:00 SA 08:30:00-16:00:00 SU closed"
"https://www.usps.com","https://tools.usps.com/find-location.htm","GLENDALE","6936 MYRTLE AVE","GLENDALE","NY","11385-9994","US","1364950","7184181185","Usps","40.701741","-73.8813","MO 09:00:00-17:00:00 TU 09:00:00-17:00:00 WE 09:00:00-17:00:00 TH 09:00:00-17:00:00 FR 09:00:00-17:00:00 SA 09:00:00-12:00:00 SU closed"
"https://www.usps.com","https://tools.usps.com/find-location.htm","FORT LEE","229 MAIN ST","FORT LEE","NJ","07024-9998","US","1363800","2019441865","Usps","40.851742","-73.971315","MO 08:30:00-17:00:00 TU 08:30:00-17:00:00 WE 08:30:00-17:00:00 TH 08:30:00-17:00:00 FR 08:30:00-17:00:00 SA 08:30:00-13:00:00 SU closed"
"https://www.usps.com","https://tools.usps.com/find-location.htm","LITTLE FERRY","20 MAIN ST","LITTLE FERRY","NJ","07643-9998","US","1370631","2016417843","Usps","40.850341","-74.033407","MO 08:30:00-17:00:00 TU 08:30:00-17:00:00 WE 08:30:00-17:00:00 TH 08:30:00-17:00:00 FR 08:30:00-17:00:00 SA 08:30:00-12:30:00 SU closed"
"https://www.usps.com","https://tools.usps.com/find-location.htm","ELMHURST","5901 JUNCTION BLVD","ELMHURST","NY","11373-9997","US","1362449","7182713926","Usps","40.735188","-73.864598","MO 09:00:00-19:00:00 TU 09:00:00-19:00:00 WE 09:00:00-19:00:00 TH 09:00:00-19:00:00 FR 09:00:00-19:00:00 SA 09:00:00-16:00:00 SU closed"
"https://www.usps.com","https://tools.usps.com/find-location.htm","CORONA-A","10328 ROOSEVELT AVE","CORONA","NY","11368-9993","US","1359303","3473963610","Usps","40.749647","-73.861782","MO 08:30:00-17:00:00 TU 08:30:00-17:00:00 WE 08:30:00-17:00:00 TH 08:30:00-17:00:00 FR 08:30:00-17:00:00 SA 08:30:00-15:00:00 SU closed"
"https://www.usps.com","https://tools.usps.com/find-location.htm","MORRISANIA","442 E 167TH ST","BRONX","NY","10456-9998","US","1373840","7189938054","Usps","40.82995","-73.908789","MO 09:00:00-17:00:00 TU 09:00:00-17:00:00 WE 09:00:00-17:00:00 TH 09:00:00-17:00:00 FR 09:00:00-17:00:00 SA 09:00:00-14:00:00 SU closed"
"https://www.usps.com","https://tools.usps.com/find-location.htm","FLATBUSH","2273 CHURCH AVE","BROOKLYN","NY","11226-9997","US","1363490","3472941069","Usps","40.650781","-73.956409","MO 09:00:00-17:00:00 TU 09:00:00-17:00:00 WE 09:00:00-17:00:00 TH 09:00:00-17:00:00 FR 09:00:00-17:00:00 SA 08:00:00-13:00:00 SU closed"
"https://www.usps.com","https://tools.usps.com/find-location.htm","BRONX GPO ANNEX","1313 INWOOD AVE","BRONX","NY","10452-9997","US","1433002","7185883059","Usps","40.838741","-73.920339","<MISSING>"
"https://www.usps.com","https://tools.usps.com/find-location.htm","HIGHBRIDGE","1315 INWOOD AVE","BRONX","NY","10452-9998","US","1366916","7185886889","Usps","40.838746","-73.920345","MO 09:00:00-17:00:00 TU 09:00:00-17:00:00 WE 09:00:00-17:00:00 TH 09:00:00-17:00:00 FR 09:00:00-17:00:00 SA 09:00:00-14:00:00 SU closed"
"https://www.usps.com","https://tools.usps.com/find-location.htm","RIDGEFIELD PARK","155 MAIN ST","RIDGEFIELD PARK","NJ","07660-9998","US","1379299","2016419038","Usps","40.855096","-74.025234","MO 09:00:00-17:00:00 TU 09:00:00-17:00:00 WE 09:00:00-17:00:00 TH 09:00:00-17:00:00 FR 09:00:00-17:00:00 SA 10:00:00-16:00:00 SU closed"
"https://www.usps.com","https://tools.usps.com/find-location.htm","BROWNSVILLE","167 BRISTOL ST","BROOKLYN","NY","11212-9997","US","1356107","3477500645","Usps","40.667271","-73.911756","MO 09:00:00-17:00:00 TU 09:00:00-17:00:00 WE 09:00:00-17:00:00 TH 09:00:00-17:00:00 FR 09:00:00-17:00:00 SA 08:00:00-13:00:00 SU closed"
"https://www.usps.com","https://tools.usps.com/find-location.htm","HUNTS POINT","800 MANIDA ST","BRONX","NY","10474-9998","US","1367685","7189911586","Usps","40.817028","-73.888833","MO 09:00:00-17:00:00 TU 09:00:00-17:00:00 WE 09:00:00-17:00:00 TH 09:00:00-17:00:00 FR 09:00:00-17:00:00 SA 09:00:00-14:00:00 SU closed"
"https://www.usps.com","https://tools.usps.com/find-location.htm","KENSINGTON","419 MCDONALD AVE","BROOKLYN","NY","11218-9997","US","1368888","7184360164","Usps","40.643832","-73.979242","MO 09:30:00-18:00:00 TU 09:30:00-18:00:00 WE 09:30:00-18:00:00 TH 09:30:00-18:00:00 FR 09:30:00-18:00:00 SA 09:00:00-14:00:00 SU closed"
"https://www.usps.com","https://tools.usps.com/find-location.htm","EAST NEW YORK","2645 ATLANTIC AVE","BROOKLYN","NY","11207-9997","US","1361795","7185343569","Usps","40.676125","-73.896497","MO 09:00:00-17:00:00 TU 09:00:00-17:00:00 WE 09:00:00-17:00:00 TH 09:00:00-17:00:00 FR 09:00:00-17:00:00 SA 08:00:00-13:00:00 SU closed"
"https://www.usps.com","https://tools.usps.com/find-location.htm","RUGBY","726 UTICA AVE","BROOKLYN","NY","11203-9997","US","1380069","3472721735","Usps","40.655528","-73.931116","MO 09:00:00-17:00:00 TU 09:00:00-17:00:00 WE 09:00:00-17:00:00 TH 09:00:00-17:00:00 FR 09:00:00-17:00:00 SA 08:00:00-13:00:00 SU closed"
"https://www.usps.com","https://tools.usps.com/find-location.htm","NORTH ARLINGTON","10 RIDGE PARK DR","NORTH ARLINGTON","NJ","07031-9992","US","1433620","2019914767","Usps","40.795421","-74.129054","MO 08:30:00-16:30:00 TU 08:30:00-16:30:00 WE 08:30:00-16:30:00 TH 08:30:00-16:30:00 FR 08:30:00-16:30:00 SA 08:30:00-13:00:00 SU closed"
"https://www.usps.com","https://tools.usps.com/find-location.htm","WASHINGTON BRIDGE","518 W 181ST ST","NEW YORK","NY","10033-9997","US","1457512","2125432713","Usps","40.84843","-73.932135","MO 09:00:00-17:00:00 TU 09:00:00-17:00:00 WE 09:00:00-17:00:00 TH 09:00:00-17:00:00 FR 09:00:00-17:00:00 SA 09:00:00-16:00:00 SU closed"
"https://www.usps.com","https://tools.usps.com/find-location.htm","PAMRAPO","893 BROADWAY STE 1","BAYONNE","NJ","07002-9991","US","1376703","2013326519","Usps","40.678215","-74.106515","MO 09:00:00-16:45:00 TU 09:00:00-16:45:00 WE 09:00:00-16:45:00 TH 09:00:00-16:45:00 FR 09:00:00-16:45:00 SA closed SU closed"
"https://www.usps.com","https://tools.usps.com/find-location.htm","EAST RUTHERFORD","193 PARK AVE","EAST RUTHERFORD","NJ","07073-9998","US","1433564","2014386105","Usps","40.830955","-74.099103","MO 08:30:00-16:00:00 TU 08:30:00-16:00:00 WE 08:30:00-16:00:00 TH 08:30:00-16:00:00 FR 08:30:00-16:00:00 SA 08:30:00-12:00:00 SU closed"
"https://www.usps.com","https://tools.usps.com/find-location.htm","BAY RIDGE","5501 7TH AVE","BROOKLYN","NY","11220-9997","US","1354242","7184350642","Usps","40.639356","-74.008787","MO 09:00:00-17:00:00 TU 09:00:00-17:00:00 WE 09:00:00-17:00:00 TH 09:00:00-17:00:00 FR 09:00:00-17:00:00 SA 08:00:00-13:00:00 SU closed"
"https://www.usps.com","https://tools.usps.com/find-location.htm","BOULEVARD","1132 SOUTHERN BLVD","BRONX","NY","10459-9998","US","1355498","7183287870","Usps","40.827387","-73.891558","MO 09:00:00-17:00:00 TU 09:00:00-17:00:00 WE 09:00:00-17:00:00 TH 09:00:00-17:00:00 FR 09:00:00-17:00:00 SA 09:00:00-14:00:00 SU closed"
"https://www.usps.com","https://tools.usps.com/find-location.htm","UNIVERSITY HEIGHTS","1541 SHAKESPEARE AVE FRNT 1","BRONX","NY","10452-9993","US","1385478","7182949776","Usps","40.845918","-73.919388","MO 08:00:00-16:00:00 TU 08:00:00-16:00:00 WE 08:00:00-16:00:00 TH 08:00:00-16:00:00 FR 08:00:00-16:00:00 SA closed SU closed"
"https://www.usps.com","https://tools.usps.com/find-location.htm","SUNSET","6102 5TH AVE STE 1","BROOKLYN","NY","11220-9992","US","1384023","7184390417","Usps","40.638957","-74.017056","MO 09:00:00-17:00:00 TU 09:00:00-17:00:00 WE 09:00:00-17:00:00 TH 09:00:00-17:00:00 FR 09:00:00-17:00:00 SA closed SU closed"
"https://www.usps.com","https://tools.usps.com/find-location.htm","RUTHERFORD","156 PARK AVE","RUTHERFORD","NJ","07070-9998","US","1380158","2019331214","Usps","40.826256","-74.107809","MO 09:00:00-18:00:00 TU 09:00:00-18:00:00 WE 09:00:00-18:00:00 TH 09:00:00-18:00:00 FR 09:00:00-18:00:00 SA 09:00:00-16:00:00 SU closed"
"https://www.usps.com","https://tools.usps.com/find-location.htm","LYNDHURST","436 VALLEY BROOK AVE","LYNDHURST","NJ","07071-9998","US","1433602","2014386630","Usps","40.811291","-74.123654","MO 08:30:00-17:00:00 TU 08:30:00-17:00:00 WE 08:30:00-17:00:00 TH 08:30:00-17:00:00 FR 08:30:00-17:00:00 SA 08:30:00-12:00:00 SU closed"
"https://www.usps.com","https://tools.usps.com/find-location.htm","LEONIA","398 BROAD AVE","LEONIA","NJ","07605-9998","US","1433597","2019443986","Usps","40.864659","-73.986189","MO 10:00:00-18:00:00 TU 10:00:00-18:00:00 WE 10:00:00-18:00:00 TH 10:00:00-18:00:00 FR 10:00:00-18:00:00 SA 10:00:00-16:00:00 SU closed"
"https://www.usps.com","https://tools.usps.com/find-location.htm","CARLSTADT","331 1ST ST","CARLSTADT","NJ","07072-9998","US","1433551","2019394793","Usps","40.83843","-74.094491","MO 08:30:00-16:00:00 TU 08:30:00-16:00:00 WE 08:30:00-16:00:00 TH 08:30:00-16:00:00 FR 08:30:00-16:00:00 SA 08:30:00-12:00:00 SU closed"
"https://www.usps.com","https://tools.usps.com/find-location.htm","MARTIN LUTHER KING JR","9402 CHURCH AVE","BROOKLYN","NY","11212-9993","US","1372008","7183423189","Usps","40.6546","-73.916727","MO 09:00:00-17:00:00 TU 09:00:00-17:00:00 WE 09:00:00-17:00:00 TH 09:00:00-17:00:00 FR 09:00:00-17:00:00 SA 08:00:00-14:00:00 SU closed"
"https://www.usps.com","https://tools.usps.com/find-location.htm","KEARNY","64 MIDLAND AVE","KEARNY","NJ","07032-9998","US","1368743","2019915629","Usps","40.771181","-74.146652","MO 08:30:00-17:00:00 TU 08:30:00-17:00:00 WE 08:30:00-17:00:00 TH 08:30:00-17:00:00 FR 08:30:00-17:00:00 SA 08:30:00-13:00:00 SU closed"
"https://www.usps.com","https://tools.usps.com/find-location.htm","BLYTHEBOURNE","1200 51ST ST","BROOKLYN","NY","11219-9997","US","1355300","7184361675","Usps","40.634891","-73.995451","MO 09:00:00-17:00:00 TU 09:00:00-17:00:00 WE 09:00:00-17:00:00 TH 09:00:00-17:00:00 FR 09:00:00-17:00:00 SA 08:00:00-13:00:00 SU 08:00:00-15:00:00"
"https://www.usps.com","https://tools.usps.com/find-location.htm","SOUTH HACKENSACK","560 HUYLER ST","SOUTH HACKENSACK","NJ","07606-1544","US","1433652","2013754400","Usps","40.860539","-74.049106","MO 08:30:00-17:00:00 TU 08:30:00-17:00:00 WE 08:30:00-17:00:00 TH 08:30:00-17:00:00 FR 08:30:00-17:00:00 SA closed SU closed"
"https://www.usps.com","https://tools.usps.com/find-location.htm","WOOD RIDGE","290 HACKENSACK ST","WOOD RIDGE","NJ","07075-9998","US","1433690","2014381736","Usps","40.849324","-74.079751","MO 08:30:00-17:00:00 TU 08:30:00-17:00:00 WE 08:30:00-17:00:00 TH 08:30:00-17:00:00 FR 08:30:00-17:00:00 SA 08:30:00-12:00:00 SU closed"
"https://www.usps.com","https://tools.usps.com/find-location.htm","OVINGTON","6803 4TH AVE STE 1","BROOKLYN","NY","11220-9993","US","1376478","7187480665","Usps","40.635038","-74.022991","MO 09:00:00-17:00:00 TU 09:00:00-17:00:00 WE 09:00:00-17:00:00 TH 09:00:00-17:00:00 FR 09:00:00-17:00:00 SA closed SU closed"
"https://www.usps.com","https://tools.usps.com/find-location.htm","CYPRESS HILLS","222 CRESCENT ST","BROOKLYN","NY","11208-9993","US","1360120","7182776057","Usps","40.683956","-73.872468","MO 09:00:00-17:00:00 TU 09:00:00-17:00:00 WE 09:00:00-17:00:00 TH 09:00:00-17:00:00 FR 09:00:00-17:00:00 SA closed SU closed"
"https://www.usps.com","https://tools.usps.com/find-location.htm","NEWKIRK","1525 NEWKIRK AVE STE 1","BROOKLYN","NY","11226-9993","US","1374995","7182844900","Usps","40.63608","-73.962669","MO 09:00:00-17:00:00 TU 09:00:00-17:00:00 WE 09:00:00-17:00:00 TH 09:00:00-17:00:00 FR 09:00:00-17:00:00 SA closed SU closed"
"https://www.usps.com","https://tools.usps.com/find-location.htm","IRONBOUND","279 FERRY ST STE 4","NEWARK","NJ","07105-9998","US","1368039","9736905624","Usps","40.72768","-74.15102","MO 07:00:00-17:00:00 TU 07:00:00-17:00:00 WE 07:00:00-17:00:00 TH 07:00:00-17:00:00 FR 07:00:00-17:00:00 SA 08:30:00-15:00:00 SU closed"
"https://www.usps.com","https://tools.usps.com/find-location.htm","FOREST HILLS","10628 QUEENS BLVD","FOREST HILLS","NY","11375-9997","US","1363679","7182633165","Usps","40.721702","-73.846973","MO 07:00:00-17:00:00 TU 07:00:00-17:00:00 WE 07:00:00-17:00:00 TH 07:00:00-17:00:00 FR 07:00:00-17:00:00 SA 08:00:00-15:00:00 SU closed"
"https://www.usps.com","https://tools.usps.com/find-location.htm","FORT GEORGE","4558 BROADWAY","NEW YORK","NY","10040-9998","US","1363775","2129425266","Usps","40.858917","-73.93106","MO 08:00:00-17:00:00 TU 08:00:00-17:00:00 WE 08:00:00-17:00:00 TH 08:00:00-17:00:00 FR 08:00:00-17:00:00 SA 08:00:00-16:00:00 SU closed"
"https://www.usps.com","https://tools.usps.com/find-location.htm","PARKSIDE","10119 METROPOLITAN AVE","FOREST HILLS","NY","11375-9993","US","1376857","7182632957","Usps","40.710688","-73.851172","MO 09:00:00-17:00:00 TU 09:00:00-17:00:00 WE 09:00:00-17:00:00 TH 09:00:00-17:00:00 FR 09:00:00-17:00:00 SA closed SU closed"
"https://www.usps.com","https://tools.usps.com/find-location.htm","WOODHAVEN","8642 FOREST PKWY","WOODHAVEN","NY","11421-9997","US","1388182","7182969232","Usps","40.692723","-73.861407","MO 09:00:00-17:00:00 TU 09:00:00-17:00:00 WE 09:00:00-17:00:00 TH 09:00:00-17:00:00 FR 09:00:00-17:00:00 SA 09:00:00-12:30:00 SU closed"
"https://www.usps.com","https://tools.usps.com/find-location.htm","HARRISON","427 HARRISON AVE","HARRISON","NJ","07029-9998","US","1366325","9734815256","Usps","40.746414","-74.154731","MO 08:30:00-16:30:00 TU 08:30:00-16:30:00 WE 08:30:00-16:30:00 TH 08:30:00-16:30:00 FR 08:30:00-16:30:00 SA 09:00:00-13:00:00 SU closed"
"https://www.usps.com","https://tools.usps.com/find-location.htm","BELLEVILLE ANNEX","525 MAIN ST","BELLEVILLE","NJ","07109-9997","US","1354527","9737597652","Usps","40.798306","-74.142189","<MISSING>"
"https://www.usps.com","https://tools.usps.com/find-location.htm","COLLEGE POINT","12007 15TH AVE","COLLEGE POINT","NY","11356-9997","US","1358663","7183598691","Usps","40.784389","-73.847409","MO 09:00:00-17:00:00 TU 09:00:00-17:00:00 WE 09:00:00-17:00:00 TH 09:00:00-17:00:00 FR 09:00:00-17:00:00 SA 09:00:00-15:00:00 SU closed"
"https://www.usps.com","https://tools.usps.com/find-location.htm","FARRAGUT","1284 UTICA AVE","BROOKLYN","NY","11203-9993","US","1363198","7184510108","Usps","40.641255","-73.929539","MO closed TU 09:00:00-17:00:00 WE 09:00:00-17:00:00 TH 09:00:00-17:00:00 FR 09:00:00-17:00:00 SA closed SU closed"
"https://www.usps.com","https://tools.usps.com/find-location.htm","CLASON POINT","829 SOUNDVIEW AVE","BRONX","NY","10473-9991","US","1433731","7185420383","Usps","40.821931","-73.86762","MO 08:00:00-16:00:00 TU 08:00:00-16:00:00 WE 08:00:00-16:00:00 TH 08:00:00-16:00:00 FR 08:00:00-16:00:00 SA closed SU closed"
"https://www.usps.com","https://tools.usps.com/find-location.htm","BAYONNE","570 BROADWAY","BAYONNE","NJ","07002-9998","US","1354266","2013392029","Usps","40.666575","-74.115632","MO 10:00:00-19:00:00 TU 10:00:00-19:00:00 WE 10:00:00-19:00:00 TH 10:00:00-19:00:00 FR 10:00:00-19:00:00 SA 08:30:00-16:00:00 SU closed"
"https://www.usps.com","https://tools.usps.com/find-location.htm","MORRIS HEIGHTS","2024 JEROME AVE","BRONX","NY","10453-9998","US","1373826","7185830669","Usps","40.853003","-73.907697","MO 09:00:00-17:00:00 TU 09:00:00-17:00:00 WE 09:00:00-17:00:00 TH 09:00:00-17:00:00 FR 09:00:00-17:00:00 SA 09:00:00-14:00:00 SU closed"
"https://www.usps.com","https://tools.usps.com/find-location.htm","NEW LOTS","1223 SUTTER AVE","BROOKLYN","NY","11208-9997","US","1374791","7182770217","Usps","40.672882","-73.872488","MO 09:00:00-17:00:00 TU 09:00:00-17:00:00 WE 09:00:00-17:00:00 TH 09:00:00-17:00:00 FR 09:00:00-17:00:00 SA 08:00:00-13:00:00 SU closed"
"https://www.usps.com","https://tools.usps.com/find-location.htm","BELLEVILLE","413 WASHINGTON AVE","BELLEVILLE","NJ","07109-9998","US","1433545","9737597652","Usps","40.794938","-74.149827","MO 08:30:00-17:00:00 TU 08:30:00-17:00:00 WE 08:30:00-17:00:00 TH 08:30:00-17:00:00 FR 08:30:00-17:00:00 SA 08:30:00-15:00:00 SU closed"
"https://www.usps.com","https://tools.usps.com/find-location.htm","FERRY TERMINAL","3 FERRY TERMINAL DR","STATEN ISLAND","NY","10301-9992","US","1449340","7183925687","Usps","40.641099","-74.075352","MO 05:45:00-13:30:00 TU 05:45:00-13:30:00 WE 05:45:00-13:30:00 TH 05:45:00-13:30:00 FR 05:45:00-13:30:00 SA closed SU closed"
"https://www.usps.com","https://tools.usps.com/find-location.htm","SAINT GEORGE","45 BAY ST STE 2","STATEN ISLAND","NY","10301-9997","US","1380337","7189812480","Usps","40.641074","-74.075346","MO 08:30:00-17:00:00 TU 08:30:00-17:00:00 WE 08:30:00-17:00:00 TH 08:30:00-17:00:00 FR 08:30:00-17:00:00 SA 08:30:00-13:00:00 SU closed"
"https://www.usps.com","https://tools.usps.com/find-location.htm","TREMONT","575 E TREMONT AVE","BRONX","NY","10457-9998","US","1384963","7182990847","Usps","40.846713","-73.893897","MO 09:00:00-17:00:00 TU 09:00:00-17:00:00 WE 09:00:00-17:00:00 TH 09:00:00-17:00:00 FR 09:00:00-17:00:00 SA 09:00:00-14:00:00 SU closed"
"https://www.usps.com","https://tools.usps.com/find-location.htm","SOUNDVIEW","1687 GLEASON AVE","BRONX","NY","10472-9998","US","1382081","7188939707","Usps","40.829449","-73.871115","MO 09:00:00-17:00:00 TU 09:00:00-17:00:00 WE 09:00:00-17:00:00 TH 09:00:00-17:00:00 FR 09:00:00-17:00:00 SA 09:00:00-14:00:00 SU closed"
"https://www.usps.com","https://tools.usps.com/find-location.htm","HASBROUCK HEIGHTS","185 BOULEVARD","HASBROUCK HEIGHTS","NJ","07604-9998","US","1433582","2012883905","Usps","40.861119","-74.079401","MO 10:00:00-14:00:00 TU 10:00:00-14:00:00 WE 10:00:00-14:00:00 TH 10:00:00-14:00:00 FR 10:00:00-14:00:00 SA 10:00:00-16:00:00 SU closed"
"https://www.usps.com","https://tools.usps.com/find-location.htm","MIDWOOD","1288 CONEY ISLAND AVE","BROOKLYN","NY","11230-9997","US","1373043","3475788835","Usps","40.626092","-73.96563","MO 09:00:00-17:00:00 TU 09:00:00-17:00:00 WE 09:00:00-17:00:00 TH 09:00:00-17:00:00 FR 09:00:00-17:00:00 SA 08:00:00-13:00:00 SU closed"
"https://www.usps.com","https://tools.usps.com/find-location.htm","WEST FARMS","362 DEVOE AVE","BRONX","NY","10460-9998","US","1387024","7188231245","Usps","40.839594","-73.877449","MO 09:00:00-17:00:00 TU 09:00:00-17:00:00 WE 09:00:00-17:00:00 TH 09:00:00-17:00:00 FR 09:00:00-17:00:00 SA 09:00:00-14:00:00 SU closed"
"https://www.usps.com","https://tools.usps.com/find-location.htm","FORT LEE ANNEX","360 SYLVAN AVE STE 3","ENGLEWOOD CLIFFS","NJ","07632-2721","US","1434012","2015672739","Usps","40.874631","-73.953726","<MISSING>"
"https://www.usps.com","https://tools.usps.com/find-location.htm","VANDERVEER","2319 NOSTRAND AVE","BROOKLYN","NY","11210-9997","US","1385754","7183778139","Usps","40.628523","-73.946878","MO 09:00:00-18:00:00 TU 09:00:00-18:00:00 WE 09:00:00-18:00:00 TH 09:00:00-18:00:00 FR 09:00:00-18:00:00 SA 08:00:00-14:00:00 SU closed"
